svc_name	sequence	stop_id	name_en	name_mm	road_en	road_mm	township_en	township_mm	lat	lng
86	1	389	Yone Lay	ရုံးလေး	Upper Pazundaung Road	အထက်ပုဇွန်တောင်လမ်း	Pazundaung	ပုဇွန်တောင်	16.797084	96.186241
86	2	370	A.B.C	အေဘီစီ	Upper Pazundaung Road	အထက်ပုဇွန်တောင်လမ်း	Pazundaung	ပုဇွန်တောင်	16.79996	96.186879
86	3	376	Chauk Lan	(၆) လမ်း	Upper Pazundaung Road	အထက်ပုဇွန်တောင်လမ်း	Pazundaung	ပုဇွန်တောင်	16.803761	96.185248
86	4	372	Arthawka	အာသောက	Thamain Bayan Road	သမိန်ဗရမ်းလမ်း	Tamwe	တာမွေ	16.807365	96.180173
86	5	380	Tamwe Bali	တာမွေဗလီ	Thamain Bayan Road	သမိန်ဗရမ်းလမ်း	Tamwe	တာမွေ	16.809533	96.177093
86	6	383	Tamwe Plaza	တာမွေပလာဇာ	Thamain Bayan Road	သမိန်ဗရမ်းလမ်း	Tamwe	တာမွေ	16.810901	96.175102
86	7	237	Awine Htate/ Tamwe	အဝိုင်းထိပ်/ တာမွေ	West Horse Race Course Road	အနောက်မြင်းပြိုင်လမ်း	Tamwe	တာမွေ	16.811882399727807	96.1710895097349
86	8	350	Mya Lan	မြလမ်း	West Horse Race Course Road	အနောက်မြင်းပြိုင်လမ်း	Bahan	ဗဟန်း	16.815803476666527	96.16824572185578
86	9	347	Lan Sone	လမ်းဆုံ	U Chit Maung Road	ဦးချစ်မောင်လမ်း	Bahan	ဗဟန်း	16.817595	96.16674
86	10	348	Min Lan	မင်းလမ်း	U Chit Maung Road	ဦးချစ်မောင်လမ်း	Bahan	ဗဟန်း	16.819495	96.165249
86	11	354	Zay Kwae	ဈေးကွေ့	U Chit Maung Road	ဦးချစ်မောင်လမ်း	Bahan	ဗဟန်း	16.82250281937509	96.16280280730281
86	12	2385	Baho Bank	ဗဟိုဘဏ်	No. 1 Industrial Road	အမှတ်(၁)စက်မှုဇုန်လမ်း	Yankin	ရန်ကင်း	16.824887	96.160199
86	13	2383	Set Hmu (1)	စက်မှု (၁)	No. 1 Industrial Road	အမှတ်(၁)စက်မှုဇုန်လမ်း	Yankin	ရန်ကင်း	16.825994453613134	96.15880109846331
86	14	2424	Set Hmu Tit/Myanmar Plaza	စက်မှု (၁)/မြန်မာပလာဇာ	Kabar Aye Pagoda Road	ကမ္ဘာအေးဘုရားလမ်း	Bahan	ဗဟန်း	16.8270325276271	96.1542052030563
86	15	2323	Koke Kine	ကုက္ကိုင်း	University Avenue Road	တက္ကသိုလ်ရိပ်သာလမ်း	Bahan	ဗဟန်း	16.823558610330995	96.15304296836257
86	16	2325	Inya Myaing	အင်ယာမြိုင်	University Avenue Road	တက္ကသိုလ်ရိပ်သာလမ်း	Bahan	ဗဟန်း	16.8248228559485	96.1472372012213
86	17	2337	Thanlwin	သံလွင်	University Avenue Road	တက္ကသိုလ်ရိပ်သာလမ်း	Bahan	ဗဟန်း	16.82406009744107	96.14524126052858
86	18	2335	UFL	ယူအပ်ဖ်အယ်	University Avenue Road	တက္ကသိုလ်ရိပ်သာလမ်း	Bahan	ဗဟန်း	16.825153	96.142351
86	19	2331	Kyuanlan	ကျောင်းလမ်း	University Avenue Road	တက္ကသိုလ်ရိပ်သာလမ်း	Kamayut	ကမာရွတ်	16.825918	96.13846
86	20	318	Kyaung Shae/ Dhamar Yon	ကျောင်းရှေ့/ဓမ္မာရုံ	University Avenue Road	တက္ကသိုလ်ရိပ်သာလမ်း	Kamayut	ကမာရွတ်	16.826485	96.132192
86	21	287	Hledan	လှည်းတန်း	Yangon-Insein Road	ရန်ကုန်-အင်းစိန်လမ်း	Kamayut	ကမာရွတ်	16.827952	96.130435
86	22	1175	San Yeik Nyein	စံရိပ်ငြိမ်	Yangon-Insein Road	ရန်ကုန်-အင်းစိန်လမ်း	Kamayut	ကမာရွတ်	16.831942429089896	96.12954480573538
86	23	1177	Sin Yae Twin	ဆင်ရေတွင်း	Yangon-Insein Road	ရန်ကုန်-အင်းစိန်လမ်း	Kamayut	ကမာရွတ်	16.834325849790382	96.12863868009302
86	24	1170	Butar Yon Lan	ဘူတာရုံလမ်း	Yangon-Insein Road	ရန်ကုန်-အင်းစိန်လမ်း	Hlaing	လှိုင်	16.83729665475637	96.1277522519231
86	25	1181	Thukha	သုခ	Yangon-Insein Road	ရန်ကုန်-အင်းစိန်လမ်း	Hlaing	လှိုင်	16.84047	96.127017
86	26	1179	Than Lan	သံလမ်း	Yangon-Insein Road	ရန်ကုန်-အင်းစိန်လမ်း	Hlaing	လှိုင်	16.845174404267453	96.1259302776307
86	27	1212	Bartar	ဘာတာ	Yangon-Insein Road	ရန်ကုန်-အင်းစိန်လမ်း	Hlaing	လှိုင်	16.851150141657822	96.12455583410339
86	28	1217	Oakyin	အုတ်ကျင်း	Yangon-Insein Road	ရန်ကုန်-အင်းစိန်လမ်း	Hlaing	လှိုင်	16.854916470149714	96.12391686066985
86	29	2392	Paya Lan	ဘုရားလမ်း	Yangon-Insein Road	ရန်ကုန်-အင်းစိန်လမ်း	Hlaing	လှိုင်	16.8577458299178	96.1235475540161
86	30	2402	Thamine Lan Son	သမိုင်းလမ်းဆုံ	Yangon-Insein Road	ရန်ကုန်-အင်းစိန်လမ်း	Mayangone	မရမ်းကုန်း	16.8633007849722	96.1216056346893
86	31	1250	Kalar Kyaung	ကုလားကျောင်း	Yangon-Insein Road	ရန်ကုန်-အင်းစိန်လမ်း	Mayangone	မရမ်းကုန်း	16.864784	96.121143
86	32	1252	Kha Wae Chan	ခဝဲခြံ	Yangon-Insein Road	ရန်ကုန်-အင်းစိန်လမ်း	Mayangone	မရမ်းကုန်း	16.869492	96.119748
86	33	1311	B.P.I	ဘီပီအိုင်	Yangon-Insein Road	ရန်ကုန်-အင်းစိန်လမ်း	Insein	အင်းစိန်	16.875178616130857	96.11636074259879
86	34	1312	Kyoe Kone	ကြို့ကုန်း	Yangon-Insein Road	ရန်ကုန်-အင်းစိန်လမ်း	Insein	အင်းစိန်	16.8784827070093	96.11278095748277
86	35	1341	B.O.C	ဘီအိုစီ	Yangon-Insein Road	ရန်ကုန်-အင်းစိန်လမ်း	Insein	အင်းစိန်	16.884947027069753	96.11010398715734
86	36	1346	Insein Pan Chan	အင်းစိန်ပန်းခြံ	Min Gyi Road	မင်းကြီးလမ်း	Insein	အင်းစိန်	16.8876457653682	96.1077884444967
86	37	1347	Insein Say Yon Gyi	အင်းစိန်ဆေးရုံကြီး	Min Gyi Road	မင်းကြီးလမ်း	Insein	အင်းစိန်	16.892232	96.105865
86	38	1349	Ma Nya Ka	မညက	Min Gyi Street	မင်းကြီးလမ်းသွယ်	Insein	အင်းစိန်	16.896944	96.105124
86	39	1369	Hight Pak	ဟိုက်ပက်	Min Gyi Road	မင်းကြီးလမ်း	Insein	အင်းစိန်	16.898659	96.10567
86	40	1368	Bo Kone	ဗိုလ်ကုန်း	Min Gyi Road	မင်းကြီးလမ်း	Insein	အင်းစိန်	16.900917	96.1067
86	41	1366	Thayet Taw	သရက်တော	Min Gyi Road	မင်းကြီးလမ်း	Insein	အင်းစိန်	16.90230017160356	96.1028949217871
86	42	1367	Bo Kone	ဗိုလ်ကုန်း	Min Gyi Road	မင်းကြီးလမ်း	Insein	အင်းစိန်	16.900902050977837	96.10639025922868
86	43	1370	Hight Pak	ဟိုက်ပက်	Min Gyi Road	မင်းကြီးလမ်း	Insein	အင်းစိန်	16.898819557221824	96.10545127652587
86	44	1350	Ma Nya Ka	မညက	Min Gyi Street	မင်းကြီးလမ်းသွယ်	Insein	အင်းစိန်	16.897026	96.104942
86	45	1348	Insein Say Yon Gyi	အင်းစိန်ဆေးရုံကြီး	Min Gyi Road	မင်းကြီးလမ်း	Insein	အင်းစိန်	16.892273	96.105639
86	46	1345	Insein Pan Chan	အင်းစိန်ပန်းခြံ	Min Gyi Road	မင်းကြီးလမ်း	Insein	အင်းစိန်	16.887531514108538	96.10758610535414
86	47	1342	B.O.C	ဘီအိုစီ	Yangon-Insein Road	ရန်ကုန်-အင်းစိန်လမ်း	Insein	အင်းစိန်	16.884919917579392	96.10990806017071
86	48	1313	Kyoe Kone	ကြို့ကုန်း	Yangon-Insein Road	ရန်ကုန်-အင်းစိန်လမ်း	Insein	အင်းစိန်	16.878436988253824	96.11263456754386
86	49	1310	B.P.I	ဘီပီအိုင်	Yangon-Insein Road	ရန်ကုန်-အင်းစိန်လမ်း	Insein	အင်းစိန်	16.874841	96.116313
86	50	1253	Kha Wae Chan	ခဝဲခြံ	Yangon-Insein Road	ရန်ကုန်-အင်းစိန်လမ်း	Mayangone	မရမ်းကုန်း	16.869274405472567	96.11956872744487
86	51	1251	Kalar Kyaung	ကုလားကျောင်း	Yangon-Insein Road	ရန်ကုန်-အင်းစိန်လမ်း	Mayangone	မရမ်းကုန်း	16.865719	96.120693
86	52	1222	Thamine Lan Son	သမိုင်းလမ်းဆုံ	Yangon-Insein Road	ရန်ကုန်-အင်းစိန်လမ်း	Mayangone	မရမ်းကုန်း	16.863580854665273	96.12128087785096
86	53	1219	Paya Lan	ဘုရားလမ်း	Yangon-Insein Road	ရန်ကုန်-အင်းစိန်လမ်း	Hlaing	လှိုင်	16.858449573541584	96.1232297960669
86	54	1218	Oakyin	အုတ်ကျင်း	Yangon-Insein Road	ရန်ကုန်-အင်းစိန်လမ်း	Hlaing	လှိုင်	16.85535357935823	96.12357353791595
86	55	1211	Bartar	ဘာတာ	Yangon-Insein Road	ရန်ကုန်-အင်းစိန်လမ်း	Hlaing	လှိုင်	16.852028788549283	96.12414786592129
86	56	1180	Than Lan	သံလမ်း	Yangon-Insein Road	ရန်ကုန်-အင်းစိန်လမ်း	Hlaing	လှိုင်	16.846071	96.125475
86	57	1182	Thukha	သုခ	Yangon-Insein Road	ရန်ကုန်-အင်းစိန်လမ်း	Hlaing	လှိုင်	16.840511	96.12683
86	58	1171	Butar Yon Lan	ဘူတာရုံလမ်း	Yangon-Insein Road	ရန်ကုန်-အင်းစိန်လမ်း	Hlaing	လှိုင်	16.837466	96.127449
86	59	1176	Sin Yae Twin	ဆင်ရေတွင်း	Yangon-Insein Road	ရန်ကုန်-အင်းစိန်လမ်း	Kamayut	ကမာရွတ်	16.833769	96.128565
86	60	1174	San Yeik Nyein	စံရိပ်ငြိမ်	Yangon-Insein Road	ရန်ကုန်-အင်းစိန်လမ်း	Kamayut	ကမာရွတ်	16.83080186323241	96.12952651223169
86	61	288	Hledan	လှည်းတန်း	Yangon-Insein Road	ရန်ကုန်-အင်းစိန်လမ်း	Kamayut	ကမာရွတ်	16.827968991730348	96.13019763026388
86	62	2194	Kyaung Shae/ Dhamar Yon	ကျောင်းရှေ့/ဓမ္မာရုံ	University Avenue Road	တက္ကသိုလ်ရိပ်သာလမ်း	Kamayut	ကမာရွတ်	16.826185736571823	96.13278248347343
86	63	2333	Kyuanlan	ကျောင်းလမ်း	University Avenue Road	တက္ကသိုလ်ရိပ်သာလမ်း	Kamayut	ကမာရွတ်	16.825767	96.138751
86	64	2329	UFL	ယူအပ်ဖ်အယ်	University Avenue Road	တက္ကသိုလ်ရိပ်သာလမ်း	Bahan	ဗဟန်း	16.825133	96.142044
86	65	2327	Thanlwin	သံလွင်	University Avenue Road	တက္ကသိုလ်ရိပ်သာလမ်း	Bahan	ဗဟန်း	16.824228	96.145139
86	66	2339	Inya Myaing	အင်ယာမြိုင်	University Avenue Road	တက္ကသိုလ်ရိပ်သာလမ်း	Bahan	ဗဟန်း	16.824615418351883	96.14719382487239
86	67	2341	Koke Kine	ကုက္ကိုင်း	University Avenue Road	တက္ကသိုလ်ရိပ်သာလမ်း	Bahan	ဗဟန်း	16.823771625176313	96.1522226314992
86	68	325	Set Hmu Tit/Myanmar Plaza	စက်မှု (၁)/မြန်မာပလာဇာ	Kabar Aye Pagoda Road	ကမ္ဘာအေးဘုရားလမ်း	Bahan	ဗဟန်း	16.826940744308455	96.15445330739023
86	69	2388	Set Hmu (1)	စက်မှု (၁)	No. 1 Industrial Road	အမှတ်(၁)စက်မှုဇုန်လမ်း	Yankin	ရန်ကင်း	16.826158759059954	96.1581852240488
86	70	2387	Baho Bank	ဗဟိုဘဏ်	No. 1 Industrial Road	အမှတ်(၁)စက်မှုဇုန်လမ်း	Yankin	ရန်ကင်း	16.824887	96.160199
86	71	355	Zay Kwae	ဈေးကွေ့	U Chit Maung Road	ဦးချစ်မောင်လမ်း	Bahan	ဗဟန်း	16.822303054572906	96.16266463162903
86	72	349	Min Lan	မင်းလမ်း	U Chit Maung Road	ဦးချစ်မောင်လမ်း	Bahan	ဗဟန်း	16.819669	96.164948
86	73	346	Lan Sone	လမ်းဆုံ	U Chit Maung Road	ဦးချစ်မောင်လမ်း	Bahan	ဗဟန်း	16.81753155492063	96.16652819328012
86	74	351	Mya Lan	မြလမ်း	West Horse Race Course Road	အနောက်မြင်းပြိုင်လမ်း	Bahan	ဗဟန်း	16.816393	96.16748
86	75	236	Awine Htate/ Tamwe	အဝိုင်းထိပ်/ တာမွေ	West Horse Race Course Road	အနောက်မြင်းပြိုင်လမ်း	Tamwe	တာမွေ	16.811851525336696	96.17080198246187
86	76	382	Tamwe Plaza	တာမွေပလာဇာ	Thamain Bayan Road	သမိန်ဗရမ်းလမ်း	Tamwe	တာမွေ	16.81067485889442	96.17535173892976
86	77	381	Tamwe Bali	တာမွေဗလီ	Thamain Bayan Road	သမိန်ဗရမ်းလမ်း	Tamwe	တာမွေ	16.809481	96.17689
86	78	373	Arthawka	အာသောက	Thamain Bayan Road	သမိန်ဗရမ်းလမ်း	Tamwe	တာမွေ	16.807201	96.180065
86	79	377	Chauk Lan	(၆) လမ်း	Upper Pazundaung Road	အထက်ပုဇွန်တောင်လမ်း	Pazundaung	ပုဇွန်တောင်	16.803807	96.185098
86	80	371	A.B.C	အေဘီစီ	Upper Pazundaung Road	အထက်ပုဇွန်တောင်လမ်း	Pazundaung	ပုဇွန်တောင်	16.79994	96.186782
86	81	390	Yone Lay	ရုံးလေး	Upper Pazundaung Road	အထက်ပုဇွန်တောင်လမ်း	Pazundaung	ပုဇွန်တောင်	16.797218	96.186182
