svc_name	sequence	stop_id	name_en	name_mm	road_en	road_mm	township_en	township_mm	lat	lng
16A	1	1603	Sae-Chauk Kwae	(၁၆) ကွေ့	Innwa Road	အင်းဝလမ်း	North Okkalapa	မြောက်ဥက္ကလာပ	16.935857	96.180042
16A	2	2209	Shwe La Min	ရွှေလမင်း	Taung Goo Road	တောင်ငူလမး်	North Okkalapa	မြောက်ဥက္ကလာပ	16.934472	96.180248
16A	3	2189	Parami	ပါရမီ	Taung Goo Road	တောင်ငူလမး်	North Okkalapa	မြောက်ဥက္ကလာပ	16.9313	96.180621
16A	4	833	Min Htoo Kyaw	မင်းထူးကျော်	Bagan Road	ပုဂံလမ်း	North Dagon	မြောက်ဒဂုံ	16.927154	96.182338
16A	5	835	Sal Myaung	ဆည်မြောင်း	Bagan Road	ပုဂံလမ်း	North Dagon	မြောက်ဒဂုံ	16.92467	96.179377
16A	6	828	Hmaw Kyun	မော်ကျွန်း	Bagan Road	ပုဂံလမ်း	North Dagon	မြောက်ဒဂုံ	16.923274	96.17618
16A	7	824	Kar Gyi Gate	ကားကြီးဂိတ်	Wai Bargi Road	ဝေဘာဂီလမ်း	North Okkalapa	မြောက်ဥက္ကလာပ	16.922022	96.171845
16A	8	1607	Dhamar Yon	ဓမ္မာရုံ	Wai Bargi Road	ဝေဘာဂီလမ်း	North Okkalapa	မြောက်ဥက္ကလာပ	16.921652	96.169742
16A	9	826	Kyaung Lan	ကျောင်းလမ်း	Wai Bargi Road	ဝေဘာဂီလမ်း	North Okkalapa	မြောက်ဥက္ကလာပ	16.920954	96.167403
16A	11	819	Chauk Kwae	(၆) ကွေ့	Thudhamar Road	သုဓမ္မာလမ်း	North Okkalapa	မြောက်ဥက္ကလာပ	16.918552	96.162986
16A	12	850	Kan Tharyar	ကန်သာယာ	Thudhamar Road	သုဓမ္မာလမ်း	North Okkalapa	မြောက်ဥက္ကလာပ	16.913133	96.165152
16A	13	858	Ou Zanar	ဥဇ္ဇနာ	Thudhamar Road	သုဓမ္မာလမ်း	North Okkalapa	မြောက်ဥက္ကလာပ	16.910967	96.165856
16A	14	843	Eindar	က္ကန္ဒာ	Thudhamar Road	သုဓမ္မာလမ်း	North Okkalapa	မြောက်ဥက္ကလာပ	16.90722	96.166135
16A	15	864	Thu Nandar	သုနန္ဒာ	Thudhamar Road	သုဓမ္မာလမ်း	North Okkalapa	မြောက်ဥက္ကလာပ	16.903951	96.165427
16A	16	866	Waziyar	ဝဇီယာ	Thudhamar Road	သုဓမ္မာလမ်း	North Okkalapa	မြောက်ဥက္ကလာပ	16.901323	96.164128
16A	17	862	Thandar	သန္တာ	Thudhamar Road	သုဓမ္မာလမ်း	North Okkalapa	မြောက်ဥက္ကလာပ	16.899026	96.162241
16A	18	883	Ga-gyi Zay	(ဃ) ဈေး	Thudhamar Road	သုဓမ္မာလမ်း	North Okkalapa	မြောက်ဥက္ကလာပ	16.89677	96.159541
16A	19	888	Myauk Okkalar Awine	မြောက်ဥက္ကလာအဝိုင်း	Thudhamar Road	သုဓမ္မာလမ်း	North Okkalapa	မြောက်ဥက္ကလာပ	16.892889	96.15455
16A	20	886	Kyauk Yae Twin	ကျောက်ရေတွင်း	Thudhamar Road	သုဓမ္မာလမ်း	North Okkalapa	မြောက်ဥက္ကလာပ	16.890251	96.153619
16A	21	890	Phone Gyi Lan	ဘုန်းကြီးလမ်း	Thudhamar Road	သုဓမ္မာလမ်း	North Okkalapa	မြောက်ဥက္ကလာပ	16.881781	96.15513
16A	22	1275	Hnit Zay	(၂) ဈေး	Thudhamar Road	သုဓမ္မာလမ်း	North Okkalapa	မြောက်ဥက္ကလာပ	16.878558	96.155932
16A	23	1821	Ngar Lan	(၅) လမ်း	Thudhamar Road	သုဓမ္မာလမ်း	North Okkalapa	မြောက်ဥက္ကလာပ	16.874205	96.156698
16A	24	1280	Lan Wa/ Nawaday	လမ်းဝ/နဝဒေး	Thudhamar Road	သုဓမ္မာလမ်း	North Okkalapa	မြောက်ဥက္ကလာပ	16.867223	96.154443
16A	25	1819	Nawaday	နဝဒေး	Kabar Aye Pagoda Road	ကမ္ဘာအေးဘုရားလမ်း	Mayangone	မရမ်းကုန်း	16.866879	96.152638
16A	26	1265	Myaing Hay Wun	မြိုင်ဟေဝန်ပန်းခြံ	Kabar Aye Pagoda Road	ကမ္ဘာအေးဘုရားလမ်း	Mayangone	မရမ်းကုန်း	16.866771	96.143438
16A	27	1267	Shit Mile	(၈) မိုင်	Kyaik Wine Pagoda Road	ကျိုက်ဝိုင်းဘုရားလမ်း	Mayangone	မရမ်းကုန်း	16.865924	96.141839
16A	28	1271	Ye Baw Haung	ရဲဘော်ဟောင်း	Kyaik Wine Pagoda Road	ကျိုက်ဝိုင်းဘုရားလမ်း	Mayangone	မရမ်းကုန်း	16.867634	96.137322
16A	29	1255	Kyaik Wine	ကျိုက်ဝိုင်း	Kyaik Wine Pagoda Road	ကျိုက်ဝိုင်းဘုရားလမ်း	Mayangone	မရမ်းကုန်း	16.86674	96.128717
16A	30	1257	Ye Yan Aung	ရဲရန်အောင်	Kyaik Wine Pagoda Road	ကျိုက်ဝိုင်းဘုရားလမ်း	Mayangone	မရမ်းကုန်း	16.866268	96.126003
16A	31	1221	Thamine Lan Son	သမိုင်းလမ်းဆုံ	Kyaik Wine Pagoda Road	ကျိုက်ဝိုင်းဘုရားလမ်း	Mayangone	မရမ်းကုန်း	16.863193	96.122404
16A	32	1216	Kyway Tit	ကြွေ (၁)	Thamine Buteryon Road	သမိုင်းဘူတာရုံလမ်း	Mayangone	မရမ်းကုန်း	16.861293	96.120494
16A	33	1224	U Ba Han	ဦးဘဟန်	Thamine Buteryon Road	သမိုင်းဘူတာရုံလမ်း	Mayangone	မရမ်းကုန်း	16.86117	96.118397
16A	34	1207	Zay Butar	ဈေးဘူတာ	Thamine Buteryon Road	သမိုင်းဘူတာရုံလမ်း	Mayangone	မရမ်းကုန်း	16.860185	96.112882
16A	35	1194	Bayint Naung Lan Sone	ဘုရင့်နောင်လမ်းဆုံ	Thamine Buteryon Road	သမိုင်းဘူတာရုံလမ်း	Mayangone	မရမ်းကုန်း	16.859507	96.109374
16A	36	1157	Tat Htate	တပ်ထိပ်	No. 5 Main Road	အမှတ်(၅)လမ်းမ	Hlaing Tharyar	လှိုင်သာယာ	16.85445	96.089095
16A	37	1155	Set Hmu Zone	စက်မှုဇုံ	No. 5 Main Road	အမှတ်(၅)လမ်းမ	Hlaing Tharyar	လှိုင်သာယာ	16.856842	96.082293
16A	38	1152	Bogyoke	ဗိုလ်ချုပ်	No. 5 Main Road	အမှတ်(၅)လမ်းမ	Hlaing Tharyar	လှိုင်သာယာ	16.858485	96.077541
16A	39	1148	Ah Sint Myint	အဆင့်မြင့်	No. 5 Main Road	အမှတ်(၅)လမ်းမ	Hlaing Tharyar	လှိုင်သာယာ	16.859974	96.073195
16A	40	33	Nawaday	နဝဒေး	No. 5 Main Road	အမှတ်(၅)လမ်းမ	Hlaing Tharyar	လှိုင်သာယာ	16.861514	96.068913
16A	41	1145	Paya Lan	ဘုရားလမ်း	No. 5 Main Road	အမှတ်(၅)လမ်းမ	Hlaing Tharyar	လှိုင်သာယာ	16.862562	96.064214
16A	42	1133	Sauk Lote Yae	ဆောက်လုပ်ရေး	No. 5 Main Road	အမှတ်(၅)လမ်းမ	Hlaing Tharyar	လှိုင်သာယာ	16.864389	96.054901
16A	43	2222	Out Htate	အောက်ထိပ်	No. 5 Main Road	အမှတ်(၅)လမ်းမ	Hlaing Tharyar	လှိုင်သာယာ	16.864759	96.052575
16A	44	2224	Toe Chae	တိုးချဲ့	No. 5 Main Road	အမှတ်(၅)လမ်းမ	Hlaing Tharyar	လှိုင်သာယာ	16.86825	96.044236
16A	45	1121	B.O.C	ဘီအိုစီ	No. 5 Main Road	အမှတ်(၅)လမ်းမ	Hlaing Tharyar	လှိုင်သာယာ	16.872398	96.038336
16A	46	1126	Thama Kone	သမကုန်း	No. 5 Main Road	အမှတ်(၅)လမ်းမ	Hlaing Tharyar	လှိုင်သာယာ	16.874492	96.033229
16A	47	25	Dagon Ayar A Way Pyay	ဒဂုံဧရာအဝေးပြေး	No. 5 Main Road	အမှတ်(၅)လမ်းမ	Hlaing Tharyar	လှိုင်သာယာ	16.87807	96.024342
16A	48	2351	Dagon Ayar A Way Pyay	ဒဂုံဧရာအဝေးပြေး	No. 5 Main Road	အမှတ်(၅)လမ်းမ	Hlaing Tharyar	လှိုင်သာယာ	16.878361	96.023085
16A	48	1125	Thama Kone	သမကုန်း	No. 5 Main Road	အမှတ်(၅)လမ်းမ	Hlaing Tharyar	လှိုင်သာယာ	16.874225	96.033036
16A	49	1122	B.O.C	ဘီအိုစီ	No. 5 Main Road	အမှတ်(၅)လမ်းမ	Hlaing Tharyar	လှိုင်သာယာ	16.872274	96.037928
16A	50	2225	Toe Chae	တိုးချဲ့	No. 5 Main Road	အမှတ်(၅)လမ်းမ	Hlaing Tharyar	လှိုင်သာယာ	16.867983	96.044151
16A	51	2223	Out Htate	အောက်ထိပ်	No. 5 Main Road	အမှတ်(၅)လမ်းမ	Hlaing Tharyar	လှိုင်သာယာ	16.864584	96.05251
16A	52	1132	Sauk Lote Yae	ဆောက်လုပ်ရေး	No. 5 Main Road	အမှတ်(၅)လမ်းမ	Hlaing Tharyar	လှိုင်သာယာ	16.864061	96.054922
16A	53	1144	Paya Lan	ဘုရားလမ်း	No. 5 Main Road	အမှတ်(၅)လမ်းမ	Hlaing Tharyar	လှိုင်သာယာ	16.862171	96.064149
16A	54	32	Nawaday	နဝဒေး	No. 5 Main Road	အမှတ်(၅)လမ်းမ	Hlaing Tharyar	လှိုင်သာယာ	16.861391	96.068355
16A	55	1149	Ah Sint Myint	အဆင့်မြင့်	No. 5 Main Road	အမှတ်(၅)လမ်းမ	Hlaing Tharyar	လှိုင်သာယာ	16.859882	96.072927
16A	56	1153	Bogyoke	ဗိုလ်ချုပ်	No. 5 Main Road	အမှတ်(၅)လမ်းမ	Hlaing Tharyar	လှိုင်သာယာ	16.858362	96.077283
16A	57	1154	Set Hmu Zone	စက်မှုဇုံ	No. 5 Main Road	အမှတ်(၅)လမ်းမ	Hlaing Tharyar	လှိုင်သာယာ	16.856719	96.082079
16A	58	1156	Tat Htate	တပ်ထိပ်	No. 5 Main Road	အမှတ်(၅)လမ်းမ	Hlaing Tharyar	လှိုင်သာယာ	16.854368	96.088892
16A	59	1195	Bayint Naung Lan Sone	ဘုရင့်နောင်လမ်းဆုံ	Thamine Buteryon Road	သမိုင်းဘူတာရုံလမ်း	Mayangone	မရမ်းကုန်း	16.859384	96.109116
16A	60	1208	Zay Butar	ဈေးဘူတာ	Thamine Buteryon Road	သမိုင်းဘူတာရုံလမ်း	Mayangone	မရမ်းကုန်း	16.860102	96.112893
16A	61	1225	U Ba Han	ဦးဘဟန်	Thamine Buteryon Road	သမိုင်းဘူတာရုံလမ်း	Mayangone	မရမ်းကုန်း	16.861083	96.118365
16A	62	2200	Kyway Tit	ကြွေ (၁)	Thamine Buteryon Road	သမိုင်းဘူတာရုံလမ်း	Mayangone	မရမ်းကုန်း	16.861216A	96.120725
16A	63	1220	Thamine Lan Son	သမိုင်းလမ်းဆုံ	Kyaik Wine Pagoda Road	ကျိုက်ဝိုင်းဘုရားလမ်း	Mayangone	မရမ်းကုန်း	16.863106	96.122447
16A	64	1256	Ye Yan Aung	ရဲရန်အောင်	Kyaik Wine Pagoda Road	ကျိုက်ဝိုင်းဘုရားလမ်း	Mayangone	မရမ်းကုန်း	16.866135	96.126088
16A	65	1254	Kyaik Wine	ကျိုက်ဝိုင်း	Kyaik Wine Pagoda Road	ကျိုက်ဝိုင်းဘုရားလမ်း	Mayangone	မရမ်းကုန်း	16.866484	96.128696
16A	66	1270	Ye Baw Haung	ရဲဘော်ဟောင်း	Kyaik Wine Pagoda Road	ကျိုက်ဝိုင်းဘုရားလမ်း	Mayangone	မရမ်းကုန်း	16.867387	96.13744
16A	67	1266	Shit Mile	(၈) မိုင်	Kyaik Wine Pagoda Road	ကျိုက်ဝိုင်းဘုရားလမ်း	Mayangone	မရမ်းကုန်း	16.864713	96.141169
16A	69	1820	Nawaday	နဝဒေး	Kabar Aye Pagoda Road	ကမ္ဘာအေးဘုရားလမ်း	Mayangone	မရမ်းကုန်း	16.866802	96.152531
16A	70	38	Lan Wa/ Nawaday	လမ်းဝ/နဝဒေး	Thudhamar Road	သုဓမ္မာလမ်း	North Okkalapa	မြောက်ဥက္ကလာပ	16.867269	96.154778
16A	71	1281	Ngar Lan	(၅) လမ်း	Thudhamar Road	သုဓမ္မာလမ်း	North Okkalapa	မြောက်ဥက္ကလာပ	16.874128	96.156913
16A	72	1274	Hnit Zay	(၂) ဈေး	Thudhamar Road	သုဓမ္မာလမ်း	North Okkalapa	မြောက်ဥက္ကလာပ	16.87807	96.156157
16A	73	889	Phone Gyi Lan	ဘုန်းကြီးလမ်း	Thudhamar Road	သုဓမ္မာလမ်း	North Okkalapa	မြောက်ဥက္ကလာပ	16.881761	96.155602
16A	74	885	Kyauk Yae Twin	ကျောက်ရေတွင်း	Thudhamar Road	သုဓမ္မာလမ်း	North Okkalapa	မြောက်ဥက္ကလာပ	16.887233	96.154359
16A	75	887	Myauk Okkalar Awine	မြောက်ဥက္ကလာအဝိုင်း	Thudhamar Road	သုဓမ္မာလမ်း	North Okkalapa	မြောက်ဥက္ကလာပ	16.892684	96.155151
16A	76	882	Ga-gyi Zay	(ဃ) ဈေး	Thudhamar Road	သုဓမ္မာလမ်း	North Okkalapa	မြောက်ဥက္ကလာပ	16.896452	96.159434
16A	77	861	Thandar	သန္တာ	Thudhamar Road	သုဓမ္မာလမ်း	North Okkalapa	မြောက်ဥက္ကလာပ	16.898997	96.162273
16A	78	865	Waziyar	ဝဇီယာ	Thudhamar Road	သုဓမ္မာလမ်း	North Okkalapa	မြောက်ဥက္ကလာပ	16.901507	96.16437
16A	79	863	Thu Nandar	သုနန္ဒာ	Thudhamar Road	သုဓမ္မာလမ်း	North Okkalapa	မြောက်ဥက္ကလာပ	16.904202	96.16562
16A	80	842	Eindar	က္ကန္ဒာ	Thudhamar Road	သုဓမ္မာလမ်း	North Okkalapa	မြောက်ဥက္ကလာပ	16.906969	96.16621
16A	81	857	Ou Zanar	ဥဇ္ဇနာ	Thudhamar Road	သုဓမ္မာလမ်း	North Okkalapa	မြောက်ဥက္ကလာပ	16.910726	96.166001
16A	82	849	Kan Tharyar	ကန်သာယာ	Thudhamar Road	သုဓမ္မာလမ်း	North Okkalapa	မြောက်ဥက္ကလာပ	16.913081	96.165506
16A	83	1823	Ayar	ဧရာ	Thudhamar Road	သုဓမ္မာလမ်း	North Okkalapa	မြောက်ဥက္ကလာပ	16.917321	96.163725
16A	84	820	Chauk Kwae	(၆) ကွေ့	Wai Bargi Road	ဝေဘာဂီလမ်း	North Okkalapa	မြောက်ဥက္ကလာပ	16.918886	96.163335
16A	85	825	Kyaung Lan	ကျောင်းလမ်း	Wai Bargi Road	ဝေဘာဂီလမ်း	North Okkalapa	မြောက်ဥက္ကလာပ	16.920687	96.167876
16A	86	1606	Dhamar Yon	ဓမ္မာရုံ	Wai Bargi Road	ဝေဘာဂီလမ်း	North Okkalapa	မြောက်ဥက္ကလာပ	16.921324	96.169914
16A	87	822	Kar Gyi Gate	ကားကြီးဂိတ်	Wai Bargi Road	ဝေဘာဂီလမ်း	North Okkalapa	မြောက်ဥက္ကလာပ	16.921591	96.171888
16A	88	827	Hmaw Kyun	မော်ကျွန်း	Bagan Road	ပုဂံလမ်း	North Dagon	မြောက်ဒဂုံ	16.922904	96.176351
16A	89	834	Sal Myaung	ဆည်မြောင်း	Bagan Road	ပုဂံလမ်း	North Dagon	မြောက်ဒဂုံ	16.924259	96.179398
16A	90	831	Min Htoo Kyaw	မင်းထူးကျော်	Bagan Road	ပုဂံလမ်း	North Dagon	မြောက်ဒဂုံ	16.926538	96.182123
16A	91	2190	Parami	ပါရမီ	Taung Goo Road	တောင်ငူလမး်	North Okkalapa	မြောက်ဥက္ကလာပ	16.931341	96.180857
16A	92	2208	Shwe La Min	ရွှေလမင်း	Taung Goo Road	တောင်ငူလမး်	North Okkalapa	မြောက်ဥက္ကလာပ	16.93441	96.18043
16A	93	2188	Sae-Chauk Kwae	(၁၆) ကွေ့	Innwa Road	အင်းဝလမ်း	North Okkalapa	မြောက်ဥက္ကလာပ	16.935919	96.180321