svc_name	sequence	stop_id	name_en	name_mm	road_en	road_mm	township_en	township_mm	lat	lng
8	1	664	Thein Kyaung	သိမ်ကျောင်း	Ayar Wun Main Road	ဧရာဝဏ်လမ်းမကြီး	Thaketa	သာကေတ	16.838431	96.243685
8	2	651	Chauk-sae-ngar Yat Kwet	(၆၅) ရပ်ကွက်	Ayar Wun Main Road	ဧရာဝဏ်လမ်းမကြီး	Thaketa	သာကေတ	16.83494	96.242613
8	3	2139	Sauk Lote Yae	ဆောက်လုပ်ရေး	Ayar Wun Main Road	ဧရာဝဏ်လမ်းမကြီး	South Dagon	တောင်ဒဂုံ	16.828347	96.240619
8	4	639	Alo Taw Pyae	အလိုတော်ပြည့်	Ayar Wun Main Road	ဧရာဝဏ်လမ်းမကြီး	Thaketa	သာကေတ	16.820604	96.23791
8	5	643	Thit Sait	သစ်ဆိတ်	Ayar Wun Main Road	ဧရာဝဏ်လမ်းမကြီး	Thaketa	သာကေတ	16.815797	96.236365
8	6	559	Than Lan	သံလမ်း	Ayar Wun Main Road	ဧရာဝဏ်လမ်းမကြီး	Thaketa	သာကေတ	16.812141	96.23242
8	7	2143	Paya Lay	ဘုရားလေး	Ayar Wun Main Road	ဧရာဝဏ်လမ်းမကြီး	South Dagon	တောင်ဒဂုံ	16.812716	96.22903
8	8	538	Thone-Sae-Lay Kar Gyi Gate	(၃၄) ကားကြီးဂိတ်	Ayar Wun Main Road	ဧရာဝဏ်လမ်းမကြီး	Thaketa	သာကေတ	16.81058	96.224416
8	9	535	Ta Sal Zay	(၁၀) ဈေး	Ayar Wun Main Road	ဧရာဝဏ်လမ်းမကြီး	Thaketa	သာကေတ	16.808362	96.220232
8	10	2158	Awine	အဝိုင်း	Shukinthar Road	ရှူ့ခင်းသာလမ်း	Thaketa	သာကေတ	16.807905	96.21795
8	11	2159	Thaketa Awine	သာကေတအဝိုင်း	Ayar Wun Main Road	ဧရာဝဏ်လမ်းမကြီး	Thaketa	သာကေတ	16.806472	96.216753
8	12	526	Myayni	မြေနီ	Ayar Wun Main Road	ဧရာဝဏ်လမ်းမကြီး	Thaketa	သာကေတ	16.803884	96.210641
8	13	521	Kyaung Kwae	ကျောင်းကွေ့	Myintawthar Road	မြင်တော်သာလမ်း	Thaketa	သာကေတ	16.803617	96.206328
8	14	528	Paya Shae	ဘုရားရှေ့	Myintawthar Road	မြင်တော်သာလမ်း	Thaketa	သာကေတ	16.802097	96.206499
8	15	516	Khun Zay	(၇) ဈေး	Myintawthar Road	မြင်တော်သာလမ်း	Thaketa	သာကေတ	16.799015	96.205727
8	16	520	Kyan Mar Yae	ကျန်းမာရေး	Myintawthar Road	မြင်တော်သာလမ်း	Thaketa	သာကေတ	16.796653	96.204525
8	17	499	Yoke Shin Yon	ရုပ်ရှင်ရုံ	Myintawthar Road	မြင်တော်သာလမ်း	Thaketa	သာကေတ	16.793319	96.202895
8	18	455	Nal Myay Yon	နယ်မြေရုံး	Myintawthar Road	မြင်တော်သာလမ်း	Thaketa	သာကေတ	16.790963	96.2018
8	19	464	Sar Taik	စာတိုက်	Myintawthar Road	မြင်တော်သာလမ်း	Thaketa	သာကေတ	16.789011	96.200877
8	20	465	Si Saing	ဆီဆိုင်	Myintawthar Road	မြင်တော်သာလမ်း	Thaketa	သာကေတ	16.786197	96.199461
8	21	473	Wet Su	ဝက်စု	Min Nandar Road	မင်းနန္ဒာလမ်း	Thaketa	သာကေတ	16.789833	96.192209
8	22	476	Yan Aung	ရန်အောင်	Min Nandar Road	မင်းနန္ဒာလမ်း	Thaketa	သာကေတ	16.786238	96.189934
8	23	470	Thinbaw Kyin	သင်္ဘောကျင်း	Min Nandar Road	မင်းနန္ဒာလမ်း	Thaketa	သာကေတ	16.782458	96.186715
8	24	452	Warso	ဝါဆို	Yamonar Road	ယမုံနာလမ်း	Daw Bon	ဒေါပုံ	16.782709	96.183757
8	25	444	Mingalar Zay	မင်္ဂလာဈေး	Mill Road	စက်ရုံလမ်း	Mingalar Taung Nyunt	မင်္ဂလာတောင်ညွန့်	16.791885	96.174522
8	26	184	Mingalar Mon Zay	မင်္ဂလာမွန်ဈေး	Mill Road	စက်ရုံလမ်း	Mingalar Taung Nyunt	မင်္ဂလာတောင်ညွန့်	16.794101	96.172931
8	27	219	Say Yon	ဆေးရုံ	Nat Mauk Road	နတ်မောက်လမ်း	Bahan	ဗဟန်း	16.799372	96.170384
8	28	217	Phoe Sein Lan	ဖိုးစိန်လမ်း	Nat Mauk Road	နတ်မောက်လမ်း	Bahan	ဗဟန်း	16.800102	96.167793
8	29	213	Nat Mauk Kyaung Shae	နတ်မောက်ကျောင်းရှေ့	Nat Mauk Road	နတ်မောက်လမ်း	Bahan	ဗဟန်း	16.800253	96.165105
8	30	216	Jamar	ဂျမား	Nat Mauk Road	နတ်မောက်လမ်း	Bahan	ဗဟန်း	16.801326	96.161275
8	31	212	Yae Khae Saing	ရေခဲဆိုင်	Nat Mauk Road	နတ်မောက်လမ်း	Bahan	ဗဟန်း	16.801172	96.159509
8	32	209	Bahan Thone Lan	ဗဟန်းသုံးလမ်း	Bahan Road	ဗဟန်းလမ်း	Bahan	ဗဟန်း	16.798112	96.157061
8	33	201	Taung Phat Moke	တောင်ဘက်မုခ်	Shwedagon Pagoda Road	ရွှေတိဂုံဘုရားလမ်း	Dagon	ဒဂုံ	16.794861	96.150696
8	34	193	Sauk Lote Yae	ဆောက်လုပ်ရေး	Shwedagon Pagoda Road	ရွှေတိဂုံဘုရားလမ်း	Dagon	ဒဂုံ	16.78367	96.153437
8	35	191	Bogyoke Zay							
8	36	174	Pansodan							
8	37	160	Sein Paul							
8	38	2385	Kyel Ngar Pwint	ကြယ်ငါးပွင့်	Thein Phyu Road	သိမ်ဖြူလမ်း	Botahtaung	ဗိုလ်တထောင်	16.772484	96.167148
8	39	147	Bokalay Zay							
8	40	151	Pansodan (Seikkanthar)							
8	41	139	Lan Thone Sae							
8	42	2388	Lay Har Pyin Zay	လေဟာပြင်စျေး	Shwedagon Pagoda Road	ရွှေတိဂုံဘုရားလမ်း	Dagon	ဒဂုံ	16.777958	96.153303
8	43	193	Sauk Lote Yae	ဆောက်လုပ်ရေး	Shwedagon Pagoda Road	ရွှေတိဂုံဘုရားလမ်း	Dagon	ဒဂုံ	16.78367	96.153437
8	44	208	Bahan Thone Lan	ဗဟန်းသုံးလမ်း	Bahan Road	ဗဟန်းလမ်း	Bahan	ဗဟန်း	16.797105	96.156932
8	45	211	Yae Khae Saing	ရေခဲဆိုင်	Nat Mauk Road	နတ်မောက်လမ်း	Bahan	ဗဟန်း	16.800895	96.159273
8	46	215	Jamar	ဂျမား	Nat Mauk Road	နတ်မောက်လမ်း	Bahan	ဗဟန်း	16.801229	96.161092
8	47	214	Nat Mauk Kyaung Shae	နတ်မောက်ကျောင်းရှေ့	Nat Mauk Road	နတ်မောက်လမ်း	Bahan	ဗဟန်း	16.800186	96.165132
8	48	218	Say Yon	ဆေးရုံ	Nat Mauk Road	နတ်မောက်လမ်း	Bahan	ဗဟန်း	16.799339	96.170365
8	49	183	Mingalar Mon Zay	မင်္ဂလာမွန်ဈေး	Mill Road	စက်ရုံလမ်း	Mingalar Taung Nyunt	မင်္ဂလာတောင်ညွန့်	16.793952	96.172931
8	50	443	Mingalar Zay	မင်္ဂလာဈေး	Mill Road	စက်ရုံလမ်း	Mingalar Taung Nyunt	မင်္ဂလာတောင်ညွန့်	16.791823	96.174659
8	51	451	Warso	ဝါဆို	Yamonar Road	ယမုံနာလမ်း	Daw Bon	ဒေါပုံ	16.782602	96.182764
8	52	469	Thinbaw Kyin	သင်္ဘောကျင်း	Min Nandar Road	မင်းနန္ဒာလမ်း	Thaketa	သာကေတ	16.781821	96.187981
8	53	475	Yan Aung	ရန်အောင်	Min Nandar Road	မင်းနန္ဒာလမ်း	Thaketa	သာကေတ	16.78558	96.189977
8	54	474	Wet Su	ဝက်စု	Min Nandar Road	မင်းနန္ဒာလမ်း	Thaketa	သာကေတ	16.789915	96.191822
8	55	466	Si Saing	ဆီဆိုင်	Myintawthar Road	မြင်တော်သာလမ်း	Thaketa	သာကေတ	16.78632	96.199847
8	56	463	Sar Taik	စာတိုက်	Myintawthar Road	မြင်တော်သာလမ်း	Thaketa	သာကေတ	16.788826	96.201028
8	57	456	Nal Myay Yon	နယ်မြေရုံး	Myintawthar Road	မြင်တော်သာလမ်း	Thaketa	သာကေတ	16.790881	96.202036
8	58	500	Yoke Shin Yon	ရုပ်ရှင်ရုံ	Myintawthar Road	မြင်တော်သာလမ်း	Thaketa	သာကေတ	16.792631	96.202884
8	59	519	Kyan Mar Yae	ကျန်းမာရေး	Myintawthar Road	မြင်တော်သာလမ်း	Thaketa	သာကေတ	16.796222	96.204697
8	60	515	Khun Zay	(၇) ဈေး	Myintawthar Road	မြင်တော်သာလမ်း	Thaketa	သာကေတ	16.798707	96.205941
8	61	527	Paya Shae	ဘုရားရှေ့	Myintawthar Road	မြင်တော်သာလမ်း	Thaketa	သာကေတ	16.802035	96.2068
8	62	522	Kyaung Kwae	ကျောင်းကွေ့	Myintawthar Road	မြင်တော်သာလမ်း	Thaketa	သာကေတ	16.803617	96.206714
8	63	525	Myayni	မြေနီ	Ayar Wun Main Road	ဧရာဝဏ်လမ်းမကြီး	Thaketa	သာကေတ	16.803637	96.210855
8	64	553	Thaketa Awine	သာကေတအဝိုင်း	Ayar Wun Main Road	ဧရာဝဏ်လမ်းမကြီး	Thaketa	သာကေတ	16.806421	96.216786
8	65	540	Awine	အဝိုင်း	Shukinthar Road	ရှူ့ခင်းသာလမ်း	Thaketa	သာကေတ	16.806575	96.218194
8	66	536	Ta Sal Zay	(၁၀) ဈေး	Ayar Wun Main Road	ဧရာဝဏ်လမ်းမကြီး	Thaketa	သာကေတ	16.808136	96.220382
8	67	537	Thone-Sae-Lay Kar Gyi Gate	(၃၄) ကားကြီးဂိတ်	Ayar Wun Main Road	ဧရာဝဏ်လမ်းမကြီး	Thaketa	သာကေတ	16.809471	96.223172
8	68	2144	Paya Lay	ဘုရားလေး	Ayar Wun Main Road	ဧရာဝဏ်လမ်းမကြီး	South Dagon	တောင်ဒဂုံ	16.812593	96.229069
8	69	558	Than Lan	သံလမ်း	Ayar Wun Main Road	ဧရာဝဏ်လမ်းမကြီး	Thaketa	သာကေတ	16.811915	96.231927
8	70	642	Thit Sait	သစ်ဆိတ်	Ayar Wun Main Road	ဧရာဝဏ်လမ်းမကြီး	Thaketa	သာကေတ	16.815017	96.236665
8	71	638	Alo Taw Pyae	အလိုတော်ပြည့်	Ayar Wun Main Road	ဧရာဝဏ်လမ်းမကြီး	Thaketa	သာကေတ	16.819988	96.238253
8	72	2140	Sauk Lote Yae	ဆောက်လုပ်ရေး	Ayar Wun Main Road	ဧရာဝဏ်လမ်းမကြီး	South Dagon	တောင်ဒဂုံ	16.828234	96.240737
8	73	652	Chauk-sae-ngar Yat Kwet	(၆၅) ရပ်ကွက်	Ayar Wun Main Road	ဧရာဝဏ်လမ်းမကြီး	Thaketa	သာကေတ	16.834919	96.242934
8	74	663	Thein Kyaung	သိမ်ကျောင်း	Ayar Wun Main Road	ဧရာဝဏ်လမ်းမကြီး	Thaketa	သာကေတ	16.837918	96.243879