svc_name	sequence	stop_id	name_en	name_mm	road_en	road_mm	township_en	township_mm	lat	lng
24	1	968	Sae-Thone Gate	(၁၃) ဂိတ်	Kyansitthar Road	ကျန်စစ်သားလမ်း	East Dagon	အရှေ့ဒဂုံ	16.88868	96.226562
24	2	976	Sadon Duu War	ဆဒုံဒူးဝါး	Kyansitthar Road	ကျန်စစ်သားလမ်း	East Dagon	အရှေ့ဒဂုံ	16.891083	96.223108
24	3	974	Phone Gyi Lan	ဘုန်းကြီးလမ်း	Kyansitthar Road	ကျန်စစ်သားလမ်း	East Dagon	အရှေ့ဒဂုံ	16.892561	96.220962
24	4	969	Sae-Hnit Gate	(၁၂) ဂိတ်	Kyansitthar Road	ကျန်စစ်သားလမ်း	East Dagon	အရှေ့ဒဂုံ	16.893526	96.219009
24	5	964	Thone-sae-chauk Gate Haung	(၃၆) ဂိတ်ဟောင်း	Tapin Shwe Htee Road	တပင်ရွှေထီးလမ်း	North Dagon	မြောက်ဒဂုံ	16.892253	96.215533
24	6	946	Bo Min Gaung	ဗိုလ်မင်းခေါင်	Tapin Shwe Htee Road	တပင်ရွှေထီးလမ်း	North Dagon	မြောက်ဒဂုံ	16.891267	96.213731
24	7	952	Kyaung Lan Htate	ကျောင်းလမ်းထိပ်	Tapin Shwe Htee Road	တပင်ရွှေထီးလမ်း	North Dagon	မြောက်ဒဂုံ	16.889974	96.211392
24	8	1004	Swan In	စွမ်းအင်	Pyi Htaung Su Main Road	ပြည်ထောင်စုလမ်းမကြီး	North Dagon	မြောက်ဒဂုံ	16.880652	96.202251
24	9	2346	Ma Wa Ta	မဝတ	Pyi Htaung Su Main Road	ပြည်ထောင်စုလမ်းမကြီး	North Dagon	မြောက်ဒဂုံ	16.87739888879641	96.20413976255806
24	10	1006	Arr Kasar Kwin	အားကစားကွင်း	Pyi Htaung Su Main Road	ပြည်ထောင်စုလမ်းမကြီး	North Dagon	မြောက်ဒဂုံ	16.872665	96.20622
24	11	1007	Ka Pa Ya	ကပရ	Pyi Htaung Su Main Road	ပြည်ထောင်စုလမ်းမကြီး	North Dagon	မြောက်ဒဂုံ	16.869954	96.207272
24	12	2349	Tadar Htate	တံတားထိပ်	Pyi Htaung Su Main Road	ပြည်ထောင်စုလမ်းမကြီး	North Dagon	မြောက်ဒဂုံ	16.866127	96.2089
24	13	1612	Myo Oo Zedi	မြို့ဦးစေတီ	Pyi Htaung Su Main Road	ပြည်ထောင်စုလမ်းမကြီး	North Dagon	မြောက်ဒဂုံ	16.862089	96.212765
24	14	676	Taung Myauk Lan Sone	တောင်/မြောက်လမ်းဆုံ	Pyi Htaung Su Main Road	ပြည်ထောင်စုလမ်းမကြီး	North Dagon	မြောက်ဒဂုံ	16.861884	96.213688
24	15	674	Tadar Phyu	တံတားဖြူ	No. 2 Main Road	အမှတ်(၂)လမ်းမ	South Dagon	တောင်ဒဂုံ	16.857509683996202	96.21210170422273
24	16	628	Kar Gyi Gate	ကားကြီးဂိတ်	No. 2 Main Road	အမှတ်(၂)လမ်းမ	South Dagon	တောင်ဒဂုံ	16.847406480977263	96.20899594388904
24	17	634	Sanpya Zay/ Nga Moe Yeik	စံပြဈေး/ ငမိုးရိပ်	Lay Daung Kan Road	လေးထောင့်ကန်လမ်း	Thingangyun	သင်္ဃန်းကျွန်း	16.841916421492833	96.20434836717324
24	18	2160	Myittar Shwe Yi	မေတ္တာရွှေရည်	Lay Daung Kan Road	လေးထောင့်ကန်လမ်း	Thingangyun	သင်္ဃန်းကျွန်း	16.838739	96.201072
24	19	597	Bawa Myint	ဘဝမြင့်	Lay Daung Kan Road	လေးထောင့်ကန်လမ်း	Thingangyun	သင်္ဃန်းကျွန်း	16.83751062688879	96.19982625707054
24	20	361	Khap Chee Yar	ခပ်ချီးယား	Lay Daung Kan Road	လေးထောင့်ကန်လမ်း	Thingangyun	သင်္ဃန်းကျွန်း	16.826232	96.186427
24	21	602	B.O.C	ဘီအိုစီ	Lay Daung Kan Road	လေးထောင့်ကန်လမ်း	Thingangyun	သင်္ဃန်းကျွန်း	16.832963	96.195097
24	22	616	Paya Lan	ဘုရားလမ်း	Lay Daung Kan Road	လေးထောင့်ကန်လမ်း	Thingangyun	သင်္ဃန်းကျွန်း	16.831141607522156	96.1933392752235
24	23	609	Kalar Su	ကုလားစု	Lay Daung Kan Road	လေးထောင့်ကန်လမ်း	Thingangyun	သင်္ဃန်းကျွန်း	16.835042008650188	96.19725657166784
24	24	440	Athin Taik	အသင်းတိုက်	Upper Pazundaung Road	အထက်ပုဇွန်တောင်လမ်း	Mingalar Taung Nyunt	မင်္ဂလာတောင်ညွန့်	16.790244	96.183295
24	25	571	Thuwunna Lan Sone	သုဝဏ္ဏလမ်းဆုံ	Waizayandar Road	ဝေဇယန္တာလမ်း	Thingangyun	သင်္ဃန်းကျွန်း	16.81558847378813	96.18976532248782
24	26	359	Kaw Set	ကော်စက်	Thanthumar Road	သံသုမာလမ်း	Thingangyun	သင်္ဃန်းကျွန်း	16.813935505248818	96.18836680194363
24	27	392	Zay Lay	ဈေးလေး	Thanthumar Road	သံသုမာလမ်း	Thingangyun	သင်္ဃန်းကျွန်း	16.809938	96.183548
24	28	371	A.B.C	အေဘီစီ	Upper Pazundaung Road	အထက်ပုဇွန်တောင်လမ်း	Pazundaung	ပုဇွန်တောင်	16.79994	96.186782
24	29	390	Yone Lay	ရုံးလေး	Upper Pazundaung Road	အထက်ပုဇွန်တောင်လမ်း	Pazundaung	ပုဇွန်တောင်	16.797218	96.186182
24	30	441	Koe Lan	(၉) လမ်း	Upper Pazundaung Road	အထက်ပုဇွန်တောင်လမ်း	Mingalar Taung Nyunt	မင်္ဂလာတောင်ညွန့်	16.792401	96.184979
24	31	356	Athin Taik	အသင်းတိုက်	Lay Daung Kan Road	လေးထောင့်ကန်လမ်း	Thingangyun	သင်္ဃန်းကျွန်း	16.82310570226515	96.18332737125458
24	32	450	Sar Taik	စာတိုက်	Upper Pazundaung Road	အထက်ပုဇွန်တောင်လမ်း	Pazundaung	ပုဇွန်တောင်	16.784522	96.174755
24	33	448	Pazundaung Zay	ပုဇွန်တောင်ဈေး	Upper Pazundaung Road	အထက်ပုဇွန်တောင်လမ်း	Pazundaung	ပုဇွန်တောင်	16.78143923040722	96.17422713898124
24	34	446	Nyaung Tan	ညောင်တန်း	Lower Pazundaung Road	အောက်ပုဇွန်တောင်လမ်း	Pazundaung	ပုဇွန်တောင်	16.77857725311318	96.1752471746877
24	35	424	Thida Seik	သီတာဆိပ်	Lower Pazundaung Road	အောက်ပုဇွန်တောင်လမ်း	Pazundaung	ပုဇွန်တောင်	16.774333	96.180194
24	36	422	Lin Sadaung	လင်းစဒေါင်း	Strand Road	ကမ်းနားလမ်း	Pazundaung	ပုဇွန်တောင်	16.7691504242463	96.18046187097208
24	37	413	Botahtaung Zay	ဗိုလ်တထောင်ဈေး	Strand Road	ကမ်းနားလမ်း	Pazundaung	ပုဇွန်တောင်	16.769349354982467	96.17495725840854
24	38	167	Botahtaung Paya	ဗိုလ်တထောင်ဘုရား	Strand Road	ကမ်းနားလမ်း	Seikkan	ဆိပ်ကမ်း	16.769555923477597	96.17248931899667
24	39	168	Botahtaung Paya	ဗိုလ်တထောင်ဘုရား	Strand Road	ကမ်းနားလမ်း	Seikkan	ဆိပ်ကမ်း	16.76925240088782	96.1718310881406
24	40	414	Botahtaung Zay	ဗိုလ်တထောင်ဈေး	Strand Road	ကမ်းနားလမ်း	Pazundaung	ပုဇွန်တောင်	16.769167136957893	96.17486310900858
24	41	421	Lin Sadaung	လင်းစဒေါင်း	Strand Road	ကမ်းနားလမ်း	Pazundaung	ပုဇွန်တောင်	16.768980658676362	96.18034081533553
24	42	425	Thida Seik	သီတာဆိပ်	Lower Pazundaung Road	အောက်ပုဇွန်တောင်လမ်း	Pazundaung	ပုဇွန်တောင်	16.77462	96.180076
24	43	445	Nyaung Tan	ညောင်တန်း	Lower Pazundaung Road	အောက်ပုဇွန်တောင်လမ်း	Pazundaung	ပုဇွန်တောင်	16.77814227405194	96.17549379123376
24	44	447	Pazundaung Zay	ပုဇွန်တောင်ဈေး	Upper Pazundaung Road	အထက်ပုဇွန်တောင်လမ်း	Pazundaung	ပုဇွန်တောင်	16.78022529329327	96.17454728577287
24	45	449	Sar Taik	စာတိုက်	Upper Pazundaung Road	အထက်ပုဇွန်တောင်လမ်း	Pazundaung	ပုဇွန်တောင်	16.784308580655395	96.1750550195575
24	46	439	Athin Taik	အသင်းတိုက်	Upper Pazundaung Road	အထက်ပုဇွန်တောင်လမ်း	Mingalar Taung Nyunt	မင်္ဂလာတောင်ညွန့်	16.790408	96.18322
24	47	442	Koe Lan	(၉) လမ်း	Upper Pazundaung Road	အထက်ပုဇွန်တောင်လမ်း	Mingalar Taung Nyunt	မင်္ဂလာတောင်ညွန့်	16.792319	96.185129
24	48	389	Yone Lay	ရုံးလေး	Upper Pazundaung Road	အထက်ပုဇွန်တောင်လမ်း	Pazundaung	ပုဇွန်တောင်	16.797084	96.186241
24	49	370	A.B.C	အေဘီစီ	Upper Pazundaung Road	အထက်ပုဇွန်တောင်လမ်း	Pazundaung	ပုဇွန်တောင်	16.79996	96.186879
24	50	391	Zay Lay	ဈေးလေး	Thanthumar Road	သံသုမာလမ်း	Thingangyun	သင်္ဃန်းကျွန်း	16.809825	96.183666
24	51	358	Kaw Set	ကော်စက်	Thanthumar Road	သံသုမာလမ်း	Thingangyun	သင်္ဃန်းကျွန်း	16.813748315271564	96.18823925033212
24	52	572	Thuwunna Lan Sone	သုဝဏ္ဏလမ်းဆုံ	Waizayandar Road	ဝေဇယန္တာလမ်း	Thingangyun	သင်္ဃန်းကျွန်း	16.815698094823947	96.1900429520756
24	53	357	Athin Taik	အသင်းတိုက်	Lay Daung Kan Road	လေးထောင့်ကန်လမ်း	Thingangyun	သင်္ဃန်းကျွန်း	16.822849160856567	96.18339463602754
24	54	610	Kalar Su	ကုလားစု	Lay Daung Kan Road	လေးထောင့်ကန်လမ်း	Thingangyun	သင်္ဃန်းကျွန်း	16.834929417094717	96.19742584060079
24	55	615	Paya Lan	ဘုရားလမ်း	Lay Daung Kan Road	လေးထောင့်ကန်လမ်း	Thingangyun	သင်္ဃန်းကျွန်း	16.830714765084345	96.19317076745574
24	56	601	B.O.C	ဘီအိုစီ	Lay Daung Kan Road	လေးထောင့်ကန်လမ်း	Thingangyun	သင်္ဃန်းကျွန်း	16.83264297934202	96.19510064876523
24	57	360	Khap Chee Yar	ခပ်ချီးယား	Lay Daung Kan Road	လေးထောင့်ကန်လမ်း	Thingangyun	သင်္ဃန်းကျွန်း	16.826169891044863	96.18673495016994
24	58	598	Bawa Myint	ဘဝမြင့်	Lay Daung Kan Road	လေးထောင့်ကန်လမ်း	Thingangyun	သင်္ဃန်းကျွန်း	16.837140047336906	96.19967010581604
24	59	2161	Myittar Shwe Yi	မေတ္တာရွှေရည်	Lay Daung Kan Road	လေးထောင့်ကန်လမ်း	Thingangyun	သင်္ဃန်းကျွန်း	16.838646395702437	96.20123337233963
24	60	635	Sanpya Zay/ Nga Moe Yeik	စံပြဈေး/ ငမိုးရိပ်	Lay Daung Kan Road	လေးထောင့်ကန်လမ်း	Thingangyun	သင်္ဃန်းကျွန်း	16.841989	96.204673
24	61	629	Kar Gyi Gate	ကားကြီးဂိတ်	No. 2 Main Road	အမှတ်(၂)လမ်းမ	South Dagon	တောင်ဒဂုံ	16.847180777593348	96.20910117868335
24	62	673	Tadar Phyu	တံတားဖြူ	No. 2 Main Road	အမှတ်(၂)လမ်းမ	South Dagon	တောင်ဒဂုံ	16.857341615494583	96.21233842357469
24	63	675	Taung Myauk Lan Sone	တောင်/မြောက်လမ်းဆုံ	Pyi Htaung Su Main Road	ပြည်ထောင်စုလမ်းမကြီး	North Dagon	မြောက်ဒဂုံ	16.861412	96.213344
24	64	1613	Myo Oo Zedi	မြို့ဦးစေတီ	Pyi Htaung Su Main Road	ပြည်ထောင်စုလမ်းမကြီး	North Dagon	မြောက်ဒဂုံ	16.862623	96.212615
24	65	1010	Tadar Htate	တံတားထိပ်	Pyi Htaung Su Main Road	ပြည်ထောင်စုလမ်းမကြီး	North Dagon	မြောက်ဒဂုံ	16.866278	96.209139
24	66	2348	Ka Pa Ya	ကပရ	Pyi Htaung Su Main Road	ပြည်ထောင်စုလမ်းမကြီး	North Dagon	မြောက်ဒဂုံ	16.869967	96.207591
24	67	2347	Arr Kasar Kwin	အားကစားကွင်း	Pyi Htaung Su Main Road	ပြည်ထောင်စုလမ်းမကြီး	North Dagon	မြောက်ဒဂုံ	16.872727	96.206464
24	68	1008	Ma Wa Ta	မဝတ	Pyi Htaung Su Main Road	ပြည်ထောင်စုလမ်းမကြီး	North Dagon	မြောက်ဒဂုံ	16.87735960653568	96.2043057032861
24	69	1005	Swan In	စွမ်းအင်	Pyi Htaung Su Main Road	ပြည်ထောင်စုလမ်းမကြီး	North Dagon	မြောက်ဒဂုံ	16.880857	96.202573
24	70	951	Kyaung Lan Htate	ကျောင်းလမ်းထိပ်	Tapin Shwe Htee Road	တပင်ရွှေထီးလမ်း	North Dagon	မြောက်ဒဂုံ	16.889625	96.211413
24	71	945	Bo Min Gaung	ဗိုလ်မင်းခေါင်	Tapin Shwe Htee Road	တပင်ရွှေထီးလမ်း	North Dagon	မြောက်ဒဂုံ	16.890508	96.21328
24	72	963	Thone-sae-chauk Gate Haung	(၃၆) ဂိတ်ဟောင်း	Tapin Shwe Htee Road	တပင်ရွှေထီးလမ်း	North Dagon	မြောက်ဒဂုံ	16.891842	96.215769
24	73	970	Sae-Hnit Gate	(၁၂) ဂိတ်	Kyansitthar Road	ကျန်စစ်သားလမ်း	East Dagon	အရှေ့ဒဂုံ	16.893321	96.218752
24	74	973	Phone Gyi Lan	ဘုန်းကြီးလမ်း	Kyansitthar Road	ကျန်စစ်သားလမ်း	East Dagon	အရှေ့ဒဂုံ	16.892068	96.220533
24	75	975	Sadon Duu War	ဆဒုံဒူးဝါး	Kyansitthar Road	ကျန်စစ်သားလမ်း	East Dagon	အရှေ့ဒဂုံ	16.890528	96.222872
24	76	967	Sae-Thone Gate	(၁၃) ဂိတ်	Kyansitthar Road	ကျန်စစ်သားလမ်း	East Dagon	အရှေ့ဒဂုံ	16.888208	96.226283
