svc_name	sequence	stop_id	name_en	name_mm	road_en	road_mm	township_en	township_mm	lat	lng
55	1	1798	Taik Kyi Zay	တိုက်ကြီးဈေး	Yangon-Pyay Main Road	ရန်ကုန်-ပြည်လမ်းမကြီး	Taik Kyi	တိုက်ကြီး	17.31384	95.963472
55	2	1796	Taik Kyi Khan Ma	တိုက်ကြီးခန်းမ	Yangon-Pyay Main Road	ရန်ကုန်-ပြည်လမ်းမကြီး	Taik Kyi	တိုက်ကြီး	17.311105	95.966084
55	3	1794	Taik Kyi Phaung Gyi Lan Khwe	တိုက်ကြီးဖောင်ကြီးလမ်းခွဲ	Yangon-Pyay Main Road	ရန်ကုန်-ပြည်လမ်းမကြီး	Taik Kyi	တိုက်ကြီး	17.294142	95.975229
55	4	1792	Taik Kyi Tar Gwa Tar Sone	တိုက်ကြီးတာခွ	Yangon-Pyay Main Road	ရန်ကုန်-ပြည်လမ်းမကြီး	Taik Kyi	တိုက်ကြီး	17.288119	95.970529
55	5	1790	Kan Kone	ကန်ကုန်း	Yangon-Pyay Main Road	ရန်ကုန်-ပြည်လမ်းမကြီး	Taik Kyi	တိုက်ကြီး	17.268660177380298	95.95454583875836
55	6	1788	Inn Yat Kyee	အင်းယက်ကြီး	Yangon-Pyay Main Road	ရန်ကုန်-ပြည်လမ်းမကြီး	Taik Kyi	တိုက်ကြီး	17.254460922225377	95.95838638488205
55	7	1786	Shwe Mya Yar	ရွှေမြယာ	Yangon-Pyay Main Road	ရန်ကုန်-ပြည်လမ်းမကြီး	Taik Kyi	တိုက်ကြီး	17.249596847548474	95.95973666757347
55	8	1784	Yone Htein Thone	ရုံးထိန်း (၃)	Yangon-Pyay Main Road	ရန်ကုန်-ပြည်လမ်းမကြီး	Taik Kyi	တိုက်ကြီး	17.226028911235574	95.96069308463485
55	9	1782	Nga-Pyaw Chan	ှှုငှက်ပျောခြံ	Yangon-Pyay Main Road	ရန်ကုန်-ပြည်လမ်းမကြီး	Taik Kyi	တိုက်ကြီး	17.220003	95.962265
55	10	1780	Kyun Chaung	ကျွန်းချောင်း	Yangon-Pyay Main Road	ရန်ကုန်-ပြည်လမ်းမကြီး	Taik Kyi	တိုက်ကြီး	17.214592	95.961578
55	11	1778	Gone Kwae	ကုန်းကွေ့	Yangon-Pyay Main Road	ရန်ကုန်-ပြည်လမ်းမကြီး	Taik Kyi	တိုက်ကြီး	17.21173498235108	95.96131280064584
55	12	1776	Ywar Lal	ရွာလယ်	Yangon-Pyay Main Road	ရန်ကုန်-ပြည်လမ်းမကြီး	Taik Kyi	တိုက်ကြီး	17.20873	95.962007
55	13	1774	Myauk Chaw Kone	မျောက်ချောကုန်း	Yangon-Pyay Main Road	ရန်ကုန်-ပြည်လမ်းမကြီး	Taik Kyi	တိုက်ကြီး	17.202007	95.961835
55	14	1772	Myaung Takar Yae Kyaw	မြောင်းတကာရေကျော်	Yangon-Pyay Main Road	ရန်ကုန်-ပြည်လမ်းမကြီး	Taik Kyi	တိုက်ကြီး	17.187084	95.968745
55	15	1770	Myaung Takar Sein Kalar	မြောင်းတကာစိန်ကုလား	Yangon-Pyay Main Road	ရန်ကုန်-ပြည်လမ်းမကြီး	Taik Kyi	တိုက်ကြီး	17.182774011520696	95.97171960398556
55	16	1768	Myaung Takar Tar Sone	မြောင်းတကာတာဆုံ	Yangon-Pyay Main Road	ရန်ကုန်-ပြည်လမ်းမကြီး	Taik Kyi	တိုက်ကြီး	17.181792533458292	95.97454715520146
55	17	1766	Kywe Lan	ကျွဲလမ်း	Yangon-Pyay Main Road	ရန်ကုန်-ပြည်လမ်းမကြီး	Hmaw Bi	မှော်ဘီ	17.179335	95.980933
55	18	1764	Nat Sin Lan	နတ်စင်လမ်း	Yangon-Pyay Main Road	ရန်ကုန်-ပြည်လမ်းမကြီး	Hmaw Bi	မှော်ဘီ	17.178269	95.982091
55	19	1762	Than-Ma-Ni Sat Yon	သံမဏိစက်ရုံ	Yangon-Pyay Main Road	ရန်ကုန်-ပြည်လမ်းမကြီး	Hmaw Bi	မှော်ဘီ	17.177285	95.982521
55	20	1760	Pha-Ye Khinn	ဖရဲခင်း	Yangon-Pyay Main Road	ရန်ကုန်-ပြည်လမ်းမကြီး	Hmaw Bi	မှော်ဘီ	17.175604	95.984581
55	21	1758	Sauk Lote Yae (Hmaw Bi)	ဆောက်လုပ်ရေး (မှော်ဘီ)	Yangon-Pyay Main Road	ရန်ကုန်-ပြည်လမ်းမကြီး	Hmaw Bi	မှော်ဘီ	17.173062	95.988915
55	22	1756	Chan Aye	ချမ်းအေး	Yangon-Pyay Main Road	ရန်ကုန်-ပြည်လမ်းမကြီး	Hmaw Bi	မှော်ဘီ	17.170848	95.991361
55	23	1754	Sauk Lote Yae Thit	ဆောက်လုပ်ရေးသစ်	Yangon-Pyay Main Road	ရန်ကုန်-ပြည်လမ်းမကြီး	Hmaw Bi	မှော်ဘီ	17.168962	95.993679
55	24	1752	Kyat Chan Pauk	ကြက်ခြံပေါက်	Yangon-Pyay Main Road	ရန်ကုန်-ပြည်လမ်းမကြီး	Hmaw Bi	မှော်ဘီ	17.168101	95.99458
55	25	1750	Kalar Kone	ကုလားကုန်း	Yangon-Pyay Main Road	ရန်ကုန်-ပြည်လမ်းမကြီး	Hmaw Bi	မှော်ဘီ	17.16401660313842	95.99530946463348
55	26	1748	Site Thit	ဆိုက်သစ်	Yangon-Pyay Main Road	ရန်ကုန်-ပြည်လမ်းမကြီး	Hmaw Bi	မှော်ဘီ	17.161089	95.995867
55	27	1746	Mani	မနီ	Yangon-Pyay Main Road	ရန်ကုန်-ပြည်လမ်းမကြီး	Hmaw Bi	မှော်ဘီ	17.156578	95.996726
55	28	1744	Say War	ဆေးဝါး	Yangon-Pyay Main Road	ရန်ကုန်-ပြည်လမ်းမကြီး	Hmaw Bi	မှော်ဘီ	17.15379	95.997155
55	29	1742	Baw Lone Ye Gate	ဘောလုံးရဲဂိတ်	Yangon-Pyay Main Road	ရန်ကုန်-ပြည်လမ်းမကြီး	Hmaw Bi	မှော်ဘီ	17.152068	95.997369
55	30	1740	Baw Lone Sat Yone	ဘောလုံးစက်ရုံ	Yangon-Pyay Main Road	ရန်ကုန်-ပြည်လမ်းမကြီး	Hmaw Bi	မှော်ဘီ	17.14992496624837	95.9979999717325
55	31	1738	Phanat Sat	ဖိနပ်စက်	Yangon-Pyay Main Road	ရန်ကုန်-ပြည်လမ်းမကြီး	Hmaw Bi	မှော်ဘီ	17.148787	95.997884
55	32	1736	Equator	အီကွေတာ	Yangon-Pyay Main Road	ရန်ကုန်-ပြည်လမ်းမကြီး	Hmaw Bi	မှော်ဘီ	17.142266718368305	95.99909703712912
55	33	1734	Japan Site	ဂျပန်ဆိုက်	Yangon-Pyay Main Road	ရန်ကုန်-ပြည်လမ်းမကြီး	Hmaw Bi	မှော်ဘီ	17.140705952006762	95.99953004624696
55	34	1731	Lan Ni Lay	လမ်းနီလေး	Yangon-Pyay Main Road	ရန်ကုန်-ပြည်လမ်းမကြီး	Hmaw Bi	မှော်ဘီ	17.138494	96.000416
55	35	1729	Myo Chaung	မြို့ချောင်း	Yangon-Pyay Main Road	ရန်ကုန်-ပြည်လမ်းမကြီး	Hmaw Bi	မှော်ဘီ	17.137018	96.00106
55	36	1727	Oak Set	အုတ်စက်	Yangon-Pyay Main Road	ရန်ကုန်-ပြည်လမ်းမကြီး	Hmaw Bi	မှော်ဘီ	17.133655	96.00239
55	37	1725	Aung Chan Thar	အောင်ချမ်းသာ	Yangon-Pyay Main Road	ရန်ကုန်-ပြည်လမ်းမကြီး	Hmaw Bi	မှော်ဘီ	17.131276	96.003807
55	38	1723	G.T.C Alal Pauk	ဂျီတီစီအလယ်ပေါက်	Yangon-Pyay Main Road	ရန်ကုန်-ပြည်လမ်းမကြီး	Hmaw Bi	မှော်ဘီ	17.129102	96.00445
55	39	1721	G.T.C Yae Oh	ဂျီတီစီရေအိုး	Yangon-Pyay Main Road	ရန်ကုန်-ပြည်လမ်းမကြီး	Hmaw Bi	မှော်ဘီ	17.127175	96.005266
55	40	1719	G.T.C Site Thit	ဂျီတီစီဆိုက်သစ်	Yangon-Pyay Main Road	ရန်ကုန်-ပြည်လမ်းမကြီး	Hmaw Bi	မှော်ဘီ	17.124304	96.006424
55	41	1717	Own Chan	အုန်းခြံ	Yangon-Pyay Main Road	ရန်ကုန်-ပြည်လမ်းမကြီး	Hmaw Bi	မှော်ဘီ	17.120695	96.008012
55	42	1715	Daung Lay Kwae	ဒေါင်းလေးကွေ့	Yangon-Pyay Main Road	ရန်ကုန်-ပြည်လမ်းမကြီး	Hmaw Bi	မှော်ဘီ	17.115322	96.01033
55	43	1713	U Thu Mingala	ဦးသုမင်္ဂလ	Yangon-Pyay Main Road	ရန်ကုန်-ပြည်လမ်းမကြီး	Hmaw Bi	မှော်ဘီ	17.109539	96.015394
55	44	1711	Su Paung Yone	စုပေါင်းရုံး	Yangon-Pyay Main Road	ရန်ကုန်-ပြည်လမ်းမကြီး	Hmaw Bi	မှော်ဘီ	17.105724	96.019127
55	45	1709	Htan Ta Pin Tar Sone	ထန်းတပင်တာဆုံ	Yangon-Pyay Main Road	ရန်ကုန်-ပြည်လမ်းမကြီး	Hmaw Bi	မှော်ဘီ	17.097849	96.036361
55	46	1707	Mee Sat (Hmaw Bi)	မီးစက် (မှော်ဘီ)	Yangon-Pyay Main Road	ရန်ကုန်-ပြည်လမ်းမကြီး	Hmaw Bi	မှော်ဘီ	17.098033	96.038142
55	47	1705	Thayet Taw Pauk	သရက်တောပေါက်	Yangon-Pyay Main Road	ရန်ကုန်-ပြည်လမ်းမကြီး	Hmaw Bi	မှော်ဘီ	17.098981026611735	96.03889339137824
55	48	1703	Hmaw Bi Kar Lay Gate	မှော်ဘီကားလေးဂိတ်	Yangon-Pyay Main Road	ရန်ကုန်-ပြည်လမ်းမကြီး	Hmaw Bi	မှော်ဘီ	17.10053631487457	96.04010650422427
55	49	1701	Hmaw Bi Zay	မှော်ဘီဈေး	Yangon-Pyay Main Road	ရန်ကုန်-ပြည်လမ်းမကြီး	Hmaw Bi	မှော်ဘီ	17.100765899750144	96.04262164095418
55	50	1699	Yoke Shin Yon	ရုပ်ရှင်ရုံ	Yangon-Pyay Main Road	ရန်ကုန်-ပြည်လမ်းမကြီး	Hmaw Bi	မှော်ဘီ	17.100894	96.04603
55	51	1697	A Hmat Lay	အမှတ် (၄)	Yangon-Pyay Main Road	ရန်ကုန်-ပြည်လမ်းမကြီး	Hmaw Bi	မှော်ဘီ	17.10361280479879	96.04985088575633
55	52	1695	Yone Pauk	ရုံးပေါက်	Yangon-Pyay Main Road	ရန်ကုန်-ပြည်လမ်းမကြီး	Htauk Kyant	ထောက်ကြန့်	17.106032	96.052519
55	53	1693	Sae-Chauk Gate	(၁၆) ဂိတ်	Yangon-Pyay Main Road	ရန်ကုန်-ပြည်လမ်းမကြီး	Htauk Kyant	ထောက်ကြန့်	17.106545	96.053785
55	54	1691	Supplies	ဆပ်ပလိုင်း	Yangon-Pyay Main Road	ရန်ကုန်-ပြည်လမ်းမကြီး	Htauk Kyant	ထောက်ကြန့်	17.106442	96.060094
55	55	1687	Lay Tat	လေတပ်	Yangon-Pyay Main Road	ရန်ကုန်-ပြည်လမ်းမကြီး	Htauk Kyant	ထောက်ကြန့်	17.108718	96.073033
55	56	1685	Maw Taw Yin	မော်တော်ယာဉ်	Yangon-Pyay Main Road	ရန်ကုန်-ပြည်လမ်းမကြီး	Htauk Kyant	ထောက်ကြန့်	17.108185	96.074188
55	57	1683	Say Tat	ဆေးတပ်	Yangon-Pyay Main Road	ရန်ကုန်-ပြည်လမ်းမကြီး	Htauk Kyant	ထောက်ကြန့်	17.106627	96.076248
55	58	1681	Bo Thin Tan	ဗိုလ်သင်တန်း	Yangon-Pyay Main Road	ရန်ကုန်-ပြည်လမ်းမကြီး	Htauk Kyant	ထောက်ကြန့်	17.105355	96.077921
55	59	1679	Set Thwe Yae	ဆက်သွယ်ရေး	Yangon-Pyay Main Road	ရန်ကုန်-ပြည်လမ်းမကြီး	Htauk Kyant	ထောက်ကြန့်	17.10433	96.079509
55	60	1677	Koe-Sae-Tit Gate	(၉၁) ဂိတ်	Yangon-Pyay Main Road	ရန်ကုန်-ပြည်လမ်းမကြီး	Htauk Kyant	ထောက်ကြန့်	17.100884	96.084144
55	61	1675	Sae-Thit Taw	ဆယ့်တစ်တော	Yangon-Pyay Main Road	ရန်ကုန်-ပြည်လမ်းမကြီး	Htauk Kyant	ထောက်ကြန့်	17.09789	96.088436
55	62	1673	Main Ma Line	မိန်းမလိုင်း	Yangon-Pyay Main Road	ရန်ကုန်-ပြည်လမ်းမကြီး	Htauk Kyant	ထောက်ကြန့်	17.096659	96.090753
55	63	1671	San Chaung Pauk	စမ်းချောင်းပေါက်	Yangon-Pyay Main Road	ရန်ကုန်-ပြည်လမ်းမကြီး	Htauk Kyant	ထောက်ကြန့်	17.095716	96.092513
55	64	1669	Ye Baw Zay	ရဲဘော်ဈေး	Yangon-Pyay Main Road	ရန်ကုန်-ပြည်လမ်းမကြီး	Htauk Kyant	ထောက်ကြန့်	17.094129775295237	96.09478605911137
55	65	1667	Kyat Phyu Kan	ကြက်ဖြူကန်	Yangon-Pyay Main Road	ရန်ကုန်-ပြည်လမ်းမကြီး	Htauk Kyant	ထောက်ကြန့်	17.086257894915484	96.10054895281795
55	66	1665	Say Khan	ဆေးခန်း	Yangon-Pyay Main Road	ရန်ကုန်-ပြည်လမ်းမကြီး	Htauk Kyant	ထောက်ကြန့်	17.08319431832644	96.10276043415071
55	67	1663	Mee Sat	မီးစက်	Yangon-Pyay Main Road	ရန်ကုန်-ပြည်လမ်းမကြီး	Htauk Kyant	ထောက်ကြန့်	17.076754091524922	96.10764662269504
55	68	1661	Ta-Sae-Ngar	တစ်ဆယ့်ငါး	Yangon-Pyay Main Road	ရန်ကုန်-ပြည်လမ်းမကြီး	Htauk Kyant	ထောက်ကြန့်	17.07404485128371	96.10925464890899
55	69	1659	Yoke Than	ရုပ်သံ	Yangon-Pyay Main Road	ရန်ကုန်-ပြည်လမ်းမကြီး	Htauk Kyant	ထောက်ကြန့်	17.069564	96.11185
55	70	1657	Hnit Gate	(၂) ဂိတ်	Yangon-Pyay Main Road	ရန်ကုန်-ပြည်လမ်းမကြီး	Htauk Kyant	ထောက်ကြန့်	17.065646	96.115859
55	71	1655	Yae Oh Sin	ရေအိုးစင်	Yangon-Pyay Main Road	ရန်ကုန်-ပြည်လမ်းမကြီး	Htauk Kyant	ထောက်ကြန့်	17.064375	96.116889
55	72	1653	Kyant Khaing Yae	ကြံ့ခိုင်ရေး	Yangon-Pyay Main Road	ရန်ကုန်-ပြည်လမ်းမကြီး	Htauk Kyant	ထောက်ကြန့်	17.060764	96.117232
55	73	1651	Sauk Lote Yae	ဆောက်လုပ်ရေး	Yangon-Pyay Main Road	ရန်ကုန်-ပြည်လမ်းမကြီး	Htauk Kyant	ထောက်ကြန့်	17.057564	96.11882
55	74	1649	Shit-Sae-Hnit	-၈၂	Yangon-Pyay Main Road	ရန်ကုန်-ပြည်လမ်းမကြီး	Htauk Kyant	ထောက်ကြန့်	17.055089805976248	96.1194466240704
55	75	1647	Nine Gate	(၉) ဂိတ်	Yangon-Pyay Main Road	ရန်ကုန်-ပြည်လမ်းမကြီး	Htauk Kyant	ထောက်ကြန့်	17.051861	96.119764
55	76	1645	Gate Haung	ဂိတ်ဟောင်း	Yangon-Pyay Main Road	ရန်ကုန်-ပြည်လမ်းမကြီး	Htauk Kyant	ထောက်ကြန့်	17.044476	96.126072
55	77	1487	Htauk Kyant Lan Sone	ထောက်ကြန့်လမ်းဆုံ	No. 2 Main Road	အမှတ်(၂)လမ်းမ	Htauk Kyant	ထောက်ကြန့်	17.04265	96.131818
55	78	1486	Htauk Kyant Lan Sone	ထောက်ကြန့်လမ်းဆုံ	No. 2 Main Road	အမှတ်(၂)လမ်းမ	Htauk Kyant	ထောက်ကြန့်	17.042732	96.131957
55	79	1644	Gate Haung	ဂိတ်ဟောင်း	Yangon-Pyay Main Road	ရန်ကုန်-ပြည်လမ်းမကြီး	Htauk Kyant	ထောက်ကြန့်	17.044148	96.126373
55	80	1646	Nine Gate	(၉) ဂိတ်	Yangon-Pyay Main Road	ရန်ကုန်-ပြည်လမ်းမကြီး	Htauk Kyant	ထောက်ကြန့်	17.0519248486086	96.11956057604404
55	81	1648	Shit-Sae-Hnit	-၈၂	Yangon-Pyay Main Road	ရန်ကုန်-ပြည်လမ်းမကြီး	Htauk Kyant	ထောက်ကြန့်	17.054992925228067	96.11984258517623
55	82	1650	Sauk Lote Yae	ဆောက်လုပ်ရေး	Yangon-Pyay Main Road	ရန်ကုန်-ပြည်လမ်းမကြီး	Htauk Kyant	ထောက်ကြန့်	17.057523	96.118519
55	83	1652	Kyant Khaing Yae	ကြံ့ခိုင်ရေး	Yangon-Pyay Main Road	ရန်ကုန်-ပြည်လမ်းမကြီး	Htauk Kyant	ထောက်ကြန့်	17.060272	96.117575
55	84	1654	Yae Oh Sin	ရေအိုးစင်	Yangon-Pyay Main Road	ရန်ကုန်-ပြည်လမ်းမကြီး	Htauk Kyant	ထောက်ကြန့်	17.064128	96.117232
55	85	1656	Hnit Gate	(၂) ဂိတ်	Yangon-Pyay Main Road	ရန်ကုန်-ပြည်လမ်းမကြီး	Htauk Kyant	ထောက်ကြန့်	17.065605	96.116331
55	86	1658	Yoke Than	ရုပ်သံ	Yangon-Pyay Main Road	ရန်ကုန်-ပြည်လမ်းမကြီး	Htauk Kyant	ထောက်ကြန့်	17.069667	96.112107
55	87	1660	Ta-Sae-Ngar	တစ်ဆယ့်ငါး	Yangon-Pyay Main Road	ရန်ကုန်-ပြည်လမ်းမကြီး	Htauk Kyant	ထောက်ကြန့်	17.07418	96.108813
55	88	1662	Mee Sat	မီးစက်	Yangon-Pyay Main Road	ရန်ကုန်-ပြည်လမ်းမကြီး	Htauk Kyant	ထောက်ကြန့်	17.076985087829687	96.1072783637792
55	89	1664	Say Khan	ဆေးခန်း	Yangon-Pyay Main Road	ရန်ကုန်-ပြည်လမ်းမကြီး	Htauk Kyant	ထောက်ကြန့်	17.083295711260682	96.10307911410929
55	90	1666	Kyat Phyu Kan	ကြက်ဖြူကန်	Yangon-Pyay Main Road	ရန်ကုန်-ပြည်လမ်းမကြီး	Htauk Kyant	ထောက်ကြန့်	17.086368940584222	96.10084087355064
55	91	1668	Ye Baw Zay	ရဲဘော်ဈေး	Yangon-Pyay Main Road	ရန်ကုန်-ပြည်လမ်းမကြီး	Htauk Kyant	ထောက်ကြန့်	17.094034	96.095166
55	92	1670	San Chaung Pauk	စမ်းချောင်းပေါက်	Yangon-Pyay Main Road	ရန်ကုန်-ပြည်လမ်းမကြီး	Htauk Kyant	ထောက်ကြန့်	17.095839	96.092856
55	93	1672	Main Ma Line	မိန်းမလိုင်း	Yangon-Pyay Main Road	ရန်ကုန်-ပြည်လမ်းမကြီး	Htauk Kyant	ထောက်ကြန့်	17.096823	96.091011
55	94	1674	Sae-Thit Taw	ဆယ့်တစ်တော	Yangon-Pyay Main Road	ရန်ကုန်-ပြည်လမ်းမကြီး	Htauk Kyant	ထောက်ကြန့်	17.097972	96.088865
55	95	1676	Koe-Sae-Tit Gate	(၉၁) ဂိတ်	Yangon-Pyay Main Road	ရန်ကုန်-ပြည်လမ်းမကြီး	Htauk Kyant	ထောက်ကြန့်	17.100925	96.084445
55	96	1678	Set Thwe Yae	ဆက်သွယ်ရေး	Yangon-Pyay Main Road	ရန်ကုန်-ပြည်လမ်းမကြီး	Htauk Kyant	ထောက်ကြန့်	17.104617	96.079381
55	97	1680	Bo Thin Tan	ဗိုလ်သင်တန်း	Yangon-Pyay Main Road	ရန်ကုန်-ပြည်လမ်းမကြီး	Htauk Kyant	ထောက်ကြန့်	17.10556	96.078222
55	98	1682	Say Tat	ဆေးတပ်	Yangon-Pyay Main Road	ရန်ကုန်-ပြည်လမ်းမကြီး	Htauk Kyant	ထောက်ကြန့်	17.106709	96.076505
55	99	1684	Maw Taw Yin	မော်တော်ယာဉ်	Yangon-Pyay Main Road	ရန်ကုန်-ပြည်လမ်းမကြီး	Htauk Kyant	ထောက်ကြန့်	17.108103	96.074531
55	100	1686	Lay Tat	လေတပ်	Yangon-Pyay Main Road	ရန်ကုန်-ပြည်လမ်းမကြီး	Htauk Kyant	ထောက်ကြန့်	17.109047	96.073097
55	101	1690	Supplies	ဆပ်ပလိုင်း	Yangon-Pyay Main Road	ရန်ကုန်-ပြည်လမ်းမကြီး	Htauk Kyant	ထောက်ကြန့်	17.106729	96.060115
55	102	1692	Sae-Chauk Gate	(၁၆) ဂိတ်	Yangon-Pyay Main Road	ရန်ကုန်-ပြည်လမ်းမကြီး	Htauk Kyant	ထောက်ကြန့်	17.106811	96.053828
55	103	1694	Yone Pauk	ရုံးပေါက်	Yangon-Pyay Main Road	ရန်ကုန်-ပြည်လမ်းမကြီး	Htauk Kyant	ထောက်ကြန့်	17.106256404915268	96.05255333706738
55	104	1696	A Hmat Lay	အမှတ် (၄)	Yangon-Pyay Main Road	ရန်ကုန်-ပြည်လမ်းမကြီး	Hmaw Bi	မှော်ဘီ	17.10382141656633	96.04968136176467
55	105	1698	Yoke Shin Yon	ရုပ်ရှင်ရုံ	Yangon-Pyay Main Road	ရန်ကုန်-ပြည်လမ်းမကြီး	Hmaw Bi	မှော်ဘီ	17.101048	96.046041
55	106	1700	Hmaw Bi Zay	မှော်ဘီဈေး	Yangon-Pyay Main Road	ရန်ကုန်-ပြည်လမ်းမကြီး	Hmaw Bi	မှော်ဘီ	17.100932775711676	96.04267161805183
55	107	1702	Hmaw Bi Kar Lay Gate	မှော်ဘီကားလေးဂိတ်	Yangon-Pyay Main Road	ရန်ကုန်-ပြည်လမ်းမကြီး	Hmaw Bi	မှော်ဘီ	17.10060881750042	96.04002813342959
55	108	1704	Thayet Taw Pauk	သရက်တောပေါက်	Yangon-Pyay Main Road	ရန်ကုန်-ပြည်လမ်းမကြီး	Hmaw Bi	မှော်ဘီ	17.09916200423804	96.03885521180929
55	109	1706	Mee Sat (Hmaw Bi)	မီးစက် (မှော်ဘီ)	Yangon-Pyay Main Road	ရန်ကုန်-ပြည်လမ်းမကြီး	Hmaw Bi	မှော်ဘီ	17.098238	96.037885
55	110	1708	Htan Ta Pin Tar Sone	ထန်းတပင်တာဆုံ	Yangon-Pyay Main Road	ရန်ကုန်-ပြည်လမ်းမကြီး	Hmaw Bi	မှော်ဘီ	17.097623	96.036147
55	111	1710	Su Paung Yone	စုပေါင်းရုံး	Yangon-Pyay Main Road	ရန်ကုန်-ပြည်လမ်းမကြီး	Hmaw Bi	မှော်ဘီ	17.105642	96.018784
55	112	1712	U Thu Mingala	ဦးသုမင်္ဂလ	Yangon-Pyay Main Road	ရန်ကုန်-ပြည်လမ်းမကြီး	Hmaw Bi	မှော်ဘီ	17.10958	96.015694
55	113	1714	Daung Lay Kwae	ဒေါင်းလေးကွေ့	Yangon-Pyay Main Road	ရန်ကုန်-ပြည်လမ်းမကြီး	Hmaw Bi	မှော်ဘီ	17.115281	96.01063
55	114	1716	Own Chan	အုန်းခြံ	Yangon-Pyay Main Road	ရန်ကုန်-ပြည်လမ်းမကြီး	Hmaw Bi	မှော်ဘီ	17.120777	96.008184
55	115	1718	G.T.C Site Thit	ဂျီတီစီဆိုက်သစ်	Yangon-Pyay Main Road	ရန်ကုန်-ပြည်လမ်းမကြီး	Hmaw Bi	မှော်ဘီ	17.124427	96.006639
55	116	1720	G.T.C Yae Oh	ဂျီတီစီရေအိုး	Yangon-Pyay Main Road	ရန်ကုန်-ပြည်လမ်းမကြီး	Hmaw Bi	မှော်ဘီ	17.126929	96.005523
55	117	1722	G.T.C Alal Pauk	ဂျီတီစီအလယ်ပေါက်	Yangon-Pyay Main Road	ရန်ကုန်-ပြည်လမ်းမကြီး	Hmaw Bi	မှော်ဘီ	17.12902	96.004665
55	118	1724	Aung Chan Thar	အောင်ချမ်းသာ	Yangon-Pyay Main Road	ရန်ကုန်-ပြည်လမ်းမကြီး	Hmaw Bi	မှော်ဘီ	17.131112	96.003549
55	119	1726	Oak Set	အုတ်စက်	Yangon-Pyay Main Road	ရန်ကုန်-ပြည်လမ်းမကြီး	Hmaw Bi	မှော်ဘီ	17.13377648762936	96.00268872454764
55	120	1728	Myo Chaung	မြို့ချောင်း	Yangon-Pyay Main Road	ရန်ကုန်-ပြည်လမ်းမကြီး	Hmaw Bi	မှော်ဘီ	17.137264	96.001232
55	121	1730	Lan Ni Lay	လမ်းနီလေး	Yangon-Pyay Main Road	ရန်ကုန်-ပြည်လမ်းမကြီး	Hmaw Bi	မှော်ဘီ	17.13836060281555	96.00069475360216
55	122	1733	Japan Site	ဂျပန်ဆိုက်	Yangon-Pyay Main Road	ရန်ကုန်-ပြည်လမ်းမကြီး	Hmaw Bi	မှော်ဘီ	17.140421310220514	95.9997989377007
55	123	1735	Equator	အီကွေတာ	Yangon-Pyay Main Road	ရန်ကုန်-ပြည်လမ်းမကြီး	Hmaw Bi	မှော်ဘီ	17.142307727230026	95.9992613643408
55	124	1737	Phanat Sat	ဖိနပ်စက်	Yangon-Pyay Main Road	ရန်ကုန်-ပြည်လမ်းမကြီး	Hmaw Bi	မှော်ဘီ	17.148815846994253	95.99817909300329
55	125	1739	Baw Lone Sat Yone	ဘောလုံးစက်ရုံ	Yangon-Pyay Main Road	ရန်ကုန်-ပြည်လမ်းမကြီး	Hmaw Bi	မှော်ဘီ	17.14983882713286	95.99777630064638
55	126	1741	Baw Lone Ye Gate	ဘောလုံးရဲဂိတ်	Yangon-Pyay Main Road	ရန်ကုန်-ပြည်လမ်းမကြီး	Hmaw Bi	မှော်ဘီ	17.152027	95.997713
55	127	1743	Say War	ဆေးဝါး	Yangon-Pyay Main Road	ရန်ကုန်-ပြည်လမ်းမကြီး	Hmaw Bi	မှော်ဘီ	17.153954	95.997455
55	128	1745	Mani	မနီ	Yangon-Pyay Main Road	ရန်ကုန်-ပြည်လမ်းမကြီး	Hmaw Bi	မှော်ဘီ	17.156414	95.997026
55	129	1747	Site Thit	ဆိုက်သစ်	Yangon-Pyay Main Road	ရန်ကုန်-ပြည်လမ်းမကြီး	Hmaw Bi	မှော်ဘီ	17.161007	95.996168
55	130	1749	Kalar Kone	ကုလားကုန်း	Yangon-Pyay Main Road	ရန်ကုန်-ပြည်လမ်းမကြီး	Hmaw Bi	မှော်ဘီ	17.164145701818732	95.99555367138238
55	131	1751	Kyat Chan Pauk	ကြက်ခြံပေါက်	Yangon-Pyay Main Road	ရန်ကုန်-ပြည်လမ်းမကြီး	Hmaw Bi	မှော်ဘီ	17.167854	95.994966
55	132	1753	Sauk Lote Yae Thit	ဆောက်လုပ်ရေးသစ်	Yangon-Pyay Main Road	ရန်ကုန်-ပြည်လမ်းမကြီး	Hmaw Bi	မှော်ဘီ	17.169048862448104	95.99382456857711
55	133	1755	Chan Aye	ချမ်းအေး	Yangon-Pyay Main Road	ရန်ကုန်-ပြည်လမ်းမကြီး	Hmaw Bi	မှော်ဘီ	17.170848	95.991747
55	134	1757	Sauk Lote Yae (Hmaw Bi)	ဆောက်လုပ်ရေး (မှော်ဘီ)	Yangon-Pyay Main Road	ရန်ကုန်-ပြည်လမ်းမကြီး	Hmaw Bi	မှော်ဘီ	17.173267	95.989044
55	135	1759	Pha-Ye Khinn	ဖရဲခင်း	Yangon-Pyay Main Road	ရန်ကုန်-ပြည်လမ်းမကြီး	Hmaw Bi	မှော်ဘီ	17.175809	95.984795
55	136	1761	Than-Ma-Ni Sat Yon	သံမဏိစက်ရုံ	Yangon-Pyay Main Road	ရန်ကုန်-ပြည်လမ်းမကြီး	Hmaw Bi	မှော်ဘီ	17.177449	95.982778
55	137	1763	Nat Sin Lan	နတ်စင်လမ်း	Yangon-Pyay Main Road	ရန်ကုန်-ပြည်လမ်းမကြီး	Hmaw Bi	မှော်ဘီ	17.178187	95.981877
55	138	1765	Kywe Lan	ကျွဲလမ်း	Yangon-Pyay Main Road	ရန်ကုန်-ပြည်လမ်းမကြီး	Hmaw Bi	မှော်ဘီ	17.179622	95.981019
55	139	1767	Myaung Takar Tar Sone	မြောင်းတကာတာဆုံ	Yangon-Pyay Main Road	ရန်ကုန်-ပြည်လမ်းမကြီး	Taik Kyi	တိုက်ကြီး	17.181918	95.97471
55	140	1769	Myaung Takar Sein Kalar	မြောင်းတကာစိန်ကုလား	Yangon-Pyay Main Road	ရန်ကုန်-ပြည်လမ်းမကြီး	Taik Kyi	တိုက်ကြီး	17.183038228546877	95.97183431033045
55	141	1771	Myaung Takar Yae Kyaw	မြောင်းတကာရေကျော်	Yangon-Pyay Main Road	ရန်ကုန်-ပြည်လမ်းမကြီး	Taik Kyi	တိုက်ကြီး	17.18733	95.969045
55	142	1773	Myauk Chaw Kone	မျောက်ချောကုန်း	Yangon-Pyay Main Road	ရန်ကုန်-ပြည်လမ်းမကြီး	Taik Kyi	တိုက်ကြီး	17.201679	95.962136
55	143	1775	Ywar Lal	ရွာလယ်	Yangon-Pyay Main Road	ရန်ကုန်-ပြည်လမ်းမကြီး	Taik Kyi	တိုက်ကြီး	17.208689	95.962265
55	144	1777	Gone Kwae	ကုန်းကွေ့	Yangon-Pyay Main Road	ရန်ကုန်-ပြည်လမ်းမကြီး	Taik Kyi	တိုက်ကြီး	17.21164290708464	95.96162066794932
55	145	1779	Kyun Chaung	ကျွန်းချောင်း	Yangon-Pyay Main Road	ရန်ကုန်-ပြည်လမ်းမကြီး	Taik Kyi	တိုက်ကြီး	17.214592	95.961921
55	146	1781	Nga-Pyaw Chan	ှှုငှက်ပျောခြံ	Yangon-Pyay Main Road	ရန်ကုန်-ပြည်လမ်းမကြီး	Taik Kyi	တိုက်ကြီး	17.220126	95.962522
55	147	1783	Yone Htein Thone	ရုံးထိန်း (၃)	Yangon-Pyay Main Road	ရန်ကုန်-ပြည်လမ်းမကြီး	Taik Kyi	တိုက်ကြီး	17.226110891878175	95.96096792723985
55	148	1785	Shwe Mya Yar	ရွှေမြယာ	Yangon-Pyay Main Road	ရန်ကုန်-ပြည်လမ်းမကြီး	Taik Kyi	တိုက်ကြီး	17.249596847548474	95.96032759174705
55	149	1787	Inn Yat Kyee	အင်းယက်ကြီး	Yangon-Pyay Main Road	ရန်ကုန်-ပြည်လမ်းမကြီး	Taik Kyi	တိုက်ကြီး	17.254567824844774	95.95858491025866
55	150	1789	Kan Kone	ကန်ကုန်း	Yangon-Pyay Main Road	ရန်ကုန်-ပြည်လမ်းမကြီး	Taik Kyi	တိုက်ကြီး	17.268613	95.954711
55	151	1791	Taik Kyi Tar Gwa Tar Sone	တိုက်ကြီးတာခွ	Yangon-Pyay Main Road	ရန်ကုန်-ပြည်လမ်းမကြီး	Taik Kyi	တိုက်ကြီး	17.288078	95.97068
55	152	1793	Taik Kyi Phaung Gyi Lan Khwe	တိုက်ကြီးဖောင်ကြီးလမ်းခွဲ	Yangon-Pyay Main Road	ရန်ကုန်-ပြည်လမ်းမကြီး	Taik Kyi	တိုက်ကြီး	17.294142	95.975529
55	153	1795	Taik Kyi Khan Ma	တိုက်ကြီးခန်းမ	Yangon-Pyay Main Road	ရန်ကုန်-ပြည်လမ်းမကြီး	Taik Kyi	တိုက်ကြီး	17.311269	95.966341
55	154	1797	Taik Kyi Zay	တိုက်ကြီးဈေး	Yangon-Pyay Main Road	ရန်ကုန်-ပြည်လမ်းမကြီး	Taik Kyi	တိုက်ကြီး	17.313891	95.963622
