svc_name	sequence	stop_id	name_en	name_mm	road_en	road_mm	township_en	township_mm	lat	lng
5	1	787	Shit-sae-koe Kwae	(၈၉) ကွေ့	Kun At Min Thar Road	ကွမ်းအစ်မင်းသားလမ်း	Dagon Seikkan	ဒဂုံဆိပ်ကမ်း	16.842498	96.278468
5	2	2147	Kanaung Kwae	ကနောင်ကွေ့	Kanaung Minthargyi Road	ကနောင်မင်းသားကြီးလမ်း	Dagon Seikkan	ဒဂုံဆိပ်ကမ်း	16.832311	96.276387
5	3	782	Moke Oo (Yuzana Garden)	မုခ်ဦး (ယုဇနဥယျာဉ်)	Bago River Road	ပဲခူးမြစ်လမ်း	Dagon Seikkan	ဒဂုံဆိပ်ကမ်း	16.832393	96.269968
5	4	790	Padauk Kwae	ပိတောက်ကွေ့	Kyun Shwe Wah Road	ကျွန်းရွှေဝါလမ်း	Dagon Seikkan	ဒဂုံဆိပ်ကမ်း	16.827217	96.269082
5	5	791	Sae-Tit Lan	(၁၁) လမ်း	Kyun Shwe Wah Road	ကျွန်းရွှေဝါလမ်း	Dagon Seikkan	ဒဂုံဆိပ်ကမ်း	16.823294	96.267697
5	6	2345	Thone-Sae-Hnit Gate	(၃၂) ဂိတ်	Kyun Shwe Wah Road	ကျွန်းရွှေဝါလမ်း	South Dagon	တောင်ဒဂုံ	16.821399	96.26605
5	7	557	Asean	အာဆီယံ	National Races Village	တိုင်းရင်းသားကျေးရွာ	Thaketa	သာကေတ	16.807191	96.232549
5	10	548	Sauk Lote Yae	ဆောက်လုပ်ရေး	Yadanar Road	ရတနာလမ်း	Thaketa	သာကေတ	16.803432	96.22418
5	11	551	Tayar-Shit Taung	(၁၀၈) တောင်	Thalyin Thada Chin Kat Road	သန်လျှင်တံတားချင့်ကပ်လမ်း	Thaketa	သာကေတ	16.806431	96.218966
5	12	2159	Thaketa Awine	သာကေတအဝိုင်း	Ayar Wun Main Road	ဧရာဝဏ်လမ်းမကြီး	Thaketa	သာကေတ	16.806472	96.216753
5	13	530	Shit Gate	(၈) ဂိတ်	Ayar Wun Main Road	ဧရာဝဏ်လမ်းမကြီး	Thaketa	သာကေတ	16.805075	96.213709
5	14	526	Myayni	မြေနီ	Ayar Wun Main Road	ဧရာဝဏ်လမ်းမကြီး	Thaketa	သာကေတ	16.803884	96.210641
5	16	528	Paya Shae							
5	17	516	Khun Zay							
5	18	520	Kyan Mar Yae							
5	19	499	Yoke Shin Yon							
5	20	455	Nal Myay Yon							
5	21	464	Sar Taik							
5	22	465	Si Saing							
5	23	473	Wet Su	ဝက်စု	Min Nandar Road	မင်းနန္ဒာလမ်း	Thaketa	သာကေတ	16.789915	96.191822
5	24	476	Yan Aung	ရန်အောင်	Min Nandar Road	မင်းနန္ဒာလမ်း	Thaketa	သာကေတ	16.786238	96.189934
5	25	470	Thinbaw Kyin	သင်္ဘောကျင်း	Min Nandar Road	မင်းနန္ဒာလမ်း	Thaketa	သာကေတ	16.782458	96.186715
5	26	452	Warso	ဝါဆို	Yamonar Road	ယမုံနာလမ်း	Daw Bon	ဒေါပုံ	16.782709	96.183757
5	27	450	Sar Taik	စာတိုက်	Upper Pazundaung Road	အထက်ပုဇွန်တောင်လမ်း	Pazundaung	ပုဇွန်တောင်	16.784522	96.174755
5	28	448	Pazundaung Zay	ပုဇွန်တောင်ဈေး	Upper Pazundaung Road	အထက်ပုဇွန်တောင်လမ်း	Pazundaung	ပုဇွန်တောင်	16.781651	96.174337
5	29	446	Nyaung Tan	ညောင်တန်း	Lower Pazundaung Road	အောက်ပုဇွန်တောင်လမ်း	Pazundaung	ပုဇွန်တောင်	16.77856	96.175217
5	30	423	Masalar Set/ Gandi	မဆလာစက်/ ဂန္ဓီ	Anawrahta Road	အနော်ရထာလမ်း	Botahtaung	ဗိုလ်တထောင်	16.776438	96.174755
5	31	447	Pazundaung Zay	ပုဇွန်တောင်ဈေး	Upper Pazundaung Road	အထက်ပုဇွန်တောင်လမ်း	Pazundaung	ပုဇွန်တောင်	16.78026	96.17454
5	32	449	Sar Taik	စာတိုက်	Upper Pazundaung Road	အထက်ပုဇွန်တောင်လမ်း	Pazundaung	ပုဇွန်တောင်	16.784389	96.174991
5	33	451	Warso	ဝါဆို	Yamonar Road	ယမုံနာလမ်း	Daw Bon	ဒေါပုံ	16.782602	96.182764
5	34	469	Thinbaw Kyin	သင်္ဘောကျင်း	Min Nandar Road	မင်းနန္ဒာလမ်း	Thaketa	သာကေတ	16.781821	96.187981
5	35	475	Yan Aung	ရန်အောင်	Min Nandar Road	မင်းနန္ဒာလမ်း	Thaketa	သာကေတ	16.78558	96.189977
5	36	474	Wet Su							
5	37	466	Si Saing							
5	38	463	Sar Taik							
5	39	456	Nal Myay Yon							
5	40	500	Yoke Shin Yon							
5	41	519	Kyan Mar Yae							
5	42	515	Khun Zay							
5	43	527	Paya Shae							
5	44	522	Kyaung Kwae							
5	45	525	Myayni	မြေနီ	Ayar Wun Main Road	ဧရာဝဏ်လမ်းမကြီး	Thaketa	သာကေတ	16.803637	96.210855
5	46	529	Shit Gate	(၈) ဂိတ်	Ayar Wun Main Road	ဧရာဝဏ်လမ်းမကြီး	Thaketa	သာကေတ	16.804664	96.21358
5	47	553	Thaketa Awine	သာကေတအဝိုင်း	Ayar Wun Main Road	ဧရာဝဏ်လမ်းမကြီး	Thaketa	သာကေတ	16.806421	96.216786
5	48	552	Tayar-Shit Taung	(၁၀၈) တောင်	Thalyin Thada Chin Kat Road	သန်လျှင်တံတားချင့်ကပ်လမ်း	Thaketa	သာကေတ	16.806554	96.219374
5	49	547	Sauk Lote Yae	ဆောက်လုပ်ရေး	Yadanar Road	ရတနာလမ်း	Thaketa	သာကေတ	16.803	96.223816
5	50	554	Asean	အာဆီယံ	National Races Village	တိုင်းရင်းသားကျေးရွာ	Thaketa	သာကေတ	16.806821	96.232334
5	51	2141	Thone-Sae-Hnit Gate	(၃၂) ဂိတ်	Kyun Shwe Wah Road	ကျွန်းရွှေဝါလမ်း	South Dagon	တောင်ဒဂုံ	16.820727	96.265875
5	52	792	Sae-Tit Lan	(၁၁) လမ်း	Kyun Shwe Wah Road	ကျွန်းရွှေဝါလမ်း	Dagon Seikkan	ဒဂုံဆိပ်ကမ်း	16.823561	96.268083
5	53	789	Padauk Kwae	ပိတောက်ကွေ့	Kyun Shwe Wah Road	ကျွန်းရွှေဝါလမ်း	Dagon Seikkan	ဒဂုံဆိပ်ကမ်း	16.827094	96.269383
5	54	781	Moke Oo (Yuzana Garden)	မုခ်ဦး (ယုဇနဥယျာဉ်)	Bago River Road	ပဲခူးမြစ်လမ်း	Dagon Seikkan	ဒဂုံဆိပ်ကမ်း	16.832147	96.270186
5	55	2145	Kanaung Kwae	ကနောင်ကွေ့	Kanaung Minthargyi Road	ကနောင်မင်းသားကြီးလမ်း	Dagon Seikkan	ဒဂုံဆိပ်ကမ်း	16.832126	96.276644
5	56	788	Shit-sae-koe Kwae	(၈၉) ကွေ့	Kun At Min Thar Road	ကွမ်းအစ်မင်းသားလမ်း	Dagon Seikkan	ဒဂုံဆိပ်ကမ်း	16.842498	96.279541