svc_name	sequence	stop_id	name_en	name_mm	road_en	road_mm	township_en	township_mm	lat	lng
80-Mini	1	398	Anawmar	အနော်မာ	Ayar Wun Main Road	ဧရာဝဏ်လမ်းမကြီး	Thaketa	သာကေတ	16.80397618824476	96.2019664607942
80-Mini	2	524	Kyaung Kwae/ Htuu Par Yone	ကျောင်းကွေ့/ထူပါရုံ	Ayar Wun Main Road	ဧရာဝဏ်လမ်းမကြီး	Thaketa	သာကေတ	16.803810	96.205891
80-Mini	3	522	Kyaung Kwae	ကျောင်းကွေ့	Myintawthar Road	မြင်တော်သာလမ်း	Thaketa	သာကေတ	16.80361	96.206572
80-Mini	4	527	Paya Shae	ဘုရားရှေ့	Myintawthar Road	မြင်တော်သာလမ်း	Thaketa	သာကေတ	16.801955	96.206690
80-Mini	5	516	Khun Zay	(၇) ဈေး	Myintawthar Road	မြင်တော်သာလမ်း	Thaketa	သာကေတ	16.798962	96.20582
80-Mini	6	520	Kyan Mar Yae	ကျန်းမာရေး	Myintawthar Road	မြင်တော်သာလမ်း	Thaketa	သာကေတ	16.796623	96.204681
80-Mini	7	500	Yoke Shin Yon	ရုပ်ရှင်ရုံ	Myintawthar Road	မြင်တော်သာလမ်း	Thaketa	သာကေတ	16.793286	96.203017
80-Mini	8	455	Nal Myay Yon	နယ်မြေရုံး	Myintawthar Road	မြင်တော်သာလမ်း	Thaketa	သာကေတ	16.79095866160968	96.2018478987739
80-Mini	9	464	Sar Taik	စာတိုက်	Myintawthar Road	မြင်တော်သာလမ်း	Thaketa	သာကေတ	16.789011	96.200877
80-Mini	10	466	Si Saing	ဆီဆိုင်	Myintawthar Road	မြင်တော်သာလမ်း	Thaketa	သာကေတ	16.786320018726588	96.1997736082412
80-Mini	11	462	Khin Ma Ma Kyar	ခင်မမကြား	Myintawthar Road	မြင်တော်သာလမ်း	Thaketa	သာကေတ	16.784193	96.198575
80-Mini	12	1610	Thone Zay	(၃) ဈေး	Myintawthar Road	မြင်တော်သာလမ်း	Thaketa	သာကေတ	16.781521	96.197234
80-Mini	13	458	Ashae Kyar	အရှေ့ကြား	Myintawthar Road	မြင်တော်သာလမ်း	Thaketa	သာကေတ	16.78062	96.196846
80-Mini	14	436	Thone Gate Haung	(၃) ဂိတ်ဟောင်း	Myintawthar Road	မြင်တော်သာလမ်း	Daw Bon	ဒေါပုံ	16.777643735181925	96.19553163181992
80-Mini	15	430	Man Pyae	မာန်ပြေ	Yamonar Road	ယမုံနာလမ်း	Daw Bon	ဒေါပုံ	16.778396729199493	96.1940399883315
80-Mini	16	478	Yan Pyay	ရန်ပြေ	Yamonar Road	ယမုံနာလမ်း	Daw Bon	ဒေါပုံ	16.77987692794149	96.1913831764832
80-Mini	17	472	Thinbaw Kyin	သင်္ဘောကျင်း	Yamonar Road	ယမုံနာလမ်း	Daw Bon	ဒေါပုံ	16.781294	96.188718
80-Mini	18	452	Warso	ဝါဆို	Yamonar Road	ယမုံနာလမ်း	Daw Bon	ဒေါပုံ	16.78264304840026	96.18374007521199
80-Mini	19	443	Mingalar Zay	မင်္ဂလာဈေး	Mill Road	စက်ရုံလမ်း	Mingalar Taung Nyunt	မင်္ဂလာတောင်ညွန့်	16.791773	96.174681
80-Mini	20	186	Mingalar Zay/ Layy Lan	မင်္ဂလာဈေး/ (၄)လမ်း	Banyardala Road	ဗညားဒလလမ်း	Mingalar Taung Nyunt	မင်္ဂလာတောင်ညွန့်	16.791641	96.172439
80-Mini	21	182	Masalar Set	မဆလာစက်	Banyardala Road	ဗညားဒလလမ်း	Mingalar Taung Nyunt	မင်္ဂလာတောင်ညွန့်	16.790188	96.16940
80-Mini	22	188	Thein Phyu Sar Taik	သိမ်ဖြူစာတိုက်	Thein Phyu Road	သိမ်ဖြူလမ်း	Mingalar Taung Nyunt	မင်္ဂလာတောင်ညွန့်	16.786857	96.167645
80-Mini	23	2439	Kyauk Kwae	ကျောက်ကွေ့	Upper Pansodan Road	အထက်ပန်းဆိုးတန်းလမ်း	Mingala Taungnyunt	မင်္ဂလာတောင်ညွန့်	16.7863816487008	96.162074804306
80-Mini	24	195	Youk Lan	ယောက်လမ်း	Gyo Phyu Road	ဂျိုးဖြူလမ်း	Mingalar Taung Nyunt	မင်္ဂလာတောင်ညွန့်	16.785509	96.1595
80-Mini	25	2440	91 Lan	၉၁ လမ်း	Daw Thein Tin St	ဒေါ်သိန်းတင်လမ်း	Mingala Taungnyunt	မင်္ဂလာတောင်ညွန့်	16.788934	96.1656
80-Mini	26	181	Masalar Set	မဆလာစက်	Banyardala Road	ဗညားဒလလမ်း	Mingalar Taung Nyunt	မင်္ဂလာတောင်ညွန့်	16.790037	96.169454
80-Mini	27	185	Mingalar Zay/ Layy Lan	မင်္ဂလာဈေး/ (၄)လမ်း	Banyardala Road	ဗညားဒလလမ်း	Mingalar Taung Nyunt	မင်္ဂလာတောင်ညွန့်	16.791508	96.172476
80-Mini	28	444	Mingalar Zay	မင်္ဂလာဈေး	Mill Road	စက်ရုံလမ်း	Mingalar Taung Nyunt	မင်္ဂလာတောင်ညွန့်	16.791854	96.174419
80-Mini	29	451	Warso	ဝါဆို	Yamonar Road	ယမုံနာလမ်း	Daw Bon	ဒေါပုံ	16.782555	96.182733
80-Mini	30	471	Thinbaw Kyin	သင်္ဘောကျင်း	Yamonar Road	ယမုံနာလမ်း	Daw Bon	ဒေါပုံ	16.781901	96.187129
80-Mini	31	477	Yan Pyay	ရန်ပြေ	Yamonar Road	ယမုံနာလမ်း	Daw Bon	ဒေါပုံ	16.7799100000000	96.1910280000000
80-Mini	32	431	Man Pyae	မာန်ပြေ	Yamonar Road	ယမုံနာလမ်း	Daw Bon	ဒေါပုံ	16.7784294714913	96.19375705718996
80-Mini	33	435	Thone Gate Haung	(၃) ဂိတ်ဟောင်း	Myintawthar Road	မြင်တော်သာလမ်း	Daw Bon	ဒေါပုံ	16.777583	96.195345
80-Mini	34	457	Ashae Kyar	အရှေ့ကြား	Myintawthar Road	မြင်တော်သာလမ်း	Thaketa	သာကေတ	16.780420	96.1968647106551
80-Mini	35	1611	Thone Zay	(၃) ဈေး	Myintawthar Road	မြင်တော်သာလမ်း	Thaketa	သာကေတ	16.782074	96.197677
80-Mini	36	461	Khin Ma Ma Kyar	ခင်မမကြား	Myintawthar Road	မြင်တော်သာလမ်း	Thaketa	သာကေတ	16.783882	96.198539
80-Mini	37	465	Si Saing	ဆီဆိုင်	Myintawthar Road	မြင်တော်သာလမ်း	Thaketa	သာကေတ	16.786302	96.199553
80-Mini	38	463	Sar Taik	စာတိုက်	Myintawthar Road	မြင်တော်သာလမ်း	Thaketa	သာကေတ	16.788826	96.201028
80-Mini	39	456	Nal Myay Yon	နယ်မြေရုံး	Myintawthar Road	မြင်တော်သာလမ်း	Thaketa	သာကေတ	16.790887	96.202020
80-Mini	40	499	Yoke Shin Yon	ရုပ်ရှင်ရုံ	Myintawthar Road	မြင်တော်သာလမ်း	Thaketa	သာကေတ	16.792665	96.202841
80-Mini	41	519	Kyan Mar Yae	ကျန်းမာရေး	Myintawthar Road	မြင်တော်သာလမ်း	Thaketa	သာကေတ	16.796244493961968	96.20461510028693
80-Mini	42	515	Khun Zay	(၇) ဈေး	Myintawthar Road	မြင်တော်သာလမ်း	Thaketa	သာကေတ	16.798736	96.205830
80-Mini	43	528	Paya Shae	ဘုရားရှေ့	Myintawthar Road	မြင်တော်သာလမ်း	Thaketa	သာကေတ	16.802075	96.206599
80-Mini	44	521	Kyaung Kwae	ကျောင်းကွေ့	Myintawthar Road	မြင်တော်သာလမ်း	Thaketa	သာကေတ	16.803613	96.206454
80-Mini	45	523	Kyaung Kwae/ Htuu Par Yone	ကျောင်းကွေ့/ထူပါရုံ	Ayar Wun Main Road	ဧရာဝဏ်လမ်းမကြီး	Thaketa	သာကေတ	16.80371	96.205867
80-Mini	46	397	Anawmar	အနော်မာ	Ayar Wun Main Road	ဧရာဝဏ်လမ်းမကြီး	Thaketa	သာကေတ	16.803823411391047	96.2017649598420