svc_name	sequence	stop_id	name_en	name_mm	road_en	road_mm	township_en	township_mm	lat	lng
43	1	1705	Thayet Taw Pauk	သရက်တောပေါက်	Yangon-Pyay Main Road	ရန်ကုန်-ပြည်လမ်းမကြီး	Hmaw Bi	မှော်ဘီ	17.098981026611735	96.03889339137824
43	2	1703	Hmaw Bi Kar Lay Gate	မှော်ဘီကားလေးဂိတ်	Yangon-Pyay Main Road	ရန်ကုန်-ပြည်လမ်းမကြီး	Hmaw Bi	မှော်ဘီ	17.10053631487457	96.04010650422427
43	3	1701	Hmaw Bi Zay	မှော်ဘီဈေး	Yangon-Pyay Main Road	ရန်ကုန်-ပြည်လမ်းမကြီး	Hmaw Bi	မှော်ဘီ	17.100765899750144	96.04262164095418
43	4	1699	Yoke Shin Yon	ရုပ်ရှင်ရုံ	Yangon-Pyay Main Road	ရန်ကုန်-ပြည်လမ်းမကြီး	Hmaw Bi	မှော်ဘီ	17.100894	96.04603
43	5	1697	A Hmat Lay	အမှတ် (၄)	Yangon-Pyay Main Road	ရန်ကုန်-ပြည်လမ်းမကြီး	Hmaw Bi	မှော်ဘီ	17.10361280479879	96.04985088575633
43	6	1695	Yone Pauk	ရုံးပေါက်	Yangon-Pyay Main Road	ရန်ကုန်-ပြည်လမ်းမကြီး	Htauk Kyant	ထောက်ကြန့်	17.106032	96.052519
43	7	1693	Sae-Chauk Gate	(၁၆) ဂိတ်	Yangon-Pyay Main Road	ရန်ကုန်-ပြည်လမ်းမကြီး	Htauk Kyant	ထောက်ကြန့်	17.106545	96.053785
43	8	1691	Supplies	ဆပ်ပလိုင်း	Yangon-Pyay Main Road	ရန်ကုန်-ပြည်လမ်းမကြီး	Htauk Kyant	ထောက်ကြန့်	17.106442	96.060094
43	9	1687	Lay Tat	လေတပ်	Yangon-Pyay Main Road	ရန်ကုန်-ပြည်လမ်းမကြီး	Htauk Kyant	ထောက်ကြန့်	17.108718	96.073033
43	10	1685	Maw Taw Yin	မော်တော်ယာဉ်	Yangon-Pyay Main Road	ရန်ကုန်-ပြည်လမ်းမကြီး	Htauk Kyant	ထောက်ကြန့်	17.108185	96.074188
43	11	1683	Say Tat	ဆေးတပ်	Yangon-Pyay Main Road	ရန်ကုန်-ပြည်လမ်းမကြီး	Htauk Kyant	ထောက်ကြန့်	17.106627	96.076248
43	12	1681	Bo Thin Tan	ဗိုလ်သင်တန်း	Yangon-Pyay Main Road	ရန်ကုန်-ပြည်လမ်းမကြီး	Htauk Kyant	ထောက်ကြန့်	17.105355	96.077921
43	13	1679	Set Thwe Yae	ဆက်သွယ်ရေး	Yangon-Pyay Main Road	ရန်ကုန်-ပြည်လမ်းမကြီး	Htauk Kyant	ထောက်ကြန့်	17.10433	96.079509
43	14	1677	Koe-Sae-Tit Gate	(၉၁) ဂိတ်	Yangon-Pyay Main Road	ရန်ကုန်-ပြည်လမ်းမကြီး	Htauk Kyant	ထောက်ကြန့်	17.100884	96.084144
43	15	1675	Sae-Thit Taw	ဆယ့်တစ်တော	Yangon-Pyay Main Road	ရန်ကုန်-ပြည်လမ်းမကြီး	Htauk Kyant	ထောက်ကြန့်	17.09789	96.088436
43	16	1673	Main Ma Line	မိန်းမလိုင်း	Yangon-Pyay Main Road	ရန်ကုန်-ပြည်လမ်းမကြီး	Htauk Kyant	ထောက်ကြန့်	17.096659	96.090753
43	17	1671	San Chaung Pauk	စမ်းချောင်းပေါက်	Yangon-Pyay Main Road	ရန်ကုန်-ပြည်လမ်းမကြီး	Htauk Kyant	ထောက်ကြန့်	17.095716	96.092513
43	18	1669	Ye Baw Zay	ရဲဘော်ဈေး	Yangon-Pyay Main Road	ရန်ကုန်-ပြည်လမ်းမကြီး	Htauk Kyant	ထောက်ကြန့်	17.094129775295237	96.09478605911137
43	19	1667	Kyat Phyu Kan	ကြက်ဖြူကန်	Yangon-Pyay Main Road	ရန်ကုန်-ပြည်လမ်းမကြီး	Htauk Kyant	ထောက်ကြန့်	17.086257894915484	96.10054895281795
43	20	1665	Say Khan	ဆေးခန်း	Yangon-Pyay Main Road	ရန်ကုန်-ပြည်လမ်းမကြီး	Htauk Kyant	ထောက်ကြန့်	17.08319431832644	96.10276043415071
43	21	1662	Mee Sat	မီးစက်	Yangon-Pyay Main Road	ရန်ကုန်-ပြည်လမ်းမကြီး	Htauk Kyant	ထောက်ကြန့်	17.076985087829687	96.1072783637792
43	22	1660	Ta-Sae-Ngar	တစ်ဆယ့်ငါး	Yangon-Pyay Main Road	ရန်ကုန်-ပြည်လမ်းမကြီး	Htauk Kyant	ထောက်ကြန့်	17.07418	96.108813
43	23	1659	Yoke Than	ရုပ်သံ	Yangon-Pyay Main Road	ရန်ကုန်-ပြည်လမ်းမကြီး	Htauk Kyant	ထောက်ကြန့်	17.069564	96.11185
43	24	1657	Hnit Gate	(၂) ဂိတ်	Yangon-Pyay Main Road	ရန်ကုန်-ပြည်လမ်းမကြီး	Htauk Kyant	ထောက်ကြန့်	17.065646	96.115859
43	25	1655	Yae Oh Sin	ရေအိုးစင်	Yangon-Pyay Main Road	ရန်ကုန်-ပြည်လမ်းမကြီး	Htauk Kyant	ထောက်ကြန့်	17.064375	96.116889
43	26	1653	Kyant Khaing Yae	ကြံ့ခိုင်ရေး	Yangon-Pyay Main Road	ရန်ကုန်-ပြည်လမ်းမကြီး	Htauk Kyant	ထောက်ကြန့်	17.060764	96.117232
43	27	1650	Sauk Lote Yae	ဆောက်လုပ်ရေး	Yangon-Pyay Main Road	ရန်ကုန်-ပြည်လမ်းမကြီး	Htauk Kyant	ထောက်ကြန့်	17.057523	96.118519
43	28	1649	Shit-Sae-Hnit	-၈၂	Yangon-Pyay Main Road	ရန်ကုန်-ပြည်လမ်းမကြီး	Htauk Kyant	ထောက်ကြန့်	17.055089805976248	96.1194466240704
43	29	1646	Nine Gate	(၉) ဂိတ်	Yangon-Pyay Main Road	ရန်ကုန်-ပြည်လမ်းမကြီး	Htauk Kyant	ထောက်ကြန့်	17.0519248486086	96.11956057604404
43	30	1644	Gate Haung	ဂိတ်ဟောင်း	Yangon-Pyay Main Road	ရန်ကုန်-ပြည်လမ်းမကြီး	Htauk Kyant	ထောက်ကြန့်	17.044148	96.126373
43	31	1487	Htauk Kyant Lan Sone	ထောက်ကြန့်လမ်းဆုံ	No. 2 Main Road	အမှတ်(၂)လမ်းမ	Htauk Kyant	ထောက်ကြန့်	17.04265	96.131818
43	32	2207	Lan Thit	လမ်းသစ်	No. 1 Main Road	အမှတ်(၁)လမ်းမ	Mingalardon	မင်္ဂလာဒုံ	17.037858185780333	96.1312585277483
43	33	1468	Kyaung Shae	ကျောင်းရှေ့	No. 1 Main Road	အမှတ်(၁)လမ်းမ	Mingalardon	မင်္ဂလာဒုံ	17.031038	96.13187
43	34	63	Nwe Khwe	နွယ်ခွေ	No. 1 Main Road	အမှတ်(၁)လမ်းမ	Mingalardon	မင်္ဂလာဒုံ	17.022154	96.13423
43	35	1461	C.P Light	စီပီလိုက်	No. 1 Main Road	အမှတ်(၁)လမ်းမ	Mingalardon	မင်္ဂလာဒုံ	17.020699835227017	96.13338748924434
43	36	60	Daewoo	ဒေဝူး	No. 1 Main Road	အမှတ်(၁)လမ်းမ	Mingalardon	မင်္ဂလာဒုံ	17.018543	96.131376
43	37	1474	Seagull	ဆေးဂဲလ်	No. 1 Main Road	အမှတ်(၁)လမ်းမ	Mingalardon	မင်္ဂလာဒုံ	17.016424468717815	96.12806397490205
43	38	1473	Mwae Myu Yae	မွေးမြူရေး	No. 1 Main Road	အမှတ်(၁)လမ်းမ	Mingalardon	မင်္ဂလာဒုံ	17.014152	96.127127
43	39	1484	Yae Sin	ရေစင်	No. 1 Main Road	အမှတ်(၁)လမ်းမ	Mingalardon	မင်္ဂလာဒုံ	17.010048	96.127278
43	40	1463	Chan Pauk	ခြံပေါက်	No. 1 Main Road	အမှတ်(၁)လမ်းမ	Mingalardon	မင်္ဂလာဒုံ	17.008304	96.12717
43	41	1467	Kone Htate	ကုန်းထိပ်	No. 1 Main Road	အမှတ်(၁)လမ်းမ	Mingalardon	မင်္ဂလာဒုံ	17.004467	96.128899
43	42	1438	Paya Lay	ဘုရားလေး	No. 1 Main Road	အမှတ်(၁)လမ်းမ	Mingalardon	မင်္ဂလာဒုံ	16.996834	96.130217
43	43	1447	Ye Baw Haung	ရဲဘော်ဟောင်း	No. 1 Main Road	အမှတ်(၁)လမ်းမ	Mingalardon	မင်္ဂလာဒုံ	16.991488	96.130938
43	44	1443	Shan Su	ရှမ်းစု	No. 1 Main Road	အမှတ်(၁)လမ်းမ	Mingalardon	မင်္ဂလာဒုံ	16.98794828918517	96.1271884222515
43	45	1426	Bo Chan	ဘိုခြံ	No. 1 Main Road	အမှတ်(၁)လမ်းမ	Mingalardon	မင်္ဂလာဒုံ	16.980232	96.126419
43	46	58	Tit Numpad	်(၁) နံပါတ်	No. 1 Main Road	အမှတ်(၁)လမ်းမ	Mingalardon	မင်္ဂလာဒုံ	16.974884204079043	96.12405782332644
43	47	1444	Sin Min	ဆင်မင်း	No. 1 Main Road	အမှတ်(၁)လမ်းမ	Mingalardon	မင်္ဂလာဒုံ	16.970032	96.126548
43	48	1414	Yae Kyi I	ရေကြည်အိုင်	No. 1 Main Road	အမှတ်(၁)လမ်းမ	Mingalardon	မင်္ဂလာဒုံ	16.966603022677855	96.1274304497056
43	49	1412	Waryar Let	ဝါယာလက်	No. 1 Main Road	အမှတ်(၁)လမ်းမ	Mingalardon	မင်္ဂလာဒုံ	16.961805600297204	96.1267461720854
43	50	1408	Kyaikkalot	ကျိုက္ကလို့	No. 1 Main Road	အမှတ်(၁)လမ်းမ	Mingalardon	မင်္ဂလာဒုံ	16.952053	96.12702
43	51	1405	Kyaikkalei/ Suppaline	ကျိုက္ကလဲ့/ ဆပ်ပလိုင်း	No. 1 Main Road	အမှတ်(၁)လမ်းမ	Mingalardon	မင်္ဂလာဒုံ	16.944294	96.127986
43	52	50	Naing Ngan Yae	နိုင်ငံရေး	No. 1 Main Road	အမှတ်(၁)လမ်းမ	Mingalardon	မင်္ဂလာဒုံ	16.938629	96.129552
43	53	1410	Mingalardon Zay	မင်္ဂလာဒုံဈေး	No. 1 Main Road	အမှတ်(၁)လမ်းမ	Mingalardon	မင်္ဂလာဒုံ	16.93479	96.130131
43	54	1398	Khayae Pin Lan Khawe	ခရေပင်လမ်းခွဲ	No. 1 Main Road	အမှတ်(၁)လမ်းမ	Mingalardon	မင်္ဂလာဒုံ	16.92723344884106	96.13146262709053
43	55	1062	Sar Taik	စာတိုက်	No. 1 Main Road	အမှတ်(၁)လမ်းမ	Mingalardon	မင်္ဂလာဒုံ	16.923187459952388	96.1333077773452
43	56	1400	Say Kyaung	ဆေးကျောင်း	No. 1 Main Road	အမှတ်(၁)လမ်းမ	Mingalardon	မင်္ဂလာဒုံ	16.92033380801368	96.13393118826936
43	57	1393	B.O.C	ဘီအိုစီ	No. 1 Main Road	အမှတ်(၁)လမ်းမ	Mingalardon	မင်္ဂလာဒုံ	16.915950755971124	96.13451996818186
43	58	1374	Pan Chan Kone	ပန်းခြံကုန်း	No. 1 Main Road	အမှတ်(၁)လမ်းမ	Mingalardon	မင်္ဂလာဒုံ	16.9111	96.131848
43	59	1372	Kalar Paya	ကုလားဘုရား	No. 1 Main Road	အမှတ်(၁)လမ်းမ	Mingalardon	မင်္ဂလာဒုံ	16.905906	96.128758
43	60	46	Htan Pin Kone	ထန်းပင်ကုန်း	No. 1 Main Road	အမှတ်(၁)လမ်းမ	Mingalardon	မင်္ဂလာဒုံ	16.900289331115886	96.1241097492166
43	61	1297	Saw Bwar Gyi Kone Lan Sone	စော်ဘွားကြီးကုန်းလမ်းဆုံ	Pyay Road	ပြည်လမ်း	Insein	အင်းစိန်	16.89204873725979	96.1198139190674
43	62	1294	A Way Pyay	အဝေးပြေး	Pyay Road	ပြည်လမ်း	Insein	အင်းစိန်	16.888537	96.122725
43	63	39	Sae-Mile Kone	(၁၀) မိုင်ကုန်း	Pyay Road	ပြည်လမ်း	Insein	အင်းစိန်	16.888947	96.130407
43	64	1301	Koe Mile Khawe	(၉) မိုင်ခွဲ	Pyay Road	ပြည်လမ်း	Mayangone	မရမ်းကုန်း	16.884384	96.135772
43	65	1299	Koe Mile	(၉) မိုင်	Pyay Road	ပြည်လမ်း	Mayangone	မရမ်းကုန်း	16.88177976207406	96.13486798480155
43	66	1258	A One	အေဝမ်း	Pyay Road	ပြည်လမ်း	Mayangone	မရမ်းကုန်း	16.875519	96.138371
43	67	1260	Mahar Si	မဟာစည်	Pyay Road	ပြည်လမ်း	Mayangone	မရမ်းကုန်း	16.872313663035687	96.13967798184603
43	68	1269	Shit Mile	(၈) မိုင်	Pyay Road	ပြည်လမ်း	Mayangone	မရမ်းကုန်း	16.867917851142668	96.14122129976751
43	69	1262	Myaing Hay Wun	မြိုင်ဟေဝန်ပန်းခြံ	Kabar Aye Pagoda Road	ကမ္ဘာအေးဘုရားလမ်း	Mayangone	မရမ်းကုန်း	16.866588278879597	96.14353745011616
43	70	1820	Nawaday	နဝဒေး	Kabar Aye Pagoda Road	ကမ္ဘာအေးဘုရားလမ်း	Mayangone	မရမ်းကုန်း	16.866648920187888	96.15249755792323
43	71	1818	Sar Taik	စာတိုက်	Kabar Aye Pagoda Road	ကမ္ဘာအေးဘုရားလမ်း	Mayangone	မရမ်းကုန်း	16.861586	96.155325
43	72	1239	Kabar Aye Paya/ Paya Lan	ကမ္ဘာအေးဘုရားလမ်း	Kabar Aye Pagoda Road	ကမ္ဘာအေးဘုရားလမ်း	Mayangone	မရမ်းကုန်း	16.85825079611413	96.15602290257813
43	73	1236	Chaw Twin Kone	ချော်တွင်းကုန်း	Kabar Aye Pagoda Road	ကမ္ဘာအေးဘုရားလမ်း	Mayangone	မရမ်းကုန်း	16.848967	96.157233
43	74	36	Tayar-Chauk	-၁၀၆	Kabar Aye Pagoda Road	ကမ္ဘာအေးဘုရားလမ်း	Mayangone	မရမ်းကုန်း	16.842775	96.156468
43	75	1242	Yeik Thar	ရိပ်သာ	Kabar Aye Pagoda Road	ကမ္ဘာအေးဘုရားလမ်း	Mayangone	မရမ်းကုန်း	16.83789230363614	96.15568609020558
43	76	1246	Lan Ni	လမ်းနီ	Kabar Aye Pagoda Road	ကမ္ဘာအေးဘုရားလမ်း	Mayangone	မရမ်းကုန်း	16.833849962299986	96.15510751493277
43	77	1052	Yankin Sar Taik	ရန်ကင်းစာတိုက်	Yankin Road	ရန်ကင်းလမ်း	Yankin	ရန်ကင်း	16.834796	96.1626
43	78	6	Sae-hnat-lone-Tan	(၁၂) လုံးတန်း	Yankin Road	ရန်ကင်းလမ်း	Yankin	ရန်ကင်း	16.83090737715405	96.16340025560933
43	79	340	Kyar Hmat Taing	ကြားမှတ်တိုင်	Yankin Road	ရန်ကင်းလမ်း	Yankin	ရန်ကင်း	16.8290172507859	96.16373777389528
43	80	355	Zay Kwae	ဈေးကွေ့	U Chit Maung Road	ဦးချစ်မောင်လမ်း	Bahan	ဗဟန်း	16.822303054572906	96.16266463162903
43	81	349	Min Lan	မင်းလမ်း	U Chit Maung Road	ဦးချစ်မောင်လမ်း	Bahan	ဗဟန်း	16.819669	96.164948
43	82	346	Lan Sone	လမ်းဆုံ	U Chit Maung Road	ဦးချစ်မောင်လမ်း	Bahan	ဗဟန်း	16.81753155492063	96.16652819328012
43	83	351	Mya Lan	မြလမ်း	West Horse Race Course Road	အနောက်မြင်းပြိုင်လမ်း	Bahan	ဗဟန်း	16.816393	96.16748
43	84	236	Awine Htate/ Tamwe	အဝိုင်းထိပ်/ တာမွေ	West Horse Race Course Road	အနောက်မြင်းပြိုင်လမ်း	Tamwe	တာမွေ	16.811851525336696	96.17080198246187
43	85	238	Byaing Yae Oh Sin	ဗျိုင်းရေအိုးစင်	Banyardala Road	ဗညားဒလလမ်း	Tamwe	တာမွေ	16.80649379907491	96.17212619399655
43	86	388	Thida	သီတာ	Banyardala Road	ဗညားဒလလမ်း	Mingalar Taung Nyunt	မင်္ဂလာတောင်ညွန့်	16.799380471876457	96.17574831492675
43	87	374	Aung Mingalar	အောင်မင်္ဂလာ	Banyardala Road	ဗညားဒလလမ်း	Mingalar Taung Nyunt	မင်္ဂလာတောင်ညွန့်	16.79630927025884	96.17657147347929
43	88	454	Yuzana Plaza/ Lan Kyal	ယုဇနပလာဇာ/လမ်းကျယ်	Banyardala Road	ဗညားဒလလမ်း	Mingalar Taung Nyunt	မင်္ဂလာတောင်ညွန့်	16.794481844001602	96.17555068340155
43	89	186	Mingalar Zay/ Layy Lan	မင်္ဂလာဈေး/ (၄)လမ်း	Banyardala Road	ဗညားဒလလမ်း	Mingalar Taung Nyunt	မင်္ဂလာတောင်ညွန့်	16.791640666169272	96.17243854561823
43	90	182	Masalar Set	မဆလာစက်	Banyardala Road	ဗညားဒလလမ်း	Mingalar Taung Nyunt	မင်္ဂလာတောင်ညွန့်	16.790188203753207	96.16940329084174
43	91	188	Thein Phyu Sar Taik	သိမ်ဖြူစာတိုက်	Thein Phyu Road	သိမ်ဖြူလမ်း	Mingalar Taung Nyunt	မင်္ဂလာတောင်ညွန့်	16.786857	96.167645
43	92	177	Thein Phyu Zay	သိမ်ဖြူဈေး	Thein Phyu Road	သိမ်ဖြူလမ်း	Mingalar Taung Nyunt	မင်္ဂလာတောင်ညွန့်	16.784569	96.167519
43	93	160	Sein Paul	စိန်ပေါ(လ်)	Thein Phyu Road	သိမ်ဖြူလမ်း	Botahtaung	ဗိုလ်တထောင်	16.777445093691075	96.1672005057335
43	94	154	Kyel Ngar Pwint	ကြယ်ငါးပွင့်	Thein Phyu Road	သိမ်ဖြူလမ်း	Botahtaung	ဗိုလ်တထောင်	16.77238880436766	96.16698425263168
43	95	2218	Baho Yone	ဗဟိုရုံး	Strand Road	ကမ်းနားလမ်း	Seikkan	ဆိပ်ကမ်း	16.76898782140798	96.1670203995891
43	96	168	Botahtaung Paya	ဗိုလ်တထောင်ဘုရား	Strand Road	ကမ်းနားလမ်း	Seikkan	ဆိပ်ကမ်း	16.76925240088782	96.1718310881406
43	97	155	Lan Ngar Sae	လမ်း(၅၀)	Merchant Road	ကုန်သည်လမ်း	Botahtaung	ဗိုလ်တထောင်	16.771425522061257	96.1712548742071
43	98	2386	Kyel Ngar Pwint	ကြယ်ငါးပွင့်	Thein Phyu Road	သိမ်ဖြူလမ်း	Botahtaung	ဗိုလ်တထောင်	16.77228030193074	96.16714954376222
43	99	2216	Sein Paul	စိန်ပေါ(လ်)	Thein Phyu Road	သိမ်ဖြူလမ်း	Botahtaung	ဗိုလ်တထောင်	16.777861	96.167352
43	100	178	Thein Phyu Zay	သိမ်ဖြူဈေး	Thein Phyu Road	သိမ်ဖြူလမ်း	Mingalar Taung Nyunt	မင်္ဂလာတောင်ညွန့်	16.784877	96.167626
43	101	187	Thein Phyu Sar Taik	သိမ်ဖြူစာတိုက်	Thein Phyu Road	သိမ်ဖြူလမ်း	Mingalar Taung Nyunt	မင်္ဂလာတောင်ညွန့်	16.78681	96.167691
43	102	181	Masalar Set	မဆလာစက်	Banyardala Road	ဗညားဒလလမ်း	Mingalar Taung Nyunt	မင်္ဂလာတောင်ညွန့်	16.79003716114739	96.16945385467261
43	103	185	Mingalar Zay/ Layy Lan	မင်္ဂလာဈေး/ (၄)လမ်း	Banyardala Road	ဗညားဒလလမ်း	Mingalar Taung Nyunt	မင်္ဂလာတောင်ညွန့်	16.791507840376276	96.17247557267548
43	104	453	Yuzana Plaza/ Lan Kyal	ယုဇနပလာဇာ/လမ်းကျယ်	Banyardala Road	ဗညားဒလလမ်း	Mingalar Taung Nyunt	မင်္ဂလာတောင်ညွန့်	16.794241794144632	96.1756777111441
43	105	375	Aung Mingalar	အောင်မင်္ဂလာ	Banyardala Road	ဗညားဒလလမ်း	Mingalar Taung Nyunt	မင်္ဂလာတောင်ညွန့်	16.796450819129205	96.17687573656441
43	106	387	Thida	သီတာ	Banyardala Road	ဗညားဒလလမ်း	Mingalar Taung Nyunt	မင်္ဂလာတောင်ညွန့်	16.79938512590402	96.17606068030003
43	107	239	Byaing Yae Oh Sin	ဗျိုင်းရေအိုးစင်	Banyardala Road	ဗညားဒလလမ်း	Tamwe	တာမွေ	16.806694055071702	96.17217367747799
43	108	237	Awine Htate/ Tamwe	အဝိုင်းထိပ်/ တာမွေ	West Horse Race Course Road	အနောက်မြင်းပြိုင်လမ်း	Tamwe	တာမွေ	16.811882399727807	96.1710895097349
43	109	350	Mya Lan	မြလမ်း	West Horse Race Course Road	အနောက်မြင်းပြိုင်လမ်း	Bahan	ဗဟန်း	16.815803476666527	96.16824572185578
43	110	347	Lan Sone	လမ်းဆုံ	U Chit Maung Road	ဦးချစ်မောင်လမ်း	Bahan	ဗဟန်း	16.817595	96.16674
43	111	348	Min Lan	မင်းလမ်း	U Chit Maung Road	ဦးချစ်မောင်လမ်း	Bahan	ဗဟန်း	16.819495	96.165249
43	112	354	Zay Kwae	ဈေးကွေ့	U Chit Maung Road	ဦးချစ်မောင်လမ်း	Bahan	ဗဟန်း	16.82250281937509	96.16280280730281
43	113	341	Kyar Hmat Taing	ကြားမှတ်တိုင်	Yankin Road	ရန်ကင်းလမ်း	Yankin	ရန်ကင်း	16.829251	96.163823
43	114	7	Sae-hnat-lone-Tan	(၁၂) လုံးတန်း	Yankin Road	ရန်ကင်းလမ်း	Yankin	ရန်ကင်း	16.830835378709462	96.1635034158826
43	115	1051	Yankin Sar Taik	ရန်ကင်းစာတိုက်	Yankin Road	ရန်ကင်းလမ်း	Yankin	ရန်ကင်း	16.834688	96.162728
43	116	1245	Lan Ni	လမ်းနီ	Kabar Aye Pagoda Road	ကမ္ဘာအေးဘုရားလမ်း	Mayangone	မရမ်းကုန်း	16.833775752063897	96.1553610675037
43	117	1241	Yeik Thar	ရိပ်သာ	Kabar Aye Pagoda Road	ကမ္ဘာအေးဘုရားလမ်း	Mayangone	မရမ်းကုန်း	16.838336980039827	96.15606039718843
43	118	37	Tayar-Chauk	-၁၀၆	Kabar Aye Pagoda Road	ကမ္ဘာအေးဘုရားလမ်း	Mayangone	မရမ်းကုန်း	16.84295	96.156608
43	119	1817	Chaw Twin Kone	ချော်တွင်းကုန်း	Kabar Aye Pagoda Road	ကမ္ဘာအေးဘုရားလမ်း	Mayangone	မရမ်းကုန်း	16.850729427748476	96.15774345584215
43	120	1238	Kabar Aye Paya/ Paya Lan	ကမ္ဘာအေးဘုရားလမ်း	Kabar Aye Pagoda Road	ကမ္ဘာအေးဘုရားလမ်း	Mayangone	မရမ်းကုန်း	16.856873	96.156653
43	121	1240	Sar Taik	စာတိုက်	Kabar Aye Pagoda Road	ကမ္ဘာအေးဘုရားလမ်း	Mayangone	မရမ်းကုန်း	16.862603	96.155366
43	122	1819	Nawaday	နဝဒေး	Kabar Aye Pagoda Road	ကမ္ဘာအေးဘုရားလမ်း	Mayangone	မရမ်းကုန်း	16.866879	96.152638
43	123	1265	Myaing Hay Wun	မြိုင်ဟေဝန်ပန်းခြံ	Kabar Aye Pagoda Road	ကမ္ဘာအေးဘုရားလမ်း	Mayangone	မရမ်းကုန်း	16.866771	96.143438
43	124	1268	Shit Mile	(၈) မိုင်	Pyay Road	ပြည်လမ်း	Mayangone	မရမ်းကုန်း	16.867469380738005	96.14181050565097
43	125	1261	Mahar Si	မဟာစည်	Pyay Road	ပြည်လမ်း	Mayangone	မရမ်းကုန်း	16.87252746521005	96.13994339480998
43	126	1259	A One	အေဝမ်း	Pyay Road	ပြည်လမ်း	Mayangone	မရမ်းကုန်း	16.877625558710985	96.13767097704114
43	127	1298	Koe Mile	(၉) မိုင်	Pyay Road	ပြည်လမ်း	Mayangone	မရမ်းကုန်း	16.880519	96.13626
43	128	1300	Koe Mile Khawe	(၉) မိုင်ခွဲ	Pyay Road	ပြည်လမ်း	Mayangone	မရမ်းကုန်း	16.883855	96.135783
43	129	40	Sae-Mile Kone	(၁၀) မိုင်ကုန်း	Pyay Road	ပြည်လမ်း	Insein	အင်းစိန်	16.889317	96.130621
43	130	1295	A Way Pyay	အဝေးပြေး	Pyay Road	ပြည်လမ်း	Insein	အင်းစိန်	16.888701	96.123154
43	131	1296	Saw Bwar Gyi Kone Lan Sone	စော်ဘွားကြီးကုန်းလမ်းဆုံ	Pyay Road	ပြည်လမ်း	Insein	အင်းစိန်	16.891840811985514	96.12003356684001
43	132	45	Htan Pin Kone	ထန်းပင်ကုန်း	No. 1 Main Road	အမှတ်(၁)လမ်းမ	Mingalardon	မင်္ဂလာဒုံ	16.90029241877987	96.1243827478029
43	133	1371	Kalar Paya	ကုလားဘုရား	No. 1 Main Road	အမှတ်(၁)လမ်းမ	Mingalardon	မင်္ဂလာဒုံ	16.905703933352523	96.12899553962053
43	134	1373	Pan Chan Kone	ပန်းခြံကုန်း	No. 1 Main Road	အမှတ်(၁)လမ်းမ	Mingalardon	မင်္ဂလာဒုံ	16.91071	96.131977
43	135	1394	B.O.C	ဘီအိုစီ	No. 1 Main Road	အမှတ်(၁)လမ်းမ	Mingalardon	မင်္ဂလာဒုံ	16.915565	96.134779
43	136	1399	Say Kyaung	ဆေးကျောင်း	No. 1 Main Road	အမှတ်(၁)လမ်းမ	Mingalardon	မင်္ဂလာဒုံ	16.92003	96.134199
43	137	1061	Sar Taik	စာတိုက်	No. 1 Main Road	အမှတ်(၁)လမ်းမ	Mingalardon	မင်္ဂလာဒုံ	16.923592	96.133438
43	138	1397	Khayae Pin Lan Khawe	ခရေပင်လမ်းခွဲ	No. 1 Main Road	အမှတ်(၁)လမ်းမ	Mingalardon	မင်္ဂလာဒုံ	16.927303171944107	96.13170620519669
43	139	1409	Mingalardon Zay	မင်္ဂလာဒုံဈေး	No. 1 Main Road	အမှတ်(၁)လမ်းမ	Mingalardon	မင်္ဂလာဒုံ	16.934113258597346	96.13039033021779
43	140	49	Naing Ngan Yae	နိုင်ငံရေး	No. 1 Main Road	အမှတ်(၁)လမ်းမ	Mingalardon	မင်္ဂလာဒုံ	16.938201990686245	96.12998129334301
43	141	1406	Kyaikkalei/ Suppaline	ကျိုက္ကလဲ့/ ဆပ်ပလိုင်း	No. 1 Main Road	အမှတ်(၁)လမ်းမ	Mingalardon	မင်္ဂလာဒုံ	16.94475703096777	96.1281180381775
43	142	1407	Kyaikkalot	ကျိုက္ကလို့	No. 1 Main Road	အမှတ်(၁)လမ်းမ	Mingalardon	မင်္ဂလာဒုံ	16.95112899826712	96.12703786231577
43	143	1411	Waryar Let	ဝါယာလက်	No. 1 Main Road	အမှတ်(၁)လမ်းမ	Mingalardon	မင်္ဂလာဒုံ	16.960714	96.127084
43	144	1413	Yae Kyi I	ရေကြည်အိုင်	No. 1 Main Road	အမှတ်(၁)လမ်းမ	Mingalardon	မင်္ဂလာဒုံ	16.965784	96.127299
43	145	1445	Sin Min	ဆင်မင်း	No. 1 Main Road	အမှတ်(၁)လမ်းမ	Mingalardon	မင်္ဂလာဒုံ	16.970278	96.126763
43	146	57	Tit Numpad	်(၁) နံပါတ်	No. 1 Main Road	အမှတ်(၁)လမ်းမ	Mingalardon	မင်္ဂလာဒုံ	16.974734331301605	96.12423683982342
43	147	1427	Bo Chan	ဘိုခြံ	No. 1 Main Road	အမှတ်(၁)လမ်းမ	Mingalardon	မင်္ဂလာဒုံ	16.980499	96.12687
43	148	1442	Shan Su	ရှမ်းစု	No. 1 Main Road	အမှတ်(၁)လမ်းမ	Mingalardon	မင်္ဂလာဒုံ	16.987558	96.127256
43	149	1446	Ye Baw Haung	ရဲဘော်ဟောင်း	No. 1 Main Road	အမှတ်(၁)လမ်းမ	Mingalardon	မင်္ဂလာဒုံ	16.991406	96.13111
43	150	1439	Paya Lay	ဘုရားလေး	No. 1 Main Road	အမှတ်(၁)လမ်းမ	Mingalardon	မင်္ဂလာဒုံ	16.997059	96.130496
43	151	1466	Kone Htate	ကုန်းထိပ်	No. 1 Main Road	အမှတ်(၁)လမ်းမ	Mingalardon	မင်္ဂလာဒုံ	17.004641	96.129039
43	152	1462	Chan Pauk	ခြံပေါက်	No. 1 Main Road	အမှတ်(၁)လမ်းမ	Mingalardon	မင်္ဂလာဒုံ	17.00816	96.127514
43	153	1485	Yae Sin	ရေစင်	No. 1 Main Road	အမှတ်(၁)လမ်းမ	Mingalardon	မင်္ဂလာဒုံ	17.010217387377494	96.12759752199057
43	154	1472	Mwae Myu Yae	မွေးမြူရေး	No. 1 Main Road	အမှတ်(၁)လမ်းမ	Mingalardon	မင်္ဂလာဒုံ	17.013906	96.127406
43	155	1475	Seagull	ဆေးဂဲလ်	No. 1 Main Road	အမှတ်(၁)လမ်းမ	Mingalardon	မင်္ဂလာဒုံ	17.01645	96.128565
43	156	59	Daewoo	ဒေဝူး	No. 1 Main Road	အမှတ်(၁)လမ်းမ	Mingalardon	မင်္ဂလာဒုံ	17.018276	96.131548
43	157	1460	C.P Light	စီပီလိုက်	No. 1 Main Road	အမှတ်(၁)လမ်းမ	Mingalardon	မင်္ဂလာဒုံ	17.020534009604063	96.13368295133114
43	158	64	Nwe Khwe	နွယ်ခွေ	No. 1 Main Road	အမှတ်(၁)လမ်းမ	Mingalardon	မင်္ဂလာဒုံ	17.022236	96.134595
43	159	1469	Kyaung Shae	ကျောင်းရှေ့	No. 1 Main Road	အမှတ်(၁)လမ်းမ	Mingalardon	မင်္ဂလာဒုံ	17.03120950570694	96.1321399686858
43	160	2206	Lan Thit	လမ်းသစ်	No. 1 Main Road	အမှတ်(၁)လမ်းမ	Mingalardon	မင်္ဂလာဒုံ	17.037527726843194	96.13150835037233
43	161	1970	Htauk Kyant Lan Sone	ထောက်ကြန့်လမ်းဆုံ	No. 1 Main Road	အမှတ်(၁)လမ်းမ	Mingalardon	မင်္ဂလာဒုံ	17.042337215160796	96.133386567235
43	162	1486	Htauk Kyant Lan Sone	ထောက်ကြန့်လမ်းဆုံ	No. 2 Main Road	အမှတ်(၂)လမ်းမ	Htauk Kyant	ထောက်ကြန့်	17.042732	96.131957
43	163	1645	Gate Haung	ဂိတ်ဟောင်း	Yangon-Pyay Main Road	ရန်ကုန်-ပြည်လမ်းမကြီး	Htauk Kyant	ထောက်ကြန့်	17.044476	96.126072
43	164	1647	Nine Gate	(၉) ဂိတ်	Yangon-Pyay Main Road	ရန်ကုန်-ပြည်လမ်းမကြီး	Htauk Kyant	ထောက်ကြန့်	17.051861	96.119764
43	165	1648	Shit-Sae-Hnit	-၈၂	Yangon-Pyay Main Road	ရန်ကုန်-ပြည်လမ်းမကြီး	Htauk Kyant	ထောက်ကြန့်	17.054992925228067	96.11984258517623
43	166	1651	Sauk Lote Yae	ဆောက်လုပ်ရေး	Yangon-Pyay Main Road	ရန်ကုန်-ပြည်လမ်းမကြီး	Htauk Kyant	ထောက်ကြန့်	17.057564	96.11882
43	167	1652	Kyant Khaing Yae	ကြံ့ခိုင်ရေး	Yangon-Pyay Main Road	ရန်ကုန်-ပြည်လမ်းမကြီး	Htauk Kyant	ထောက်ကြန့်	17.060272	96.117575
43	168	1654	Yae Oh Sin	ရေအိုးစင်	Yangon-Pyay Main Road	ရန်ကုန်-ပြည်လမ်းမကြီး	Htauk Kyant	ထောက်ကြန့်	17.064128	96.117232
43	169	1656	Hnit Gate	(၂) ဂိတ်	Yangon-Pyay Main Road	ရန်ကုန်-ပြည်လမ်းမကြီး	Htauk Kyant	ထောက်ကြန့်	17.065605	96.116331
43	170	1658	Yoke Than	ရုပ်သံ	Yangon-Pyay Main Road	ရန်ကုန်-ပြည်လမ်းမကြီး	Htauk Kyant	ထောက်ကြန့်	17.069667	96.112107
43	171	1661	Ta-Sae-Ngar	တစ်ဆယ့်ငါး	Yangon-Pyay Main Road	ရန်ကုန်-ပြည်လမ်းမကြီး	Htauk Kyant	ထောက်ကြန့်	17.07404485128371	96.10925464890899
43	172	1663	Mee Sat	မီးစက်	Yangon-Pyay Main Road	ရန်ကုန်-ပြည်လမ်းမကြီး	Htauk Kyant	ထောက်ကြန့်	17.076754091524922	96.10764662269504
43	173	1664	Say Khan	ဆေးခန်း	Yangon-Pyay Main Road	ရန်ကုန်-ပြည်လမ်းမကြီး	Htauk Kyant	ထောက်ကြန့်	17.083295711260682	96.10307911410929
43	174	1666	Kyat Phyu Kan	ကြက်ဖြူကန်	Yangon-Pyay Main Road	ရန်ကုန်-ပြည်လမ်းမကြီး	Htauk Kyant	ထောက်ကြန့်	17.086368940584222	96.10084087355064
43	175	1668	Ye Baw Zay	ရဲဘော်ဈေး	Yangon-Pyay Main Road	ရန်ကုန်-ပြည်လမ်းမကြီး	Htauk Kyant	ထောက်ကြန့်	17.094034	96.095166
43	176	1670	San Chaung Pauk	စမ်းချောင်းပေါက်	Yangon-Pyay Main Road	ရန်ကုန်-ပြည်လမ်းမကြီး	Htauk Kyant	ထောက်ကြန့်	17.095839	96.092856
43	177	1672	Main Ma Line	မိန်းမလိုင်း	Yangon-Pyay Main Road	ရန်ကုန်-ပြည်လမ်းမကြီး	Htauk Kyant	ထောက်ကြန့်	17.096823	96.091011
43	178	1674	Sae-Thit Taw	ဆယ့်တစ်တော	Yangon-Pyay Main Road	ရန်ကုန်-ပြည်လမ်းမကြီး	Htauk Kyant	ထောက်ကြန့်	17.097972	96.088865
43	179	1676	Koe-Sae-Tit Gate	(၉၁) ဂိတ်	Yangon-Pyay Main Road	ရန်ကုန်-ပြည်လမ်းမကြီး	Htauk Kyant	ထောက်ကြန့်	17.100925	96.084445
43	180	1678	Set Thwe Yae	ဆက်သွယ်ရေး	Yangon-Pyay Main Road	ရန်ကုန်-ပြည်လမ်းမကြီး	Htauk Kyant	ထောက်ကြန့်	17.104617	96.079381
43	181	1680	Bo Thin Tan	ဗိုလ်သင်တန်း	Yangon-Pyay Main Road	ရန်ကုန်-ပြည်လမ်းမကြီး	Htauk Kyant	ထောက်ကြန့်	17.10556	96.078222
43	182	1682	Say Tat	ဆေးတပ်	Yangon-Pyay Main Road	ရန်ကုန်-ပြည်လမ်းမကြီး	Htauk Kyant	ထောက်ကြန့်	17.106709	96.076505
43	183	1684	Maw Taw Yin	မော်တော်ယာဉ်	Yangon-Pyay Main Road	ရန်ကုန်-ပြည်လမ်းမကြီး	Htauk Kyant	ထောက်ကြန့်	17.108103	96.074531
43	184	1686	Lay Tat	လေတပ်	Yangon-Pyay Main Road	ရန်ကုန်-ပြည်လမ်းမကြီး	Htauk Kyant	ထောက်ကြန့်	17.109047	96.073097
43	185	1690	Supplies	ဆပ်ပလိုင်း	Yangon-Pyay Main Road	ရန်ကုန်-ပြည်လမ်းမကြီး	Htauk Kyant	ထောက်ကြန့်	17.106729	96.060115
43	186	1692	Sae-Chauk Gate	(၁၆) ဂိတ်	Yangon-Pyay Main Road	ရန်ကုန်-ပြည်လမ်းမကြီး	Htauk Kyant	ထောက်ကြန့်	17.106811	96.053828
43	187	1694	Yone Pauk	ရုံးပေါက်	Yangon-Pyay Main Road	ရန်ကုန်-ပြည်လမ်းမကြီး	Htauk Kyant	ထောက်ကြန့်	17.106256404915268	96.05255333706738
43	188	1696	A Hmat Lay	အမှတ် (၄)	Yangon-Pyay Main Road	ရန်ကုန်-ပြည်လမ်းမကြီး	Hmaw Bi	မှော်ဘီ	17.10382141656633	96.04968136176467
43	189	1698	Yoke Shin Yon	ရုပ်ရှင်ရုံ	Yangon-Pyay Main Road	ရန်ကုန်-ပြည်လမ်းမကြီး	Hmaw Bi	မှော်ဘီ	17.101048	96.046041
43	190	1700	Hmaw Bi Zay	မှော်ဘီဈေး	Yangon-Pyay Main Road	ရန်ကုန်-ပြည်လမ်းမကြီး	Hmaw Bi	မှော်ဘီ	17.100932775711676	96.04267161805183
43	191	1702	Hmaw Bi Kar Lay Gate	မှော်ဘီကားလေးဂိတ်	Yangon-Pyay Main Road	ရန်ကုန်-ပြည်လမ်းမကြီး	Hmaw Bi	မှော်ဘီ	17.10060881750042	96.04002813342959
43	192	1704	Thayet Taw Pauk	သရက်တောပေါက်	Yangon-Pyay Main Road	ရန်ကုန်-ပြည်လမ်းမကြီး	Hmaw Bi	မှော်ဘီ	17.09916200423804	96.03885521180929
