svc_name	sequence	stop_id	name_en	name_mm	road_en	road_mm	township_en	township_mm	lat	lng
85	1	638	Alo Taw Pyae	အလိုတော်ပြည့်	Ayar Wun Main Road	ဧရာဝဏ်လမ်းမကြီး	Thaketa	သာကေတ	16.81997856116419	96.23819891363382
85	2	643	Thit Sait	သစ်ဆိတ်	Ayar Wun Main Road	ဧရာဝဏ်လမ်းမကြီး	Thaketa	သာကေတ	16.815593849533002	96.2365076970309
85	3	559	Than Lan	သံလမ်း	Ayar Wun Main Road	ဧရာဝဏ်လမ်းမကြီး	Thaketa	သာကေတ	16.811973972979157	96.23229436576368
85	4	2143	Paya Lay	ဘုရားလေး	Ayar Wun Main Road	ဧရာဝဏ်လမ်းမကြီး	South Dagon	တောင်ဒဂုံ	16.812716	96.22903
85	5	538	Thone-Sae-Lay Kar Gyi Gate	(၃၄) ကားကြီးဂိတ်	Ayar Wun Main Road	ဧရာဝဏ်လမ်းမကြီး	Thaketa	သာကေတ	16.810434247803283	96.22448767069727
85	6	535	Ta Sal Zay	(၁၀) ဈေး	Ayar Wun Main Road	ဧရာဝဏ်လမ်းမကြီး	Thaketa	သာကေတ	16.808245204423173	96.22030396945776
85	7	2159	Thaketa Awine	သာကေတအဝိုင်း	Ayar Wun Main Road	ဧရာဝဏ်လမ်းမကြီး	Thaketa	သာကေတ	16.806458694576083	96.21675431728363
85	8	530	Shit Gate	(၈) ဂိတ်	Ayar Wun Main Road	ဧရာဝဏ်လမ်းမကြီး	Thaketa	သာကေတ	16.804948553065124	96.21374232228845
85	9	526	Myayni	မြေနီ	Ayar Wun Main Road	ဧရာဝဏ်လမ်းမကြီး	Thaketa	သာကေတ	16.80369721392604	96.21009579626845
85	10	524	Kyaung Kwae/ Htuu Par Yone	ကျောင်းကွေ့/ထူပါရုံ	Ayar Wun Main Road	ဧရာဝဏ်လမ်းမကြီး	Thaketa	သာကေတ	16.803809991254493	96.20589055353776
85	11	398	Anawmar	အနော်မာ	Ayar Wun Main Road	ဧရာဝဏ်လမ်းမကြီး	Thaketa	သာကေတ	16.80397618824476	96.20196646079421
85	12	404	Kyauk Taing	ကျောက်တိုင်	Ayar Wun Main Road	ဧရာဝဏ်လမ်းမကြီး	Thaketa	သာကေတ	16.804283205959198	96.19628983782606
85	13	408	Myayni Lan	မြေနီလမ်း	Min Nandar Road	မင်းနန္ဒာလမ်း	Thaketa	သာကေတ	16.802477	96.196551
85	14	410	Tat Phwet	တပ်ဖွဲ့	Min Nandar Road	မင်းနန္ဒာလမ်း	Thaketa	သာကေတ	16.799616	96.196739
85	15	395	Tit Zay Kwae	(၁) ဈေးကွေ့	Min Nandar Road	မင်းနန္ဒာလမ်း	Thaketa	သာကေတ	16.796412	96.195339
85	16	467	Thadar Yon	သဒ္ဓါရုံ	Min Nandar Road	မင်းနန္ဒာလမ်း	Thaketa	သာကေတ	16.793695	96.193818
85	17	474	Wet Su	ဝက်စု	Min Nandar Road	မင်းနန္ဒာလမ်း	Thaketa	သာကေတ	16.78947198910385	96.19170282036067
85	18	476	Yan Aung	ရန်အောင်	Min Nandar Road	မင်းနန္ဒာလမ်း	Thaketa	သာကေတ	16.786238	96.189934
85	19	470	Thinbaw Kyin	သင်္ဘောကျင်း	Min Nandar Road	မင်းနန္ဒာလမ်း	Thaketa	သာကေတ	16.781991325670376	96.18769811466336
85	20	452	Warso	ဝါဆို	Yamonar Road	ယမုံနာလမ်း	Daw Bon	ဒေါပုံ	16.78264304840026	96.18374007521199
85	21	443	Mingalar Zay	မင်္ဂလာဈေး	Mill Road	စက်ရုံလမ်း	Mingalar Taung Nyunt	မင်္ဂလာတောင်ညွန့်	16.791772569051048	96.17468064185232
85	22	453	Yuzana Plaza/ Lan Kyal	ယုဇနပလာဇာ/လမ်းကျယ်	Banyardala Road	ဗညားဒလလမ်း	Mingalar Taung Nyunt	မင်္ဂလာတောင်ညွန့်	16.794241794144632	96.1756777111441
85	23	375	Aung Mingalar	အောင်မင်္ဂလာ	Banyardala Road	ဗညားဒလလမ်း	Mingalar Taung Nyunt	မင်္ဂလာတောင်ညွန့်	16.796450819129205	96.17687573656441
85	24	387	Thida	သီတာ	Banyardala Road	ဗညားဒလလမ်း	Mingalar Taung Nyunt	မင်္ဂလာတောင်ညွန့်	16.79938512590402	96.17606068030003
85	25	378	Kyauk Myaung Zay	ကျောက်မြောင်းဈေး	Kyaikkasan Road	ကျိုက္ကဆံလမ်း	Tamwe	တာမွေ	16.804056	96.175654
85	26	384	Tamwe Zay/ Tamwe Bali	တာမွေဈေး/ တာမွေဗလီ	Kyaikkasan Road	ကျိုက္ကဆံလမ်း	Tamwe	တာမွေ	16.807535	96.176161
85	27	383	Tamwe Plaza	တာမွေပလာဇာ	Thamain Bayan Road	သမိန်ဗရမ်းလမ်း	Tamwe	တာမွေ	16.810901	96.175102
85	28	333	Awine Htate/ Tamwe	အဝိုင်းထိပ်/ တာမွေ	East Shwe Gon Daing Road	အရှေ့ရွှေဂုံတိုင်လမ်း	Bahan	ဗဟန်း	16.81164669784772	96.17015008338059
85	29	232	Chauk Htat Kyee	(၆) ထပ်ကြီး	East Shwe Gon Daing Road	အရှေ့ရွှေဂုံတိုင်လမ်း	Bahan	ဗဟန်း	16.811207	96.165464
85	30	235	Ngar Htat Kyee	(၅) ထပ်ကြီး	East Shwe Gon Daing Road	အရှေ့ရွှေဂုံတိုင်လမ်း	Bahan	ဗဟန်း	16.810709	96.163007
85	31	227	Bandar Pin	ဗန်ဒါပင်	East Shwe Gon Daing Road	အရှေ့ရွှေဂုံတိုင်လမ်း	Bahan	ဗဟန်း	16.810236	96.160738
85	32	2177	Shwe Gon Daing	ရွှေဂုံတိုင်	East Shwe Gon Daing Road	အရှေ့ရွှေဂုံတိုင်လမ်း	Bahan	ဗဟန်း	16.80679	96.156254
85	33	229	Shwe Gon Daing	ရွှေဂုံတိုင်	West Shwe Gon Daing Road	အနောက်ရွှေဂုံတိုင်လမ်း	Bahan	ဗဟန်း	16.805571665361676	96.15438880864532
85	34	225	Oak Lan	အုတ်လမ်း	West Shwe Gon Daing Road	အနောက်ရွှေဂုံတိုင်လမ်း	Bahan	ဗဟန်း	16.804480996918812	96.15122687187979
85	35	223	Link Lan	လင့်လမ်း	Shwe Gon Road	ရွှေဂုံလမ်း	Bahan	ဗဟန်း	16.806090939455864	96.14742122246754
85	36	274	Wizaya Plaza	ဝိဇယပလာဇာ	Dhamazedi Road	ဓမ္မစေတီလမ်း	Bahan	ဗဟန်း	16.805219943235446	96.14327571864125
85	37	266	Myaynigone	မြေနီကုန်း	Bargayar Road	ဗားဂရာလမ်း	San Chaung	စမ်းချောင်း	16.803804	96.138814
85	38	272	Shwe Man	ရွှေမန်း	Bargayar Road	ဗားဂရာလမ်း	San Chaung	စမ်းချောင်း	16.803697434586116	96.13618335686625
85	39	261	Shan Lan	ရှမ်းလမ်း	Bargayar Road	ဗားဂရာလမ်း	San Chaung	စမ်းချောင်း	16.80383891776587	96.13184186629952
85	40	255	Koe Htat Kyee	(၉) ထပ်ကြီး	Bargayar Road	ဗားဂရာလမ်း	San Chaung	စမ်းချောင်း	16.80385946248815	96.12814109193097
85	41	249	Kyaung Shae	ကျောင်းရှေ့	Bargayar Road	ဗားဂရာလမ်း	San Chaung	စမ်းချောင်း	16.803900983450813	96.12383145251444
85	42	253	Sar Taik	စာတိုက်	Kyee Myin Daing Kannar Road	ကြည့်မြင်တိုင်ကမ်းနားလမ်း	Kyee Myin Daing	ကြည့်မြင်တိုင်	16.80426559990839	96.12227894601347
85	43	258	Kyee Myin Daing Nya Zay	ကြည့်မြင်တိုင်ညဈေး	Kyee Myin Daing Kannar Road	ကြည့်မြင်တိုင်ကမ်းနားလမ်း	Kyee Myin Daing	ကြည့်မြင်တိုင်	16.80935599745288	96.12198447575794
85	44	291	Kannar Zay	ကမ်းနားဈေး	Kyee Myin Daing Kannar Road	ကြည့်မြင်တိုင်ကမ်းနားလမ်း	Kyee Myin Daing	ကြည့်မြင်တိုင်	16.812434	96.121964
85	45	277	Nat Sin Lan	နတ်စင်လမ်း	Kyee Myin Daing Kannar Road	ကြည့်မြင်တိုင်ကမ်းနားလမ်း	Kyee Myin Daing	ကြည့်မြင်တိုင်	16.81453683073846	96.1219596862793
85	46	301	Sinmalite	ဆင်မလိုက်	Kyee Myin Daing Kannar Road	ကြည့်မြင်တိုင်ကမ်းနားလမ်း	Kyee Myin Daing	ကြည့်မြင်တိုင်	16.81928919676379	96.12197063186613
85	47	307	Thinbaw Kyin	သင်္ဘောကျင်း	Bayint Naung Road	ဘုရင့်နောင်လမ်း	Kamayut	ကမာရွတ်	16.824419955044178	96.12302745692432
85	48	309	Yae Kyaung	ရေကြောင်း	Bayint Naung Road	ဘုရင့်နောင်လမ်း	Kamayut	ကမာရွတ်	16.83009203973736	96.12186057027431
85	49	1183	Ywarma Kwae	ရွာမကွေ့	Bayint Naung Road	ဘုရင့်နောင်လမ်း	Hlaing	လှိုင်	16.833338	96.120733
85	50	1163	Chaung Wa	ချောင်းဝ	Bayint Naung Road	ဘုရင့်နောင်လမ်း	Hlaing	လှိုင်	16.833749	96.116288
85	51	1160	Butar Yon Lan	ဘူတာရုံလမ်း	Bayint Naung Road	ဘုရင့်နောင်လမ်း	Hlaing	လှိုင်	16.836931	96.113665
85	52	1164	O One	အိုဝမ်း	Bayint Naung Road	ဘုရင့်နောင်လမ်း	Hlaing	လှိုင်	16.840732	96.112821
85	53	1166	Padauk Chaung/Thiri Mingalar Market	ပိတောက်ချောင်း/သီရိမင်္ဂလာဈေးသစ်	Bayint Naung Road	ဘုရင့်နောင်လမ်း	Hlaing	လှိုင်	16.843648	96.11237
85	54	1200	Sit Kyawe Yae/ Shaw Yawe	စစ်ကြောရေး/ လျှော်ရွေး	Bayint Naung Road	ဘုရင့်နောင်လမ်း	Hlaing	လှိုင်	16.848145	96.111292
85	55	1197	Buya	ဘုရ	Bayint Naung Road	ဘုရင့်နောင်လမ်း	Hlaing	လှိုင်	16.851472	96.109639
85	56	1192	Bayint Naung Lan Sone	ဘုရင့်နောင်လမ်းဆုံ	Bayint Naung Road	ဘုရင့်နောင်လမ်း	Mayangone	မရမ်းကုန်း	16.85697243487454	96.10865701217335
85	57	1157	Tat Htate	တပ်ထိပ်	No. 5 Main Road	အမှတ်(၅)လမ်းမ	Hlaing Tharyar	လှိုင်သာယာ	16.85489253813567	96.08784608033604
85	58	1155	Set Hmu Zone	စက်မှုဇုံ	No. 5 Main Road	အမှတ်(၅)လမ်းမ	Hlaing Tharyar	လှိုင်သာယာ	16.85674870134135	96.08235112857075
85	59	31	Tit Htate	(၁) ထိပ်	Nyaung Done Road	ညောင်တန်းလမ်း	Hlaing Tharyar	လှိုင်သာယာ	16.87822689567304	96.07839097268881
85	60	1139	Thone Htate	(၃) ထိပ်	Nyaung Done Road	ညောင်တန်းလမ်း	Hlaing Tharyar	လှိုင်သာယာ	16.87769609222099	96.0750614047356
85	61	1135	Ngar Htate	(၅) ထိပ်	Nyaung Done Road	ညောင်တန်းလမ်း	Hlaing Tharyar	လှိုင်သာယာ	16.877163485866696	96.07127779629083
85	62	2229	Yone Shae	ရုံးရှေ့	Nyaung Done Road	ညောင်တန်းလမ်း	Hlaing Tharyar	လှိုင်သာယာ	16.875759159838704	96.06262076402346
85	63	1131	Mee Khwat Zay	မီးခွက်ဈေး	Nyaung Done Road	ညောင်တန်းလမ်း	Hlaing Tharyar	လှိုင်သာယာ	16.874082055613908	96.05199716635981
85	64	1124	Sanay Ma	စနေမ	No. 5 Main Road	အမှတ်(၅)လမ်းမ	Hlaing Tharyar	လှိုင်သာယာ	16.872406206400104	96.04160020127894
85	65	1121	B.O.C	ဘီအိုစီ	No. 5 Main Road	အမှတ်(၅)လမ်းမ	Hlaing Tharyar	လှိုင်သာယာ	16.872660575089096	96.03753967210653
85	66	1126	Thama Kone	သမကုန်း	No. 5 Main Road	အမှတ်(၅)လမ်းမ	Hlaing Tharyar	လှိုင်သာယာ	16.87418313046785	96.03370373602957
85	67	25	Dagon Ayar A Way Pyay	ဒဂုံဧရာအဝေးပြေး	No. 5 Main Road	အမှတ်(၅)လမ်းမ	Hlaing Tharyar	လှိုင်သာယာ	16.8781015165209	96.0241266153753
85	68	1125	Thama Kone	သမကုန်း	No. 5 Main Road	အမှတ်(၅)လမ်းမ	Hlaing Tharyar	လှိုင်သာယာ	16.874074726406537	96.03354724589737
85	69	1122	B.O.C	ဘီအိုစီ	No. 5 Main Road	အမှတ်(၅)လမ်းမ	Hlaing Tharyar	လှိုင်သာယာ	16.872540258842154	96.03740002959967
85	70	1123	Sanay Ma	စနေမ	No. 5 Main Road	အမှတ်(၅)လမ်းမ	Hlaing Tharyar	လှိုင်သာယာ	16.872309492066083	96.04157363064589
85	71	1130	Mee Khwat Zay	မီးခွက်ဈေး	Nyaung Done Road	ညောင်တန်းလမ်း	Hlaing Tharyar	လှိုင်သာယာ	16.8737204576502	96.05064585344736
85	72	2228	Yone Shae	ရုံးရှေ့	Nyaung Done Road	ညောင်တန်းလမ်း	Hlaing Tharyar	လှိုင်သာယာ	16.87554135084313	96.06214673956858
85	73	1134	Ngar Htate	(၅) ထိပ်	Nyaung Done Road	ညောင်တန်းလမ်း	Hlaing Tharyar	လှိုင်သာယာ	16.876926030577906	96.0713158154249
85	74	1138	Thone Htate	(၃) ထိပ်	Nyaung Done Road	ညောင်တန်းလမ်း	Hlaing Tharyar	လှိုင်သာယာ	16.87758565487986	96.07507484033705
85	75	30	Tit Htate	(၁) ထိပ်	Nyaung Done Road	ညောင်တန်းလမ်း	Hlaing Tharyar	လှိုင်သာယာ	16.87805870194198	96.07841479824857
85	76	1154	Set Hmu Zone	စက်မှုဇုံ	No. 5 Main Road	အမှတ်(၅)လမ်းမ	Hlaing Tharyar	လှိုင်သာယာ	16.856657835192994	96.08218637538812
85	77	1156	Tat Htate	တပ်ထိပ်	No. 5 Main Road	အမှတ်(၅)လမ်းမ	Hlaing Tharyar	လှိုင်သာယာ	16.85499211602558	96.08673406764866
85	78	2360	Bayint Naung Lan Sone	ဘုရင့်နောင်လမ်းဆုံ	Bayint Naung Road	ဘုရင့်နောင်လမ်း	Mayangone	မရမ်းကုန်း	16.858690865634372	96.10848660464399
85	79	1196	Buya	ဘုရ	Bayint Naung Road	ဘုရင့်နောင်လမ်း	Hlaing	လှိုင်	16.851349	96.10936
85	80	1201	Sit Kyawe Yae/ Shaw Yawe	စစ်ကြောရေး/ လျှော်ရွေး	Bayint Naung Road	ဘုရင့်နောင်လမ်း	Hlaing	လှိုင်	16.848166	96.110927
85	81	1167	Padauk Chaung/Thiri Mingalar Market	ပိတောက်ချောင်း/သီရိမင်္ဂလာဈေးသစ်	Bayint Naung Road	ဘုရင့်နောင်လမ်း	Hlaing	လှိုင်	16.843268	96.112167
85	82	1165	O One	အိုဝမ်း	Bayint Naung Road	ဘုရင့်နောင်လမ်း	Hlaing	လှိုင်	16.840896	96.112608
85	83	1161	Butar Yon Lan	ဘူတာရုံလမ်း	Bayint Naung Road	ဘုရင့်နောင်လမ်း	Hlaing	လှိုင်	16.837755	96.11336
85	84	1162	Chaung Wa	ချောင်းဝ	Bayint Naung Road	ဘုရင့်နောင်လမ်း	Hlaing	လှိုင်	16.833543	96.11603
85	85	1184	Ywarma Kwae	ရွာမကွေ့	Bayint Naung Road	ဘုရင့်နောင်လမ်း	Hlaing	လှိုင်	16.833461	96.119521
85	86	310	Yae Kyaung	ရေကြောင်း	Bayint Naung Road	ဘုရင့်နောင်လမ်း	Kamayut	ကမာရွတ်	16.83003130648178	96.12164842430505
85	87	308	Thinbaw Kyin	သင်္ဘောကျင်း	Bayint Naung Road	ဘုရင့်နောင်လမ်း	Kamayut	ကမာရွတ်	16.82435998216743	96.12283658003436
85	88	302	Sinmalite	ဆင်မလိုက်	Kyee Myin Daing Kannar Road	ကြည့်မြင်တိုင်ကမ်းနားလမ်း	Kyee Myin Daing	ကြည့်မြင်တိုင်	16.81968916689901	96.12181771779436
85	89	278	Nat Sin Lan	နတ်စင်လမ်း	Kyee Myin Daing Kannar Road	ကြည့်မြင်တိုင်ကမ်းနားလမ်း	Kyee Myin Daing	ကြည့်မြင်တိုင်	16.81470006967928	96.12178073264658
85	90	292	Kannar Zay	ကမ်းနားဈေး	Kyee Myin Daing Kannar Road	ကြည့်မြင်တိုင်ကမ်းနားလမ်း	Kyee Myin Daing	ကြည့်မြင်တိုင်	16.81251231920376	96.12181011121723
85	91	259	Kyee Myin Daing Nya Zay	ကြည့်မြင်တိုင်ညဈေး	Kyee Myin Daing Kannar Road	ကြည့်မြင်တိုင်ကမ်းနားလမ်း	Kyee Myin Daing	ကြည့်မြင်တိုင်	16.809123167748957	96.12182549200953
85	92	252	Sar Taik	စာတိုက်	Kyee Myin Daing Kannar Road	ကြည့်မြင်တိုင်ကမ်းနားလမ်း	Kyee Myin Daing	ကြည့်မြင်တိုင်	16.80417773402748	96.12214895317268
85	93	248	Kyaung Shae	ကျောင်းရှေ့	Bargayar Road	ဗားဂရာလမ်း	San Chaung	စမ်းချောင်း	16.80371763172144	96.1233366758097
85	94	254	Koe Htat Kyee	(၉) ထပ်ကြီး	Bargayar Road	ဗားဂရာလမ်း	San Chaung	စမ်းချောင်း	16.80377692571842	96.12809622083661
85	95	260	Shan Lan	ရှမ်းလမ်း	Bargayar Road	ဗားဂရာလမ်း	San Chaung	စမ်းချောင်း	16.803776350638998	96.13150128861892
85	96	273	Shwe Man	ရွှေမန်း	Bargayar Road	ဗားဂရာလမ်း	San Chaung	စမ်းချောင်း	16.803827	96.136105
85	97	267	Myaynigone	မြေနီကုန်း	Bargayar Road	ဗားဂရာလမ်း	San Chaung	စမ်းချောင်း	16.8037478786025	96.13814299016668
85	98	2389	Wizaya Plaza	ဝိဇယပလာဇာ	Dhamazedi Road	ဓမ္မစေတီလမ်း	Bahan	ဗဟန်း	16.8050307383558	96.1434358686529
85	99	222	Link Lan	လင့်လမ်း	Shwe Gon Road	ရွှေဂုံလမ်း	Bahan	ဗဟန်း	16.805999079236297	96.14723340186174
85	100	224	Oak Lan	အုတ်လမ်း	West Shwe Gon Daing Road	အနောက်ရွှေဂုံတိုင်လမ်း	Bahan	ဗဟန်း	16.804344087884044	96.1511853185948
85	101	228	Shwe Gon Daing	ရွှေဂုံတိုင်	West Shwe Gon Daing Road	အနောက်ရွှေဂုံတိုင်လမ်း	Bahan	ဗဟန်း	16.805293836643138	96.15444100694732
85	102	231	Shwe Gon Daing	ရွှေဂုံတိုင်	East Shwe Gon Daing Road	အရှေ့ရွှေဂုံတိုင်လမ်း	Bahan	ဗဟန်း	16.806550186916283	96.15607654675843
85	103	226	Bandar Pin	ဗန်ဒါပင်	East Shwe Gon Daing Road	အရှေ့ရွှေဂုံတိုင်လမ်း	Bahan	ဗဟန်း	16.809993885588426	96.16076869424434
85	104	234	Ngar Htat Kyee	(၅) ထပ်ကြီး	East Shwe Gon Daing Road	အရှေ့ရွှေဂုံတိုင်လမ်း	Bahan	ဗဟန်း	16.810501025184656	96.1633197264746
85	105	233	Chauk Htat Kyee	(၆) ထပ်ကြီး	East Shwe Gon Daing Road	အရှေ့ရွှေဂုံတိုင်လမ်း	Bahan	ဗဟန်း	16.811227	96.165963
85	106	332	Awine Htate/ Tamwe	အဝိုင်းထိပ်/ တာမွေ	East Shwe Gon Daing Road	အရှေ့ရွှေဂုံတိုင်လမ်း	Bahan	ဗဟန်း	16.81149101866884	96.16997592855115
85	107	382	Tamwe Plaza	တာမွေပလာဇာ	Thamain Bayan Road	သမိန်ဗရမ်းလမ်း	Tamwe	တာမွေ	16.81067485889442	96.17535173892976
85	108	385	Tamwe Zay/ Tamwe Bali	တာမွေဈေး/ တာမွေဗလီ	Kyaikkasan Road	ကျိုက္ကဆံလမ်း	Tamwe	တာမွေ	16.807725	96.176172
85	109	379	Kyauk Myaung Zay	ကျောက်မြောင်းဈေး	Kyaikkasan Road	ကျိုက္ကဆံလမ်း	Tamwe	တာမွေ	16.804151	96.175646
85	110	388	Thida	သီတာ	Banyardala Road	ဗညားဒလလမ်း	Mingalar Taung Nyunt	မင်္ဂလာတောင်ညွန့်	16.799380471876457	96.17574831492675
85	111	374	Aung Mingalar	အောင်မင်္ဂလာ	Banyardala Road	ဗညားဒလလမ်း	Mingalar Taung Nyunt	မင်္ဂလာတောင်ညွန့်	16.79630927025884	96.17657147347929
85	112	454	Yuzana Plaza/ Lan Kyal	ယုဇနပလာဇာ/လမ်းကျယ်	Banyardala Road	ဗညားဒလလမ်း	Mingalar Taung Nyunt	မင်္ဂလာတောင်ညွန့်	16.794481844001602	96.17555068340155
85	113	444	Mingalar Zay	မင်္ဂလာဈေး	Mill Road	စက်ရုံလမ်း	Mingalar Taung Nyunt	မင်္ဂလာတောင်ညွန့်	16.791853797107102	96.17441874928774
85	114	451	Warso	ဝါဆို	Yamonar Road	ယမုံနာလမ်း	Daw Bon	ဒေါပုံ	16.78255539648769	96.18273277999835
85	115	471	Thinbaw Kyin	သင်္ဘောကျင်း	Yamonar Road	ယမုံနာလမ်း	Daw Bon	ဒေါပုံ	16.781900684172875	96.18712900439277
85	116	469	Thinbaw Kyin	သင်္ဘောကျင်း	Min Nandar Road	မင်းနန္ဒာလမ်း	Thaketa	သာကေတ	16.78190317189937	96.18801645934583
85	117	475	Yan Aung	ရန်အောင်	Min Nandar Road	မင်းနန္ဒာလမ်း	Thaketa	သာကေတ	16.78558	96.189977
85	118	473	Wet Su	ဝက်စု	Min Nandar Road	မင်းနန္ဒာလမ်း	Thaketa	သာကေတ	16.789536988387997	96.19198579341175
85	119	468	Thadar Yon	သဒ္ဓါရုံ	Min Nandar Road	မင်းနန္ဒာလမ်း	Thaketa	သာကေတ	16.793695	96.194204
85	120	396	Tit Zay Kwae	(၁) ဈေးကွေ့	Min Nandar Road	မင်းနန္ဒာလမ်း	Thaketa	သာကေတ	16.796504	96.195467
85	121	409	Tat Phwet	တပ်ဖွဲ့	Min Nandar Road	မင်းနန္ဒာလမ်း	Thaketa	သာကေတ	16.799601	96.196862
85	122	407	Myayni Lan	မြေနီလမ်း	Min Nandar Road	မင်းနန္ဒာလမ်း	Thaketa	သာကေတ	16.802389	96.19669
85	123	405	Kyauk Taing	ကျောက်တိုင်	Min Nandar Road	မင်းနန္ဒာလမ်း	Thaketa	သာကေတ	16.803753863378656	96.19596491334961
85	124	403	Kyauk Taing	ကျောက်တိုင်	Ayar Wun Main Road	ဧရာဝဏ်လမ်းမကြီး	Thaketa	သာကေတ	16.804202705380796	96.19609439279887
85	125	397	Anawmar	အနော်မာ	Ayar Wun Main Road	ဧရာဝဏ်လမ်းမကြီး	Thaketa	သာကေတ	16.803823411391047	96.20176495984198
85	126	523	Kyaung Kwae/ Htuu Par Yone	ကျောင်းကွေ့/ထူပါရုံ	Ayar Wun Main Road	ဧရာဝဏ်လမ်းမကြီး	Thaketa	သာကေတ	16.80371470625175	96.20586662320422
85	127	522	Kyaung Kwae	ကျောင်းကွေ့	Myintawthar Road	မြင်တော်သာလမ်း	Thaketa	သာကေတ	16.803614185536972	96.2065722118132
85	128	525	Myayni	မြေနီ	Ayar Wun Main Road	ဧရာဝဏ်လမ်းမကြီး	Thaketa	သာကေတ	16.803537897279856	96.20986435096712
85	129	529	Shit Gate	(၈) ဂိတ်	Ayar Wun Main Road	ဧရာဝဏ်လမ်းမကြီး	Thaketa	သာကေတ	16.804750521874205	96.21352799702437
85	130	553	Thaketa Awine	သာကေတအဝိုင်း	Ayar Wun Main Road	ဧရာဝဏ်လမ်းမကြီး	Thaketa	သာကေတ	16.80611452972553	96.21627231594177
85	131	536	Ta Sal Zay	(၁၀) ဈေး	Ayar Wun Main Road	ဧရာဝဏ်လမ်းမကြီး	Thaketa	သာကေတ	16.808139229914836	96.2203553086147
85	132	537	Thone-Sae-Lay Kar Gyi Gate	(၃၄) ကားကြီးဂိတ်	Ayar Wun Main Road	ဧရာဝဏ်လမ်းမကြီး	Thaketa	သာကေတ	16.80950883002897	96.22312393505126
85	133	2144	Paya Lay	ဘုရားလေး	Ayar Wun Main Road	ဧရာဝဏ်လမ်းမကြီး	South Dagon	တောင်ဒဂုံ	16.812593	96.229069
85	134	558	Than Lan	သံလမ်း	Ayar Wun Main Road	ဧရာဝဏ်လမ်းမကြီး	Thaketa	သာကေတ	16.811976380075	96.23197799082848
85	135	642	Thit Sait	သစ်ဆိတ်	Ayar Wun Main Road	ဧရာဝဏ်လမ်းမကြီး	Thaketa	သာကေတ	16.815327910449547	96.23674645554276
