svc_name	sequence	stop_id	name_en	name_mm	road_en	road_mm	township_en	township_mm	lat	lng
27	1	2117	Sate Kyan Mar Yae Say Yon	စိတ်ကျန်းမာရေးဆေးရုံ	No. 7 Main Road	အမှတ်(၇)လမ်းမ	East Dagon	အရှေ့ဒဂုံ	16.962221	96.25701
27	2	1037	Si Pin	စည်ပင်	Min Ye Kyaw Swar Road	မင်းရဲကျော်စွာလမ်း	East Dagon	အရှေ့ဒဂုံ	16.930705	96.235249
27	3	1033	Moke Wa	မုခ်ဝ	Min Ye Kyaw Swar Road	မင်းရဲကျော်စွာလမ်း	North Dagon	မြောက်ဒဂုံ	16.902662	96.217121
27	7	927	Khun/ Shit Lan Sone	(၇/၈) လမ်းဆုံ	Pyi Htaung Su Main Road	ပြည်ထောင်စုလမ်းမကြီး	North Dagon	မြောက်ဒဂုံ	16.892417	96.196178
27	8	935	Lay-sae-nga Hmat Taing	(၄၅) မှတ်တိုင်	Pyi Htaung Su Main Road	ပြည်ထောင်စုလမ်းမကြီး	North Dagon	မြောက်ဒဂုံ	16.894696	96.194934
27	9	1022	Lay-sae-chauk Lan Sone	(၄၆) လမ်းဆုံ	Bo Hmu Ba Htoo Road	ဗိုလ်မှူးဗထူးလမ်း	North Dagon	မြောက်ဒဂုံ	16.898695	96.192646
27	10	931	Kyar Hmat Taing	ကြားမှတ်တိုင်	Bo Hmu Ba Htoo Road	ဗိုလ်မှူးဗထူးလမ်း	North Dagon	မြောက်ဒဂုံ	16.897899	96.190642
27	11	903	Ba Htoo Zay	ဗထူးဈေး	Bo Hmu Ba Htoo Road	ဗိုလ်မှူးဗထူးလမ်း	North Dagon	မြောက်ဒဂုံ	16.895887	96.186908
27	12	905	Banyardala	ဗညားဒလ	Bo Hmu Ba Htoo Road	ဗိုလ်မှူးဗထူးလမ်း	North Dagon	မြောက်ဒဂုံ	16.894943	96.18502
27	13	917	Kyaung Lay Shae	ကျောင်းလေးရှေ့	Bo Hmu Ba Htoo Road	ဗိုလ်မှူးဗထူးလမ်း	North Dagon	မြောက်ဒဂုံ	16.893916	96.18296
27	14	919	Lay-sae-lay Lan Sone	(၄၄) လမ်းဆုံ	Bo Hmu Ba Htoo Road	ဗိုလ်မှူးဗထူးလမ်း	North Dagon	မြောက်ဒဂုံ	16.892889	96.181029
27	15	915	Kyan Mar Yae	ကျန်းမာရေး	Bo Hmu Ba Htoo Road	ဗိုလ်မှူးဗထူးလမ်း	North Dagon	မြောက်ဒဂုံ	16.891657	96.178583
27	16	899	Kyaung Kwae	ကျောင်းကွေ့	Bo Hmu Ba Htoo Road	ဗိုလ်မှူးဗထူးလမ်း	North Dagon	မြောက်ဒဂုံ	16.889707	96.174892
27	17	901	Phyo Sabei	ဖြိုးစံပယ်	Bo Hmu Ba Htoo Road	ဗိုလ်မှူးဗထူးလမ်း	North Dagon	မြောက်ဒဂုံ	16.887715	96.170794
27	18	897	Khay Mar	ခေမာ	Bo Hmu Ba Htoo Road	ဗိုလ်မှူးဗထူးလမ်း	North Dagon	မြောက်ဒဂုံ	16.886011	96.167554
27	19	1290	Kar Lay Gate	ကားလေးဂိတ်	U Wisara Road	ဦးဝိစာရလမ်း	North Dagon	မြောက်ဒဂုံ	16.87786	96.171649
27	20	1292	Saik Shae	စိုက်ရှေ့	U Wisara Road	ဦးဝိစာရလမ်း	North Dagon	မြောက်ဒဂုံ	16.875272	96.172936
27	21	979	Ah Kyaw Tae	အကြော်တဲ	U Wisara Road	ဦးဝိစာရလမ်း	North Dagon	မြောက်ဒဂုံ	16.87443	96.174141
27	22	983	Hong Kong	ဟောင်ကောင်	U Wisara Road	ဦးဝိစာရလမ်း	North Dagon	မြောက်ဒဂုံ	16.871658	96.176094
27	23	982	Chauk Lan	(၆) လမ်း	U Wisara Road	ဦးဝိစာရလမ်း	North Dagon	မြောက်ဒဂုံ	16.869174	96.177596
27	24	2124	Bay Li	ဘေလီ	Thanthumar Road	သံသုမာလမ်း	South Okkalapa	တောင်ဥက္ကလာပ	16.859959	96.178682
27	25	1078	Myin Thar Zay	မြင်သာဈေး	Thanthumar Road	သံသုမာလမ်း	South Okkalapa	တောင်ဥက္ကလာပ	16.856729	96.18176
27	26	2128	Thanat Pyit Kwin	သေနတ်ပစ်ကွင်း	Thanthumar Road	သံသုမာလမ်း	South Okkalapa	တောင်ဥက္ကလာပ	16.85446	96.183724
27	27	1082	Taung Okkalar Paya	တောင်ဥက္ကလာပဘုရား	Thanthumar Road	သံသုမာလမ်း	South Okkalapa	တောင်ဥက္ကလာပ	16.852787	96.185333
27	28	2146	Kyaetamar	ကျေးတမာ	Thanthumar Road	သံသုမာလမ်း	South Okkalapa	တောင်ဥက္ကလာပ	16.850908	96.187715
27	29	1086	Moe Swe	မိုးစွေ	Thanthumar Road	သံသုမာလမ်း	South Okkalapa	တောင်ဥက္ကလာပ	16.849994	96.1897
27	30	2126	Thone-sae-tit Gate/ Tit Gate	(၃၁) ဂိတ်/(၁) ဂိတ်	Thanthumar Road	သံသုမာလမ်း	South Okkalapa	တောင်ဥက္ကလာပ	16.848931	96.194019
27	31	1089	Se Man Kane	စီမံကိန်း	Thanthumar Road	သံသုမာလမ်း	South Okkalapa	တောင်ဥက္ကလာပ	16.847406	96.198465
27	32	594	Daywadaha	ဒေဝဒဟ	Yadanar Road	ရတနာလမ်း	Thingangyun	သင်္ဃန်းကျွန်း	16.844243	96.198775
27	33	600	Bawa Myint	ဘဝမြင့်	Yadanar Road	ရတနာလမ်း	Thingangyun	သင်္ဃန်းကျွန်း	16.842087	96.196479
27	34	596	Ar Nandar Paya	အာနန္ဒာဘုရား	Yadanar Road	ရတနာလမ်း	Thingangyun	သင်္ဃန်းကျွန်း	16.840773	96.194891
27	35	606	Gate Haung	ဂိတ်ဟောင်း	Yadanar Road	ရတနာလမ်း	South Okkalapa	တောင်ဥက္ကလာပ	16.839273	96.192852
27	36	612	Kyaikkasan Paya	ကျိုက္ကစံဘုရား	Yadanar Road	ရတနာလမ်း	Thingangyun	သင်္ဃန်းကျွန်း	16.838431	96.189891
27	37	10	(Sae-Lay/ Sae-Ngar) Lan Sone	(၁၄/၁၅) လမ်းဆုံ	Yadanar Road	ရတနာလမ်း	Thingangyun	သင်္ဃန်းကျွန်း	16.836947	96.18587
27	38	1071	Yadanar Zay	ရတနာဈေး	Yadanar Road	ရတနာလမ်း	Thingangyun	သင်္ဃန်းကျွန်း	16.835962	96.183033
27	39	1056	Kalar Paya	ကုလားဘုရား	Yadanar Road	ရတနာလမ်း	Thingangyun	သင်္ဃန်းကျွန်း	16.834883	96.180404
27	40	1060	Sae-Chauk Kwae	(၁၆) ကွေ့	Yadanar Road	ရတနာလမ်း	Thingangyun	သင်္ဃန်းကျွန်း	16.833882	96.176488
27	41	1050	Than Lan	သံလမ်း	Yadanar Road	ရတနာလမ်း	Yankin	ရန်ကင်း	16.83381	96.172897
27	42	1041	Kyauk Kone	ကျောက်ကုန်း	Moe Kaung Road	မိုးကောင်းလမ်း	Yankin	ရန်ကင်း	16.831222	96.169528
27	43	337	Hmat Tan Yone	မှတ်တမ်းရုံး	Moe Kaung Road	မိုးကောင်းလမ်း	Yankin	ရန်ကင်း	16.827556	96.170742
27	44	334	Awine Lay	အဝိုင်းလေး	Moe Kaung Road	မိုးကောင်းလမ်း	Yankin	ရန်ကင်း	16.825246	96.171418
27	45	339	Kalar Zay	ကုလားဈေး	East Horse Race Course Road	အရှေ့မြင်းပြိုင်လမ်း	Tamwe	တာမွေ	16.82238	96.171954
27	46	345	Lan Sone	လမ်းဆုံ	East Horse Race Course Road	အရှေ့မြင်းပြိုင်လမ်း	Tamwe	တာမွေ	16.819269	96.172287
27	47	343	Kyaung Shae	ကျောင်းရှေ့	East Horse Race Course Road	အရှေ့မြင်းပြိုင်လမ်း	Tamwe	တာမွေ	16.815458	96.17248
27	48	238	Byaing Yae Oh Sin	ဗျိုင်းရေအိုးစင်	Banyardala Road	ဗညားဒလလမ်း	Tamwe	တာမွေ	16.806492	96.172127
27	49	388	Thida	သီတာ	Banyardala Road	ဗညားဒလလမ်း	Mingalar Taung Nyunt	မင်္ဂလာတောင်ညွန့်	16.799424	96.175791
27	50	374	Aung Mingalar	အောင်မင်္ဂလာ	Banyardala Road	ဗညားဒလလမ်း	Mingalar Taung Nyunt	မင်္ဂလာတောင်ညွန့်	16.796299	96.176668
27	51	454	Yuzana Plaza/ Lan Kyal	ယုဇနပလာဇာ/လမ်းကျယ်	Banyardala Road	ဗညားဒလလမ်း	Mingalar Taung Nyunt	မင်္ဂလာတောင်ညွန့်	16.794501	96.175571
27	52	184	Mingalar Mon Zay	မင်္ဂလာမွန်ဈေး	Mill Road	စက်ရုံလမ်း	Mingalar Taung Nyunt	မင်္ဂလာတောင်ညွန့်	16.794101	96.172931
27	57	239	Byaing Yae Oh Sin	ဗျိုင်းရေအိုးစင်	Banyardala Road	ဗညားဒလလမ်း	Tamwe	တာမွေ	16.806698	96.172111
27	58	342	Kyaung Shae	ကျောင်းရှေ့	East Horse Race Course Road	အရှေ့မြင်းပြိုင်လမ်း	Tamwe	တာမွေ	16.815407	96.172652
27	59	344	Lan Sone	လမ်းဆုံ	East Horse Race Course Road	အရှေ့မြင်းပြိုင်လမ်း	Tamwe	တာမွေ	16.81895	96.17248
27	60	338	Kalar Zay	ကုလားဈေး	East Horse Race Course Road	အရှေ့မြင်းပြိုင်လမ်း	Tamwe	တာမွေ	16.822483	96.172094
27	61	335	Awine Lay	အဝိုင်းလေး	Moe Kaung Road	မိုးကောင်းလမ်း	Yankin	ရန်ကင်း	16.825667	96.171504
27	62	336	Hmat Tan Yone	မှတ်တမ်းရုံး	Moe Kaung Road	မိုးကောင်းလမ်း	Yankin	ရန်ကင်း	16.82733	96.171032
27	63	1042	Kyauk Kone	ကျောက်ကုန်း	Moe Kaung Road	မိုးကောင်းလမ်း	Yankin	ရန်ကင်း	16.831469	96.169935
27	64	1049	Than Lan	သံလမ်း	Yadanar Road	ရတနာလမ်း	Yankin	ရန်ကင်း	16.833502	96.172961
27	65	1059	Sae-Chauk Kwae	(၁၆) ကွေ့	Yadanar Road	ရတနာလမ်း	Thingangyun	သင်္ဃန်းကျွန်း	16.833764	96.176424
27	66	1055	Kalar Paya	ကုလားဘုရား	Yadanar Road	ရတနာလမ်း	Thingangyun	သင်္ဃန်းကျွန်း	16.834791	96.180452
27	67	1070	Yadanar Zay	ရတနာဈေး	Yadanar Road	ရတနာလမ်း	Thingangyun	သင်္ဃန်းကျွန်း	16.835869	96.18307
27	68	11	(Sae-Lay/ Sae-Ngar) Lan Sone	(၁၄/၁၅) လမ်းဆုံ	Yadanar Road	ရတနာလမ်း	Thingangyun	သင်္ဃန်းကျွန်း	16.83685	96.185887
27	69	611	Kyaikkasan Paya	ကျိုက္ကစံဘုရား	Yadanar Road	ရတနာလမ်း	Thingangyun	သင်္ဃန်းကျွန်း	16.838123	96.189955
27	70	605	Gate Haung	ဂိတ်ဟောင်း	Yadanar Road	ရတနာလမ်း	South Okkalapa	တောင်ဥက္ကလာပ	16.83915	96.193324
27	71	595	Ar Nandar Paya	အာနန္ဒာဘုရား	Yadanar Road	ရတနာလမ်း	Thingangyun	သင်္ဃန်းကျွန်း	16.840423	96.194977
27	72	599	Bawa Myint	ဘဝမြင့်	Yadanar Road	ရတနာလမ်း	Thingangyun	သင်္ဃန်းကျွန်း	16.841656	96.196414
27	73	593	Daywadaha	ဒေဝဒဟ	Yadanar Road	ရတနာလမ်း	Thingangyun	သင်္ဃန်းကျွန်း	16.843956	96.198989
27	74	1090	Se Man Kane	စီမံကိန်း	Thanthumar Road	သံသုမာလမ်း	South Okkalapa	တောင်ဥက္ကလာပ	16.84756	96.19854
27	75	1088	Thone-sae-tit Gate/ Tit Gate	(၃၁) ဂိတ်/(၁) ဂိတ်	Thanthumar Road	သံသုမာလမ်း	South Okkalapa	တောင်ဥက္ကလာပ	16.849018	96.194105
27	76	1087	Moe Swe	မိုးစွေ	Thanthumar Road	သံသုမာလမ်း	South Okkalapa	တောင်ဥက္ကလာပ	16.85024	96.189614
27	77	2129	Kyaetamar	ကျေးတမာ	Thanthumar Road	သံသုမာလမ်း	South Okkalapa	တောင်ဥက္ကလာပ	16.851082	96.187769
27	78	1083	Taung Okkalar Paya	တောင်ဥက္ကလာပဘုရား	Thanthumar Road	သံသုမာလမ်း	South Okkalapa	တောင်ဥက္ကလာပ	16.852869	96.185483
27	79	2127	Thanat Pyit Kwin	သေနတ်ပစ်ကွင်း	Thanthumar Road	သံသုမာလမ်း	South Okkalapa	တောင်ဥက္ကလာပ	16.854594	96.183885
27	80	1079	Myin Thar Zay	မြင်သာဈေး	Thanthumar Road	သံသုမာလမ်း	South Okkalapa	တောင်ဥက္ကလာပ	16.856863	96.181911
27	81	1075	Bay Li	ဘေလီ	Thanthumar Road	သံသုမာလမ်း	South Okkalapa	တောင်ဥက္ကလာပ	16.859851	96.178992
27	82	981	Chauk Lan	(၆) လမ်း	U Wisara Road	ဦးဝိစာရလမ်း	North Dagon	မြောက်ဒဂုံ	16.869153	96.178089
27	83	984	Hong Kong	ဟောင်ကောင်	U Wisara Road	ဦးဝိစာရလမ်း	North Dagon	မြောက်ဒဂုံ	16.87209	96.176373
27	84	980	Ah Kyaw Tae	အကြော်တဲ	U Wisara Road	ဦးဝိစာရလမ်း	North Dagon	မြောက်ဒဂုံ	16.874677	96.174527
27	85	1293	Saik Shae	စိုက်ရှေ့	U Wisara Road	ဦးဝိစာရလမ်း	North Dagon	မြောက်ဒဂုံ	16.875724	96.173108
27	86	1291	Kar Lay Gate	ကားလေးဂိတ်	U Wisara Road	ဦးဝိစာရလမ်း	North Dagon	မြောက်ဒဂုံ	16.877942	96.17182
27	87	896	Khay Mar	ခေမာ	Bo Hmu Ba Htoo Road	ဗိုလ်မှူးဗထူးလမ်း	North Dagon	မြောက်ဒဂုံ	16.885703	96.167983
27	89	900	Phyo Sabei	ဖြိုးစံပယ်	Bo Hmu Ba Htoo Road	ဗိုလ်မှူးဗထူးလမ်း	North Dagon	မြောက်ဒဂုံ	16.887325	96.170987
27	90	898	Kyaung Kwae	ကျောင်းကွေ့	Bo Hmu Ba Htoo Road	ဗိုလ်မှူးဗထူးလမ်း	North Dagon	မြောက်ဒဂုံ	16.889337	96.175064
27	91	914	Kyan Mar Yae	ကျန်းမာရေး	Bo Hmu Ba Htoo Road	ဗိုလ်မှူးဗထူးလမ်း	North Dagon	မြောက်ဒဂုံ	16.891267	96.178755
27	92	918	Lay-sae-lay Lan Sone	(၄၄) လမ်းဆုံ	Bo Hmu Ba Htoo Road	ဗိုလ်မှူးဗထူးလမ်း	North Dagon	မြောက်ဒဂုံ	16.892458	96.181029
27	93	916	Kyaung Lay Shae	ကျောင်းလေးရှေ့	Bo Hmu Ba Htoo Road	ဗိုလ်မှူးဗထူးလမ်း	North Dagon	မြောက်ဒဂုံ	16.893546	96.183068
27	94	904	Banyardala	ဗညားဒလ	Bo Hmu Ba Htoo Road	ဗိုလ်မှူးဗထူးလမ်း	North Dagon	မြောက်ဒဂုံ	16.894655	96.185235
27	95	902	Ba Htoo Zay	ဗထူးဈေး	Bo Hmu Ba Htoo Road	ဗိုလ်မှူးဗထူးလမ်း	North Dagon	မြောက်ဒဂုံ	16.895476	96.187123
27	96	930	Kyar Hmat Taing	ကြားမှတ်တိုင်	Bo Hmu Ba Htoo Road	ဗိုလ်မှူးဗထူးလမ်း	North Dagon	မြောက်ဒဂုံ	16.897447	96.190685
27	97	1021	Lay-sae-chauk Lan Sone	(၄၆) လမ်းဆုံ	Bo Hmu Ba Htoo Road	ဗိုလ်မှူးဗထူးလမ်း	North Dagon	မြောက်ဒဂုံ	16.8985	96.192522
27	98	936	Lay-sae-nga Hmat Taing	(၄၅) မှတ်တိုင်	Pyi Htaung Su Main Road	ပြည်ထောင်စုလမ်းမကြီး	North Dagon	မြောက်ဒဂုံ	16.895189	96.194161
27	100	2350	Khun/ Shit Lan Sone	(၇/၈) လမ်းဆုံ	Pyi Htaung Su Main Road	ပြည်ထောင်စုလမ်းမကြီး	North Dagon	မြောက်ဒဂုံ	16.892201	96.195899
27	102	1032	Moke Wa	မုခ်ဝ	Min Ye Kyaw Swar Road	မင်းရဲကျော်စွာလမ်း	North Dagon	မြောက်ဒဂုံ	16.902334	96.217293
27	103	1038	Si Pin	စည်ပင်	Min Ye Kyaw Swar Road	မင်းရဲကျော်စွာလမ်း	East Dagon	အရှေ့ဒဂုံ	16.930951	96.235764
27	104	2117	Sate Kyan Mar Yae Say Yon	စိတ်ကျန်းမာရေးဆေးရုံ	No. 7 Main Road	အမှတ်(၇)လမ်းမ	East Dagon	အရှေ့ဒဂုံ	16.962221	96.25701