svc_name	sequence	stop_id	name_en	name_mm	road_en	road_mm	township_en	township_mm	lat	lng
14	1	996	Kyaung Lan	ကျောင်းလမ်း	Pin Lon Road	ပင်လုံလမ်း	North Dagon	မြောက်ဒဂုံ	16.87133	96.193711
14	2	1001	Settwe Yae	ဆက်သွယ်ရေး	Pin Lon Road	ပင်လုံလမ်း	North Dagon	မြောက်ဒဂုံ	16.870036	96.190127
14	3	993	Thone-sae-ngar Kwae	(၃၅) ကွေ့	Pin Lon Road	ပင်လုံလမ်း	North Dagon	မြောက်ဒဂုံ	16.868373	96.186758
14	4	991	Thin Win	သင်းဝင်	Pin Lon Road	ပင်လုံလမ်း	North Dagon	မြောက်ဒဂုံ	16.866853	96.184119
14	5	978	Nar Yee Sin	နာရီစင်	Pin Lon Road	ပင်လုံလမ်း	North Dagon	မြောက်ဒဂုံ	16.866176	96.181866
14	6	2124	Bay Li	ဘေလီ	Thanthumar Road	သံသုမာလမ်း	South Okkalapa	တောင်ဥက္ကလာပ	16.859959	96.178682
14	7	1078	Myin Thar Zay	မြင်သာဈေး	Thanthumar Road	သံသုမာလမ်း	South Okkalapa	တောင်ဥက္ကလာပ	16.856729	96.18176
14	8	2128	Thanat Pyit Kwin	သေနတ်ပစ်ကွင်း	Thanthumar Road	သံသုမာလမ်း	South Okkalapa	တောင်ဥက္ကလာပ	16.85446	96.183724
14	9	1082	Taung Okkalar Paya	တောင်ဥက္ကလာပဘုရား	Thanthumar Road	သံသုမာလမ်း	South Okkalapa	တောင်ဥက္ကလာပ	16.852787	96.185333
14	10	2146	Kyaetamar	ကျေးတမာ	Thanthumar Road	သံသုမာလမ်း	South Okkalapa	တောင်ဥက္ကလာပ	16.850908	96.187715
14	11	1086	Moe Swe	မိုးစွေ	Thanthumar Road	သံသုမာလမ်း	South Okkalapa	တောင်ဥက္ကလာပ	16.849994	96.1897
14	12	2126	Thone-sae-tit Gate/ Tit Gate	(၃၁) ဂိတ်/(၁) ဂိတ်	Thanthumar Road	သံသုမာလမ်း	South Okkalapa	တောင်ဥက္ကလာပ	16.848931	96.194019
14	13	1089	Se Man Kane	စီမံကိန်း	Thanthumar Road	သံသုမာလမ်း	South Okkalapa	တောင်ဥက္ကလာပ	16.847406	96.198465
14	14	594	Daywadaha	ဒေဝဒဟ	Yadanar Road	ရတနာလမ်း	Thingangyun	သင်္ဃန်းကျွန်း	16.844243	96.198775
14	15	600	Bawa Myint	ဘဝမြင့်	Yadanar Road	ရတနာလမ်း	Thingangyun	သင်္ဃန်းကျွန်း	16.842087	96.196479
14	16	596	Ar Nandar Paya	အာနန္ဒာဘုရား	Yadanar Road	ရတနာလမ်း	Thingangyun	သင်္ဃန်းကျွန်း	16.840773	96.194891
14	17	606	Gate Haung	ဂိတ်ဟောင်း	Yadanar Road	ရတနာလမ်း	South Okkalapa	တောင်ဥက္ကလာပ	16.839273	96.192852
14	18	612	Kyaikkasan Paya	ကျိုက္ကစံဘုရား	Yadanar Road	ရတနာလမ်း	Thingangyun	သင်္ဃန်းကျွန်း	16.838431	96.189891
14	19	10	(Sae-Lay/ Sae-Ngar) Lan Sone	(၁၄/၁၅) လမ်းဆုံ	Yadanar Road	ရတနာလမ်း	Thingangyun	သင်္ဃန်းကျွန်း	16.836947	96.18587
14	20	1071	Yadanar Zay	ရတနာဈေး	Yadanar Road	ရတနာလမ်း	Thingangyun	သင်္ဃန်းကျွန်း	16.835962	96.183033
14	21	1056	Kalar Paya	ကုလားဘုရား	Yadanar Road	ရတနာလမ်း	Thingangyun	သင်္ဃန်းကျွန်း	16.834883	96.180404
14	22	1060	Sae-Chauk Kwae	(၁၆) ကွေ့	Yadanar Road	ရတနာလမ်း	Thingangyun	သင်္ဃန်းကျွန်း	16.833882	96.176488
14	23	1050	Than Lan	သံလမ်း	Yadanar Road	ရတနာလမ်း	Yankin	ရန်ကင်း	16.83381	96.172897
14	24	1042	Kyauk Kone	ကျောက်ကုန်း	Moe Kaung Road	မိုးကောင်းလမ်း	Yankin	ရန်ကင်း	16.831469	96.169935
14	25	337	Hmat Tan Yone	မှတ်တမ်းရုံး	Moe Kaung Road	မိုးကောင်းလမ်း	Yankin	ရန်ကင်း	16.827556	96.170742
14	26	334	Awine Lay	အဝိုင်းလေး	Moe Kaung Road	မိုးကောင်းလမ်း	Yankin	ရန်ကင်း	16.825246	96.171418
14	27	339	Kalar Zay	ကုလားဈေး	East Horse Race Course Road	အရှေ့မြင်းပြိုင်လမ်း	Tamwe	တာမွေ	16.82238	96.171954
14	28	345	Lan Sone	လမ်းဆုံ	East Horse Race Course Road	အရှေ့မြင်းပြိုင်လမ်း	Tamwe	တာမွေ	16.819269	96.172287
14	29	343	Kyaung Shae	ကျောင်းရှေ့	East Horse Race Course Road	အရှေ့မြင်းပြိုင်လမ်း	Tamwe	တာမွေ	16.815458	96.17248
14	30	236	Awine Htate/ Tamwe	အဝိုင်းထိပ်/ တာမွေ	West Horse Race Course Road	အနောက်မြင်းပြိုင်လမ်း	Tamwe	တာမွေ	16.81189	96.170888
14	31	350	Mya Lan	မြလမ်း	West Horse Race Course Road	အနောက်မြင်းပြိုင်လမ်း	Bahan	ဗဟန်း	16.815982	96.16806
14	32	347	Lan Sone	လမ်းဆုံ	U Chit Maung Road	ဦးချစ်မောင်လမ်း	Bahan	ဗဟန်း	16.817595	96.16674
14	33	348	Min Lan	မင်းလမ်း	U Chit Maung Road	ဦးချစ်မောင်လမ်း	Bahan	ဗဟန်း	16.819495	96.165249
14	34	354	Zay Kwae	ဈေးကွေ့	U Chit Maung Road	ဦးချစ်မောင်လမ်း	Bahan	ဗဟန်း	16.822524	96.162824
14	35	341	Kyar Hmat Taing	ကြားမှတ်တိုင်	Yankin Road	ရန်ကင်းလမ်း	Yankin	ရန်ကင်း	16.829251	96.163823
14	36	331	Yankin Zay	ရန်ကင်းဈေး	Yanshin Street	ရန်ရှင်းလမ်းသွယ်	Yankin	ရန်ကင်း	16.82892	96.159207
14	37	327	Set Hmu Tit	စက်မှု (၁)	No. 1 Industrial Road	အမှတ်(၁)စက်မှုဇုန်လမ်း	Yankin	ရန်ကင်း	16.827587	96.157256
14	38	1246	Lan Ni	လမ်းနီ	Kabar Aye Pagoda Road	ကမ္ဘာအေးဘုရားလမ်း	Mayangone	မရမ်းကုန်း	16.828542	96.154402
14	39	2341	Koke Kine	ကုက္ကိုင်း	University Avenue Road	တက္ကသိုလ်ရိပ်သာလမ်း	Bahan	ဗဟန်း	16.823467	96.152954
14	40	2325	Inya Myaing	အင်ယာမြိုင်	University Avenue Road	တက္ကသိုလ်ရိပ်သာလမ်း	Bahan	ဗဟန်း	16.824687	96.146726
14	41	2327	Thanlwin	သံလွင်	University Avenue Road	တက္ကသိုလ်ရိပ်သာလမ်း	Bahan	ဗဟန်း	16.824228	96.145139
14	42	2335	UFL	ယူအပ်ဖ်အယ်	University Avenue Road	တက္ကသိုလ်ရိပ်သာလမ်း	Bahan	ဗဟန်း	16.825153	96.142351
14	43	2333	Kyuanlan	ကျောင်းလမ်း	University Avenue Road	တက္ကသိုလ်ရိပ်သာလမ်း	Kamayut	ကမာရွတ်	16.825767	96.138751
14	44	318	Kyaung Shae/ Dhamar Yon	ကျောင်းရှေ့/ဓမ္မာရုံ	University Avenue Road	တက္ကသိုလ်ရိပ်သာလမ်း	Kamayut	ကမာရွတ်	16.826485	96.132192
14	45	290	Hledan Zay	လှည်းတန်းဈေး	Hledan Road	လှည်းတန်းလမ်း	Kamayut	ကမာရွတ်	16.826724	96.128694
14	46	295	Kyaung Shae/ Kone Sin	ကျောင်းရှေ့/ကုန်းဆင်း	Hledan Road	လှည်းတန်းလမ်း	Kamayut	ကမာရွတ်	16.825525	96.126583
14	47	302	Sinmalite	ဆင်မလိုက်	Kyee Myin Daing Kannar Road	ကြည့်မြင်တိုင်ကမ်းနားလမ်း	Kyee Myin Daing	ကြည့်မြင်တိုင်	16.81971	96.121852
14	48	278	Nat Sin Lan	နတ်စင်လမ်း	Kyee Myin Daing Kannar Road	ကြည့်မြင်တိုင်ကမ်းနားလမ်း	Kyee Myin Daing	ကြည့်မြင်တိုင်	16.814719	96.121878
14	49	292	Kannar Zay	ကမ်းနားဈေး	Kyee Myin Daing Kannar Road	ကြည့်မြင်တိုင်ကမ်းနားလမ်း	Kyee Myin Daing	ကြည့်မြင်တိုင်	16.812526	96.121868
14	50	259	Kyee Myin Daing Nya Zay	ကြည့်မြင်တိုင်ညဈေး	Kyee Myin Daing Kannar Road	ကြည့်မြင်တိုင်ကမ်းနားလမ်း	Kyee Myin Daing	ကြည့်မြင်တိုင်	16.809214	96.121878
14	51	253	Sar Taik	စာတိုက်	Kyee Myin Daing Kannar Road	ကြည့်မြင်တိုင်ကမ်းနားလမ်း	Kyee Myin Daing	ကြည့်မြင်တိုင်	16.804277	96.122225
14	52	242	Thal Kwin	သဲကွင်း	Kyee Myin Daing Kannar Road	ကြည့်မြင်တိုင်ကမ်းနားလမ်း	Kyee Myin Daing	ကြည့်မြင်တိုင်	16.800962	96.122147
14	53	240	Home Lan	ဟုမ်းလမ်း	Kyee Myin Daing Kannar Road	ကြည့်မြင်တိုင်ကမ်းနားလမ်း	Kyee Myin Daing	ကြည့်မြင်တိုင်	16.797896	96.122211
14	54	91	Thiri Mingalar Zay	သီရိမင်္ဂလာဈေး	Kyee Myin Daing Kannar Road	ကြည့်မြင်တိုင်ကမ်းနားလမ်း	Ahlone	အလုံ	16.793428	96.122795
14	55	88	Kwin Kyaung	ကွင်းကျောင်း	Kyee Myin Daing Kannar Road	ကြည့်မြင်တိုင်ကမ်းနားလမ်း	Ahlone	အလုံ	16.791815	96.122913
14	56	90	Sin Min Zay	ဆင်မင်းဈေး	Kyee Myin Daing Kannar Road	ကြည့်မြင်တိုင်ကမ်းနားလမ်း	Ahlone	အလုံ	16.789104	96.123911
14	57	103	Thit Taw	သစ်တော	Kyee Myin Daing Kannar Road	ကြည့်မြင်တိုင်ကမ်းနားလမ်း	Ahlone	အလုံ	16.782319	96.127736
14	58	102	Htaw Li Kwae	ထော်လီကွေ့	Kyee Myin Daing Kannar Road	ကြည့်မြင်တိုင်ကမ်းနားလမ်း	Ahlone	အလုံ	16.781487	96.130064
14	59	114	Thakhin Mya Pan Chan	သခင်မြပန်းခြံ	Kyee Myin Daing Kannar Road	ကြည့်မြင်တိုင်ကမ်းနားလမ်း	Ahlone	အလုံ	16.77837	96.135665
14	60	115	Thakhin Mya Pan Chan	သခင်မြပန်းခြံ	Kyee Myin Daing Kannar Road	ကြည့်မြင်တိုင်ကမ်းနားလမ်း	Ahlone	အလုံ	16.778411	96.135751
14	61	101	Htaw Li Kwae	ထော်လီကွေ့	Kyee Myin Daing Kannar Road	ကြည့်မြင်တိုင်ကမ်းနားလမ်း	Ahlone	အလုံ	16.781456	96.130241
14	62	104	Thit Taw	သစ်တော	Kyee Myin Daing Kannar Road	ကြည့်မြင်တိုင်ကမ်းနားလမ်း	Ahlone	အလုံ	16.782371	96.127844
14	63	89	Sin Min Zay	ဆင်မင်းဈေး	Kyee Myin Daing Kannar Road	ကြည့်မြင်တိုင်ကမ်းနားလမ်း	Ahlone	အလုံ	16.788559	96.12435
14	64	87	Kwin Kyaung	ကွင်းကျောင်း	Kyee Myin Daing Kannar Road	ကြည့်မြင်တိုင်ကမ်းနားလမ်း	Ahlone	အလုံ	16.791661	96.123235
14	65	92	Thiri Mingalar Zay	သီရိမင်္ဂလာဈေး	Kyee Myin Daing Kannar Road	ကြည့်မြင်တိုင်ကမ်းနားလမ်း	Ahlone	အလုံ	16.79352	96.123042
14	66	241	Home Lan	ဟုမ်းလမ်း	Kyee Myin Daing Kannar Road	ကြည့်မြင်တိုင်ကမ်းနားလမ်း	Kyee Myin Daing	ကြည့်မြင်တိုင်	16.797947	96.122286
14	67	243	Thal Kwin	သဲကွင်း	Kyee Myin Daing Kannar Road	ကြည့်မြင်တိုင်ကမ်းနားလမ်း	Kyee Myin Daing	ကြည့်မြင်တိုင်	16.801121	96.122232
14	68	252	Sar Taik	စာတိုက်	Kyee Myin Daing Kannar Road	ကြည့်မြင်တိုင်ကမ်းနားလမ်း	Kyee Myin Daing	ကြည့်မြင်တိုင်	16.804197	96.12219
14	69	258	Kyee Myin Daing Nya Zay	ကြည့်မြင်တိုင်ညဈေး	Kyee Myin Daing Kannar Road	ကြည့်မြင်တိုင်ကမ်းနားလမ်း	Kyee Myin Daing	ကြည့်မြင်တိုင်	16.809245	96.121959
14	70	291	Kannar Zay	ကမ်းနားဈေး	Kyee Myin Daing Kannar Road	ကြည့်မြင်တိုင်ကမ်းနားလမ်း	Kyee Myin Daing	ကြည့်မြင်တိုင်	16.812434	96.121964
14	71	277	Nat Sin Lan	နတ်စင်လမ်း	Kyee Myin Daing Kannar Road	ကြည့်မြင်တိုင်ကမ်းနားလမ်း	Kyee Myin Daing	ကြည့်မြင်တိုင်	16.814693	96.121959
14	72	301	Sinmalite	ဆင်မလိုက်	Kyee Myin Daing Kannar Road	ကြည့်မြင်တိုင်ကမ်းနားလမ်း	Kyee Myin Daing	ကြည့်မြင်တိုင်	16.819181	96.121916
14	73	296	Kyaung Shae/ Kone Sin	ကျောင်းရှေ့/ကုန်းဆင်း	Hledan Road	လှည်းတန်းလမ်း	Kamayut	ကမာရွတ်	16.825466	96.126589
14	74	289	Hledan Zay	လှည်းတန်းဈေး	Hledan Road	လှည်းတန်းလမ်း	Kamayut	ကမာရွတ်	16.826457	96.128887
14	75	2194	Kyaung Shae/ Dhamar Yon	ကျောင်းရှေ့/ဓမ္မာရုံ	University Avenue Road	တက္ကသိုလ်ရိပ်သာလမ်း	Kamayut	ကမာရွတ်	16.826282	96.132817
14	76	2331	Kyuanlan	ကျောင်းလမ်း	University Avenue Road	တက္ကသိုလ်ရိပ်သာလမ်း	Kamayut	ကမာရွတ်	16.825918	96.13846
14	77	2329	UFL	ယူအပ်ဖ်အယ်	University Avenue Road	တက္ကသိုလ်ရိပ်သာလမ်း	Bahan	ဗဟန်း	16.825133	96.142044
14	78	2337	Thanlwin	သံလွင်	University Avenue Road	တက္ကသိုလ်ရိပ်သာလမ်း	Bahan	ဗဟန်း	16.824134	96.145239
14	79	2339	Inya Myaing	အင်ယာမြိုင်	University Avenue Road	တက္ကသိုလ်ရိပ်သာလမ်း	Bahan	ဗဟန်း	16.824589	96.146864
14	80	2323	Koke Kine	ကုက္ကိုင်း	University Avenue Road	တက္ကသိုလ်ရိပ်သာလမ်း	Bahan	ဗဟန်း	16.823614	96.152889
14	82	326	Set Hmu Tit	စက်မှု (၁)	No. 1 Industrial Road	အမှတ်(၁)စက်မှုဇုန်လမ်း	Yankin	ရန်ကင်း	16.827675	96.15721
14	83	330	Yankin Zay	ရန်ကင်းဈေး	Yanshin Street	ရန်ရှင်းလမ်းသွယ်	Yankin	ရန်ကင်း	16.828858	96.15917
14	84	340	Kyar Hmat Taing	ကြားမှတ်တိုင်	Yankin Road	ရန်ကင်းလမ်း	Yankin	ရန်ကင်း	16.828979	96.163769
14	85	355	Zay Kwae	ဈေးကွေ့	U Chit Maung Road	ဦးချစ်မောင်လမ်း	Bahan	ဗဟန်း	16.82237	96.162695
14	86	349	Min Lan	မင်းလမ်း	U Chit Maung Road	ဦးချစ်မောင်လမ်း	Bahan	ဗဟန်း	16.819669	96.164948
14	87	346	Lan Sone	လမ်းဆုံ	U Chit Maung Road	ဦးချစ်မောင်လမ်း	Bahan	ဗဟန်း	16.817574	96.166547
14	88	351	Mya Lan	မြလမ်း	West Horse Race Course Road	အနောက်မြင်းပြိုင်လမ်း	Bahan	ဗဟန်း	16.816393	96.16748
14	89	237	Awine Htate/ Tamwe	အဝိုင်းထိပ်/ တာမွေ	West Horse Race Course Road	အနောက်မြင်းပြိုင်လမ်း	Tamwe	တာမွေ	16.811941	96.170957
14	90	342	Kyaung Shae	ကျောင်းရှေ့	East Horse Race Course Road	အရှေ့မြင်းပြိုင်လမ်း	Tamwe	တာမွေ	16.815407	96.172652
14	91	344	Lan Sone	လမ်းဆုံ	East Horse Race Course Road	အရှေ့မြင်းပြိုင်လမ်း	Tamwe	တာမွေ	16.81895	96.17248
14	92	338	Kalar Zay	ကုလားဈေး	East Horse Race Course Road	အရှေ့မြင်းပြိုင်လမ်း	Tamwe	တာမွေ	16.822483	96.172094
14	93	335	Awine Lay	အဝိုင်းလေး	Moe Kaung Road	မိုးကောင်းလမ်း	Yankin	ရန်ကင်း	16.825667	96.171504
14	94	336	Hmat Tan Yone	မှတ်တမ်းရုံး	Moe Kaung Road	မိုးကောင်းလမ်း	Yankin	ရန်ကင်း	16.82733	96.171032
14	95	1041	Kyauk Kone	ကျောက်ကုန်း	Moe Kaung Road	မိုးကောင်းလမ်း	Yankin	ရန်ကင်း	16.831222	96.169528
14	96	1049	Than Lan	သံလမ်း	Yadanar Road	ရတနာလမ်း	Yankin	ရန်ကင်း	16.833502	96.172961
14	97	1059	Sae-Chauk Kwae	(၁၆) ကွေ့	Yadanar Road	ရတနာလမ်း	Thingangyun	သင်္ဃန်းကျွန်း	16.833764	96.176424
14	98	1055	Kalar Paya	ကုလားဘုရား	Yadanar Road	ရတနာလမ်း	Thingangyun	သင်္ဃန်းကျွန်း	16.834791	96.180452
14	99	1070	Yadanar Zay	ရတနာဈေး	Yadanar Road	ရတနာလမ်း	Thingangyun	သင်္ဃန်းကျွန်း	16.835869	96.18307
14	100	11	(Sae-Lay/ Sae-Ngar) Lan Sone	(၁၄/၁၅) လမ်းဆုံ	Yadanar Road	ရတနာလမ်း	Thingangyun	သင်္ဃန်းကျွန်း	16.83685	96.185887
14	101	611	Kyaikkasan Paya	ကျိုက္ကစံဘုရား	Yadanar Road	ရတနာလမ်း	Thingangyun	သင်္ဃန်းကျွန်း	16.838123	96.189955
14	102	605	Gate Haung	ဂိတ်ဟောင်း	Yadanar Road	ရတနာလမ်း	South Okkalapa	တောင်ဥက္ကလာပ	16.83915	96.193324
14	103	595	Ar Nandar Paya	အာနန္ဒာဘုရား	Yadanar Road	ရတနာလမ်း	Thingangyun	သင်္ဃန်းကျွန်း	16.840423	96.194977
14	104	599	Bawa Myint	ဘဝမြင့်	Yadanar Road	ရတနာလမ်း	Thingangyun	သင်္ဃန်းကျွန်း	16.841656	96.196414
14	105	593	Daywadaha	ဒေဝဒဟ	Yadanar Road	ရတနာလမ်း	Thingangyun	သင်္ဃန်းကျွန်း	16.843956	96.198989
14	106	1090	Se Man Kane	စီမံကိန်း	Thanthumar Road	သံသုမာလမ်း	South Okkalapa	တောင်ဥက္ကလာပ	16.84756	96.19854
14	107	1088	Thone-sae-tit Gate/ Tit Gate	(၃၁) ဂိတ်/(၁) ဂိတ်	Thanthumar Road	သံသုမာလမ်း	South Okkalapa	တောင်ဥက္ကလာပ	16.849018	96.194105
14	108	1087	Moe Swe	မိုးစွေ	Thanthumar Road	သံသုမာလမ်း	South Okkalapa	တောင်ဥက္ကလာပ	16.85024	96.189614
14	109	2129	Kyaetamar	ကျေးတမာ	Thanthumar Road	သံသုမာလမ်း	South Okkalapa	တောင်ဥက္ကလာပ	16.851082	96.187769
14	110	1083	Taung Okkalar Paya	တောင်ဥက္ကလာပဘုရား	Thanthumar Road	သံသုမာလမ်း	South Okkalapa	တောင်ဥက္ကလာပ	16.852869	96.185483
14	111	2127	Thanat Pyit Kwin	သေနတ်ပစ်ကွင်း	Thanthumar Road	သံသုမာလမ်း	South Okkalapa	တောင်ဥက္ကလာပ	16.854594	96.183885
14	112	1079	Myin Thar Zay	မြင်သာဈေး	Thanthumar Road	သံသုမာလမ်း	South Okkalapa	တောင်ဥက္ကလာပ	16.856863	96.181911
14	113	1075	Bay Li	ဘေလီ	Thanthumar Road	သံသုမာလမ်း	South Okkalapa	တောင်ဥက္ကလာပ	16.859851	96.178992
14	114	977	Nar Yee Sin	နာရီစင်	Pin Lon Road	ပင်လုံလမ်း	North Dagon	မြောက်ဒဂုံ	16.865765	96.182681
14	115	990	Thin Win	သင်းဝင်	Pin Lon Road	ပင်လုံလမ်း	North Dagon	မြောက်ဒဂုံ	16.866484	96.184355
14	116	992	Thone-sae-ngar Kwae	(၃၅) ကွေ့	Pin Lon Road	ပင်လုံလမ်း	North Dagon	မြောက်ဒဂုံ	16.867983	96.186951
14	117	1000	Settwe Yae	ဆက်သွယ်ရေး	Pin Lon Road	ပင်လုံလမ်း	North Dagon	မြောက်ဒဂုံ	16.869461	96.19002
14	118	997	Kyaung Lan	ကျောင်းလမ်း	Pin Lon Road	ပင်လုံလမ်း	North Dagon	မြောက်ဒဂုံ	16.871474	96.193045