svc_name	sequence	stop_id	name_en	name_mm	road_en	road_mm	township_en	township_mm	lat	lng
2	1	791	Sae-Tit Lan	(၁၁) လမ်း	Kyun Shwe Wah Road	ကျွန်းရွှေဝါလမ်း	Dagon Seikkan	ဒဂုံဆိပ်ကမ်း	16.823294	96.267697
2	2	2345	Thone-Sae-Hnit Gate	(၃၂) ဂိတ်	Kyun Shwe Wah Road	ကျွန်းရွှေဝါလမ်း	South Dagon	တောင်ဒဂုံ	16.821399	96.26605
2	3	641	Sauk Lote Yae	ဆောက်လုပ်ရေး	Pyi Htaung Su Main Road	ပြည်ထောင်စုလမ်းမကြီး	South Dagon	တောင်ဒဂုံ	16.828696	96.24063
2	4	662	Sittaung Lan Htate	စစ်တောင်းလမ်းထိပ်	Pyi Htaung Su Main Road	ပြည်ထောင်စုလမ်းမကြီး	South Dagon	တောင်ဒဂုံ	16.831941	96.234262
2	5	659	Shwe Taung Kyar Lan	ရွှေတောင်ကြားလမ်း	Pyi Htaung Su Main Road	ပြည်ထောင်စုလမ်းမကြီး	South Dagon	တောင်ဒဂုံ	16.834036	96.234201
2	6	649	Ayeyarwaddy Lan Htate	ဧရာဝတီလမ်းထိပ်	Pyi Htaung Su Main Road	ပြည်ထောင်စုလမ်းမကြီး	South Dagon	တောင်ဒဂုံ	16.837404	96.233312
2	7	658	Set Hmu Zone Zay	စက်မှုဇုံဈေး	Pyi Htaung Su Main Road	ပြည်ထောင်စုလမ်းမကြီး	South Dagon	တောင်ဒဂုံ	16.838801	96.232545
2	8	653	Kyar Kan	ကြာကန်	Hlawga Road	လှော်ကားလမ်း	Shwe Pyithar	ရွှေပြည်သာ	16.84375	96.231433
2	9	667	Thitsar	သစ္စာ	Hlawga Road	လှော်ကားလမ်း	Shwe Pyithar	ရွှေပြည်သာ	16.845599	96.232957
2	10	706	Kone Taik	ကုန်တိုက်	Hlawga Road	လှော်ကားလမ်း	South Dagon	တောင်ဒဂုံ	16.848073	96.234933
2	11	703	Hnit-sae Zay	(၂၀) ဈေး	Hlawga Road	လှော်ကားလမ်း	Shwe Pyithar	ရွှေပြည်သာ	16.849573	96.236241
2	12	705	Kar Lay Gate	ကားလေးဂိတ်	Hlawga Road	လှော်ကားလမ်း	South Dagon	တောင်ဒဂုံ	16.851626	96.238001
2	13	719	Phone Gyi Kyaung Kwae	ဘုန်းကြီးကျောင်းကွေ့	Hlawga Road	လှော်ကားလမ်း	South Dagon	တောင်ဒဂုံ	16.854162	96.24019
2	14	724	Tadar Htate	တံတားထိပ်	Maungmakan Kantha Road	မောင်းမကန်ကန်သာလမ်း	South Dagon	တောင်ဒဂုံ	16.856103	96.237529
2	15	711	Kun Yar Saing	ကွမ်းယာဆိုင်	Maungmakan Kantha Road	မောင်းမကန်ကန်သာလမ်း	South Dagon	တောင်ဒဂုံ	16.860241	96.232442
2	16	694	Myo Oo Kyaung	မြို့ဦးကျောင်း	Maungmakan Kantha Road	မောင်းမကန်ကန်သာလမ်း	South Dagon	တောင်ဒဂုံ	16.861822	96.230308
2	17	680	Taung Myauk Lan Sone	တောင်/မြောက်လမ်းဆုံ	No. 2 Main Road	အမှတ်(၂)လမ်းမ	South Dagon	တောင်ဒဂုံ	16.863198	96.21628
2	20	1613	Myo Oo Zedi	မြို့ဦးစေတီ	Pyi Htaung Su Main Road	ပြည်ထောင်စုလမ်းမကြီး	North Dagon	မြောက်ဒဂုံ	16.862623	96.212615
2	21	1010	Tadar Htate	တံတားထိပ်	Pyi Htaung Su Main Road	ပြည်ထောင်စုလမ်းမကြီး	North Dagon	မြောက်ဒဂုံ	16.866278	96.209139
2	22	2348	Ka Pa Ya	ကပရ	Pyi Htaung Su Main Road	ပြည်ထောင်စုလမ်းမကြီး	North Dagon	မြောက်ဒဂုံ	16.869967	96.207591
2	23	2347	Arr Kasar Kwin	အားကစားကွင်း	Pyi Htaung Su Main Road	ပြည်ထောင်စုလမ်းမကြီး	North Dagon	မြောက်ဒဂုံ	16.872727	96.206464
2	24	1008	Ma Wa Ta	မဝတ	Pyi Htaung Su Main Road	ပြည်ထောင်စုလမ်းမကြီး	North Dagon	မြောက်ဒဂုံ	16.877393	96.204419
2	25	1005	Swan In	စွမ်းအင်	Pyi Htaung Su Main Road	ပြည်ထောင်စုလမ်းမကြီး	North Dagon	မြောက်ဒဂုံ	16.880857	96.202573
2	26	929	Kone Padaythar	ကုန်ပဒေသာ	Pyi Htaung Su Main Road	ပြည်ထောင်စုလမ်းမကြီး	North Dagon	မြောက်ဒဂုံ	16.884656	96.200534
2	27	881	Yone Shae	ရုံးရှေ့	Pyi Htaung Su Main Road	ပြည်ထောင်စုလမ်းမကြီး	North Dagon	မြောက်ဒဂုံ	16.887581	96.198817
2	28	927	Khun/ Shit Lan Sone	(၇/၈) လမ်းဆုံ	Pyi Htaung Su Main Road	ပြည်ထောင်စုလမ်းမကြီး	North Dagon	မြောက်ဒဂုံ	16.892417	96.196178
2	29	935	Lay-sae-nga Hmat Taing	(၄၅) မှတ်တိုင်	Pyi Htaung Su Main Road	ပြည်ထောင်စုလမ်းမကြီး	North Dagon	မြောက်ဒဂုံ	16.894696	96.194934
2	30	1022	Lay-sae-chauk Lan Sone	(၄၆) လမ်းဆုံ	Bo Hmu Ba Htoo Road	ဗိုလ်မှူးဗထူးလမ်း	North Dagon	မြောက်ဒဂုံ	16.898695	96.192646
2	32	931	Kyar Hmat Taing	ကြားမှတ်တိုင်	Bo Hmu Ba Htoo Road	ဗိုလ်မှူးဗထူးလမ်း	North Dagon	မြောက်ဒဂုံ	16.897899	96.190642
2	33	903	Ba Htoo Zay	ဗထူးဈေး	Bo Hmu Ba Htoo Road	ဗိုလ်မှူးဗထူးလမ်း	North Dagon	မြောက်ဒဂုံ	16.895887	96.186908
2	34	905	Banyardala	ဗညားဒလ	Bo Hmu Ba Htoo Road	ဗိုလ်မှူးဗထူးလမ်း	North Dagon	မြောက်ဒဂုံ	16.894943	96.18502
2	35	917	Kyaung Lay Shae	ကျောင်းလေးရှေ့	Bo Hmu Ba Htoo Road	ဗိုလ်မှူးဗထူးလမ်း	North Dagon	မြောက်ဒဂုံ	16.893916	96.18296
2	36	919	Lay-sae-lay Lan Sone	(၄၄) လမ်းဆုံ	Bo Hmu Ba Htoo Road	ဗိုလ်မှူးဗထူးလမ်း	North Dagon	မြောက်ဒဂုံ	16.892889	96.181029
2	37	915	Kyan Mar Yae	ကျန်းမာရေး	Bo Hmu Ba Htoo Road	ဗိုလ်မှူးဗထူးလမ်း	North Dagon	မြောက်ဒဂုံ	16.891657	96.178583
2	38	899	Kyaung Kwae	ကျောင်းကွေ့	Bo Hmu Ba Htoo Road	ဗိုလ်မှူးဗထူးလမ်း	North Dagon	မြောက်ဒဂုံ	16.889707	96.174892
2	39	901	Phyo Sabei	ဖြိုးစံပယ်	Bo Hmu Ba Htoo Road	ဗိုလ်မှူးဗထူးလမ်း	North Dagon	မြောက်ဒဂုံ	16.887715	96.170794
2	40	897	Khay Mar	ခေမာ	Bo Hmu Ba Htoo Road	ဗိုလ်မှူးဗထူးလမ်း	North Dagon	မြောက်ဒဂုံ	16.886011	96.167554
2	41	894	Gandar Yon	ဂန္ဓာရုံ	Bo Hmu Ba Htoo Road	ဗိုလ်မှူးဗထူးလမ်း	North Dagon	မြောက်ဒဂုံ	16.886627	96.164271
2	42	1822	Gate Haung	ဂိတ်ဟောင်း	Industrial Road	စက်မှုဇုန်လမ်း	North Okkalapa	မြောက်ဥက္ကလာပ	16.893798	96.157713
2	43	891	Yone Thit	ရုံးသစ်	Khaymarthi Road	ခေမာသီလမ်း	North Okkalapa	မြောက်ဥက္ကလာပ	16.895877	96.155904
2	44	797	May Dar Wi	မေဓာဝီ	Khaymarthi Road	ခေမာသီလမ်း	North Okkalapa	မြောက်ဥက္ကလာပ	16.899234	96.155035
2	45	801	Oakkar	ဥက္ကာ	Khaymarthi Road	ခေမာသီလမ်း	North Okkalapa	မြောက်ဥက္ကလာပ	16.902611	96.15467
2	46	807	Yone	ရုံး	Khaymarthi Road	ခေမာသီလမ်း	North Okkalapa	မြောက်ဥက္ကလာပ	16.906199	96.154768
2	47	800	Mya Yadanar	ဲမြရတနာ	Khaymarthi Road	ခေမာသီလမ်း	North Okkalapa	မြောက်ဥက္ကလာပ	16.908739	96.155967
2	48	795	Nwe Thar Gi	နွယ်သာဂီ	Khaymarthi Road	ခေမာသီလမ်း	North Okkalapa	မြောက်ဥက္ကလာပ	16.909601	96.156623
2	49	805	Yoke Shin Yon	ရုပ်ရှင်ရုံ	Khaymarthi Road	ခေမာသီလမ်း	North Okkalapa	မြောက်ဥက္ကလာပ	16.911152	96.1601
2	50	867	Za-myin-zwe Zay	(ဈ) ဈေး	Khaymarthi Road	ခေမာသီလမ်း	North Okkalapa	မြောက်ဥက္ကလာပ	16.911644	96.161912
2	52	849	Kan Tharyar	ကန်သာယာ	Thudhamar Road	သုဓမ္မာလမ်း	North Okkalapa	မြောက်ဥက္ကလာပ	16.913081	96.165506
2	53	1823	Ayar	ဧရာ	Thudhamar Road	သုဓမ္မာလမ်း	North Okkalapa	မြောက်ဥက္ကလာပ	16.917321	96.163725
2	54	818	Chauk Kwae	(၆) ကွေ့	Thudhamar Road	သုဓမ္မာလမ်း	North Okkalapa	မြောက်ဥက္ကလာပ	16.919091	96.162873
2	55	810	Dhamar Yon	ဓမ္မာရုံ	Thudhamar Road	သုဓမ္မာလမ်း	North Okkalapa	မြောက်ဥက္ကလာပ	16.924198	96.158284
2	56	813	Aung Mingalar A Way Pyay	အောင်မင်္ဂလာအဝေးပြေး	Thudhamar Road	သုဓမ္မာလမ်း	North Okkalapa	မြောက်ဥက္ကလာပ	16.926517	96.156374
2	57	812	Aung Mingalar A Way Pyay	အောင်မင်္ဂလာအဝေးပြေး	Thudhamar Road	သုဓမ္မာလမ်း	North Okkalapa	မြောက်ဥက္ကလာပ	16.926456	96.155924
2	58	809	Dhamar Yon	ဓမ္မာရုံ	Thudhamar Road	သုဓမ္မာလမ်း	North Okkalapa	မြောက်ဥက္ကလာပ	16.924116	96.157726
2	59	819	Chauk Kwae	(၆) ကွေ့	Thudhamar Road	သုဓမ္မာလမ်း	North Okkalapa	မြောက်ဥက္ကလာပ	16.918552	96.162986
2	60	850	Kan Tharyar	ကန်သာယာ	Thudhamar Road	သုဓမ္မာလမ်း	North Okkalapa	မြောက်ဥက္ကလာပ	16.913133	96.165152
2	61	2181	Za-myin-zwe Zay	(ဈ) ဈေး	Khaymarthi Road	ခေမာသီလမ်း	North Okkalapa	မြောက်ဥက္ကလာပ	16.911921	96.162084
2	62	806	Yoke Shin Yon	ရုပ်ရှင်ရုံ	Khaymarthi Road	ခေမာသီလမ်း	North Okkalapa	မြောက်ဥက္ကလာပ	16.911275	96.160062
2	63	796	Nwe Thar Gi	နွယ်သာဂီ	Khaymarthi Road	ခေမာသီလမ်း	North Okkalapa	မြောက်ဥက္ကလာပ	16.909951	96.156719
2	64	799	Mya Yadanar	ဲမြရတနာ	Khaymarthi Road	ခေမာသီလမ်း	North Okkalapa	မြောက်ဥက္ကလာပ	16.908226	96.155108
2	65	808	Yone	ရုံး	Khaymarthi Road	ခေမာသီလမ်း	North Okkalapa	မြောက်ဥက္ကလာပ	16.906204	96.154612
2	66	802	Oakkar	ဥက္ကာ	Khaymarthi Road	ခေမာသီလမ်း	North Okkalapa	မြောက်ဥက္ကလာပ	16.903042	96.154445
2	67	798	May Dar Wi	မေဓာဝီ	Khaymarthi Road	ခေမာသီလမ်း	North Okkalapa	မြောက်ဥက္ကလာပ	16.899973	96.154552
2	68	892	Yone Thit	ရုံးသစ်	Khaymarthi Road	ခေမာသီလမ်း	North Okkalapa	မြောက်ဥက္ကလာပ	16.895928	96.155689
2	69	884	Gate Haung	ဂိတ်ဟောင်း	Industrial Road	စက်မှုဇုန်လမ်း	North Okkalapa	မြောက်ဥက္ကလာပ	16.893741	96.157579
2	70	893	Gandar Yon	ဂန္ဓာရုံ	Bo Hmu Ba Htoo Road	ဗိုလ်မှူးဗထူးလမ်း	North Dagon	မြောက်ဒဂုံ	16.886442	96.163949
2	71	896	Khay Mar	ခေမာ	Bo Hmu Ba Htoo Road	ဗိုလ်မှူးဗထူးလမ်း	North Dagon	မြောက်ဒဂုံ	16.885703	96.167983
2	72	900	Phyo Sabei	ဖြိုးစံပယ်	Bo Hmu Ba Htoo Road	ဗိုလ်မှူးဗထူးလမ်း	North Dagon	မြောက်ဒဂုံ	16.887325	96.170987
2	73	898	Kyaung Kwae	ကျောင်းကွေ့	Bo Hmu Ba Htoo Road	ဗိုလ်မှူးဗထူးလမ်း	North Dagon	မြောက်ဒဂုံ	16.889337	96.175064
2	74	914	Kyan Mar Yae	ကျန်းမာရေး	Bo Hmu Ba Htoo Road	ဗိုလ်မှူးဗထူးလမ်း	North Dagon	မြောက်ဒဂုံ	16.891267	96.178755
2	75	918	Lay-sae-lay Lan Sone	(၄၄) လမ်းဆုံ	Bo Hmu Ba Htoo Road	ဗိုလ်မှူးဗထူးလမ်း	North Dagon	မြောက်ဒဂုံ	16.892458	96.181029
2	76	916	Kyaung Lay Shae	ကျောင်းလေးရှေ့	Bo Hmu Ba Htoo Road	ဗိုလ်မှူးဗထူးလမ်း	North Dagon	မြောက်ဒဂုံ	16.893546	96.183068
2	77	904	Banyardala	ဗညားဒလ	Bo Hmu Ba Htoo Road	ဗိုလ်မှူးဗထူးလမ်း	North Dagon	မြောက်ဒဂုံ	16.894655	96.185235
2	78	902	Ba Htoo Zay	ဗထူးဈေး	Bo Hmu Ba Htoo Road	ဗိုလ်မှူးဗထူးလမ်း	North Dagon	မြောက်ဒဂုံ	16.895476	96.187123
2	79	930	Kyar Hmat Taing	ကြားမှတ်တိုင်	Bo Hmu Ba Htoo Road	ဗိုလ်မှူးဗထူးလမ်း	North Dagon	မြောက်ဒဂုံ	16.897447	96.190685
2	80	1021	Lay-sae-chauk Lan Sone	(၄၆) လမ်းဆုံ	Bo Hmu Ba Htoo Road	ဗိုလ်မှူးဗထူးလမ်း	North Dagon	မြောက်ဒဂုံ	16.8985	96.192522
2	81	936	Lay-sae-nga Hmat Taing	(၄၅) မှတ်တိုင်	Pyi Htaung Su Main Road	ပြည်ထောင်စုလမ်းမကြီး	North Dagon	မြောက်ဒဂုံ	16.895189	96.194161
2	82	2350	Khun/ Shit Lan Sone	(၇/၈) လမ်းဆုံ	Pyi Htaung Su Main Road	ပြည်ထောင်စုလမ်းမကြီး	North Dagon	မြောက်ဒဂုံ	16.892201	96.195899
2	83	880	Yone Shae	ရုံးရှေ့	Pyi Htaung Su Main Road	ပြည်ထောင်စုလမ်းမကြီး	North Dagon	မြောက်ဒဂုံ	16.887499	96.198531
2	84	928	Kone Padaythar	ကုန်ပဒေသာ	Pyi Htaung Su Main Road	ပြည်ထောင်စုလမ်းမကြီး	North Dagon	မြောက်ဒဂုံ	16.88443	96.200105
2	85	1004	Swan In	စွမ်းအင်	Pyi Htaung Su Main Road	ပြည်ထောင်စုလမ်းမကြီး	North Dagon	မြောက်ဒဂုံ	16.880652	96.202251
2	86	2346	Ma Wa Ta	မဝတ	Pyi Htaung Su Main Road	ပြည်ထောင်စုလမ်းမကြီး	North Dagon	မြောက်ဒဂုံ	16.876906	96.204372
2	87	1006	Arr Kasar Kwin	အားကစားကွင်း	Pyi Htaung Su Main Road	ပြည်ထောင်စုလမ်းမကြီး	North Dagon	မြောက်ဒဂုံ	16.872665	96.20622
2	88	1007	Ka Pa Ya	ကပရ	Pyi Htaung Su Main Road	ပြည်ထောင်စုလမ်းမကြီး	North Dagon	မြောက်ဒဂုံ	16.869954	96.207272
2	89	2349	Tadar Htate	တံတားထိပ်	Pyi Htaung Su Main Road	ပြည်ထောင်စုလမ်းမကြီး	North Dagon	မြောက်ဒဂုံ	16.866127	96.2089
2	90	1612	Myo Oo Zedi	မြို့ဦးစေတီ	Pyi Htaung Su Main Road	ပြည်ထောင်စုလမ်းမကြီး	North Dagon	မြောက်ဒဂုံ	16.862089	96.212765
2	91	679	Taung Myauk Lan Sone	တောင်/မြောက်လမ်းဆုံ	No. 2 Main Road	အမှတ်(၂)လမ်းမ	South Dagon	တောင်ဒဂုံ	16.862952	96.216452
2	93	693	Myo Oo Kyaung	မြို့ဦးကျောင်း	Maungmakan Kantha Road	မောင်းမကန်ကန်သာလမ်း	South Dagon	တောင်ဒဂုံ	16.861699	96.23019
2	94	710	Kun Yar Saing	ကွမ်းယာဆိုင်	Maungmakan Kantha Road	မောင်းမကန်ကန်သာလမ်း	South Dagon	တောင်ဒဂုံ	16.860179	96.232034
2	95	2134	Tadar Htate	တံတားထိပ်	Maungmakan Kantha Road	မောင်းမကန်ကန်သာလမ်း	South Dagon	တောင်ဒဂုံ	16.85598	96.237389
2	96	2135	Phone Gyi Kyaung Kwae	ဘုန်းကြီးကျောင်းကွေ့	Maungmakan Kantha Road	မောင်းမကန်ကန်သာလမ်း	South Dagon	တောင်ဒဂုံ	16.853854	96.240061
2	97	2137	Kar Lay Gate	ကားလေးဂိတ်	Hlawga Road	လှော်ကားလမ်း	South Dagon	တောင်ဒဂုံ	16.85176	96.237883
2	98	704	Hnit-sae Zay	(၂၀) ဈေး	Hlawga Road	လှော်ကားလမ်း	Shwe Pyithar	ရွှေပြည်သာ	16.849706	96.236123
2	99	707	Kone Taik	ကုန်တိုက်	Hlawga Road	လှော်ကားလမ်း	South Dagon	တောင်ဒဂုံ	16.848166	96.234815
2	100	668	Thitsar	သစ္စာ	Hlawga Road	လှော်ကားလမ်း	Shwe Pyithar	ရွှေပြည်သာ	16.845968	96.232785
2	101	654	Kyar Kan	ကြာကန်	Hlawga Road	လှော်ကားလမ်း	Shwe Pyithar	ရွှေပြည်သာ	16.844059	96.231197
2	102	657	Set Hmu Zone Zay	စက်မှုဇုံဈေး	Pyi Htaung Su Main Road	ပြည်ထောင်စုလမ်းမကြီး	South Dagon	တောင်ဒဂုံ	16.838349	96.232417
2	103	650	Ayeyarwaddy Lan Htate	ဧရာဝတီလမ်းထိပ်	Pyi Htaung Su Main Road	ပြည်ထောင်စုလမ်းမကြီး	South Dagon	တောင်ဒဂုံ	16.837302	96.233107
2	104	660	Shwe Taung Kyar Lan	ရွှေတောင်ကြားလမ်း	Pyi Htaung Su Main Road	ပြည်ထောင်စုလမ်းမကြီး	South Dagon	တောင်ဒဂုံ	16.834385	96.233901
2	105	661	Sittaung Lan Htate	စစ်တောင်းလမ်းထိပ်	Pyi Htaung Su Main Road	ပြည်ထောင်စုလမ်းမကြီး	South Dagon	တောင်ဒဂုံ	16.83153	96.234133
2	106	640	Sauk Lote Yae	ဆောက်လုပ်ရေး	Pyi Htaung Su Main Road	ပြည်ထောင်စုလမ်းမကြီး	South Dagon	တောင်ဒဂုံ	16.828635	96.240297
2	107	2141	Thone-Sae-Hnit Gate	(၃၂) ဂိတ်	Kyun Shwe Wah Road	ကျွန်းရွှေဝါလမ်း	South Dagon	တောင်ဒဂုံ	16.820727	96.265875
2	108	792	Sae-Tit Lan	(၁၁) လမ်း	Kyun Shwe Wah Road	ကျွန်းရွှေဝါလမ်း	Dagon Seikkan	ဒဂုံဆိပ်ကမ်း	16.823561	96.268083